{"distinct": [{"__class__": "tuple", "__value__": [{"city": "Washington", "zip": "20020", "community": "Rockburne Estates Apartments", "state": "DC", "geocode": {"__class__": "tuple", "__value__": [38.8523695618, -76.9697944075]}, "address": "2627 Jasper Street South East"}, {"city": "San Bernardino", "zip": "92410", "community": "Creekside Apartment Homes", "state": "CA", "geocode": {"__class__": "tuple", "__value__": [34.1044358164, -117.275255397]}, "address": "495 East Third Street"}]}, {"__class__": "tuple", "__value__": [{"city": "Kennesaw", "zip": "30144", "community": "Charlestowne", "state": "GA", "geocode": {"__class__": "tuple", "__value__": [46.3493614197, -94.1983718872]}, "address": "50 Creekside Drive"}, {"city": "Magnolia", "zip": "77354", "community": "The Estates Woodland", "state": "TX", "geocode": {"__class__": "tuple", "__value__": [30.1974906921, -95.5887374878]}, "address": "30685 FM 2978"}]}, {"__class__": "tuple", "__value__": [{"city": "Minneapolis", "zip": "55415", "community": "610 11th Ave Apartments", "state": "MN", "geocode": {"__class__": "tuple", "__value__": [44.9713499844, -93.2566449791]}, "address": "610 11th Avenue"}, {"city": "Bloomington", "zip": "47401", "community": "Walnut Springs Apartments", "state": "IN", "geocode": {"__class__": "tuple", "__value__": [39.1268789023, -86.5285415947]}, "address": "3296 South Walnut Springs Drive"}]}, {"__class__": "tuple", "__value__": [{"city": "Lewisville", "zip": "75067", "community": "The Abbey at Vista Ridge", "state": "TX", "geocode": {"__class__": "tuple", "__value__": [32.9977531433, -96.9831237793]}, "address": "350 East Vista Ridge Mall Drive"}, {"city": "Houston", "zip": "77042", "community": "Lamirage Resort Apartments", "state": "TX", "geocode": {"__class__": "tuple", "__value__": [29.7460327148, -95.5684738159]}, "address": "10925 Briar Forest Drive"}]}, {"__class__": "tuple", "__value__": [{"city": "New Brighton", "zip": "55112", "community": "Brighton Village Apartments", "state": "MN", "geocode": {"__class__": "tuple", "__value__": [45.0372886658, -93.2003707886]}, "address": "900 County Road D West"}, {"city": "Alpharetta", "zip": "30022", "community": "ALARA North Point", "state": "GA", "geocode": {"__class__": "tuple", "__value__": [46.3493614197, -94.1983718872]}, "address": "900 Jameson Pass"}]}, {"__class__": "tuple", "__value__": [{"city": "Richwood", "zip": "77531", "community": "Creekside Estates Apartments", "state": "TX", "geocode": {"__class__": "tuple", "__value__": [29.036151886, -95.3996887207]}, "address": "970 Brazosport Boulevard North"}, {"city": "Houston", "zip": "77058", "community": "Lakeshore", "state": "TX", "geocode": {"__class__": "tuple", "__value__": [29.572084, -95.111427]}, "address": "2305 Bay Area Boulevard"}]}, {"__class__": "tuple", "__value__": [{"city": "Allen", "zip": "75002", "community": "Wyndsor Court", "state": "TX", "geocode": {"__class__": "tuple", "__value__": [33.0984382629, -96.65675354]}, "address": "301 South Jupiter Road"}, {"city": "Dallas", "zip": "75243", "community": "The Azul", "state": "TX", "geocode": {"__class__": "tuple", "__value__": [32.8975448608, -96.7163391113]}, "address": "10928 Audelia Road"}]}, {"__class__": "tuple", "__value__": [{"city": "Washington", "zip": "20007", "community": "Archstone Glover Park Apartments", "state": "DC", "geocode": {"__class__": "tuple", "__value__": [38.9249649048, -77.0769958496]}, "address": "3850 Tunlaw Road North West"}, {"city": "Washington", "zip": "20001", "community": "Meridian at Mt. Vernon Triangle", "state": "DC", "geocode": {"__class__": "tuple", "__value__": [38.9037821442, -77.0167893916]}, "address": "425 L Street North West"}]}, {"__class__": "tuple", "__value__": [{"city": "Aurora", "zip": "80014", "community": "Winridge Apartments", "state": "CO", "geocode": {"__class__": "tuple", "__value__": [39.678314209, -104.848556519]}, "address": "2075 South Paris Way"}, {"city": "Aurora", "zip": "80014", "community": "Conifer Creek", "state": "CO", "geocode": {"__class__": "tuple", "__value__": [39.676311, -104.843612]}, "address": "2205 South Racine Way"}]}, {"__class__": "tuple", "__value__": [{"city": "Washington", "zip": "20020", "community": "Galen Terrace Apartments", "state": "DC", "geocode": {"__class__": "tuple", "__value__": [38.8634014875, -76.9818133861]}, "address": "1649 West Street South East"}, {"city": "Washington", "zip": "20009", "community": "14W", "state": "DC", "geocode": {"__class__": "tuple", "__value__": [38.860080719, -76.9878921509]}, "address": "1315 West Street Street South East"}]}, {"__class__": "tuple", "__value__": [{"city": "Washington", "zip": "20009", "community": "Diplomat Apartments", "state": "DC", "geocode": {"__class__": "tuple", "__value__": [38.9216194153, -77.0370407104]}, "address": "2420 16th Street North West"}, {"city": "Washington", "zip": "20009", "community": "2523 13th Street, NW", "state": "DC", "geocode": {"__class__": "tuple", "__value__": [38.9229156822, -77.02964589]}, "address": "2533 13th Street North West"}]}, {"__class__": "tuple", "__value__": [{"city": "Denver", "zip": "80203", "community": "Mezzo", "state": "CO", "geocode": {"__class__": "tuple", "__value__": [39.7308311462, -104.985496521]}, "address": "901 Sherman Street"}, {"city": "Denver", "zip": "80203", "community": "My Block Wash Park Apartments", "state": "CO", "geocode": {"__class__": "tuple", "__value__": [39.7201728821, -104.979446411]}, "address": "255 Washington Street"}]}, {"__class__": "tuple", "__value__": [{"city": "Euless", "zip": "76039", "community": "Colonial Grand at Bear Creek Apartments", "state": "TX", "geocode": {"__class__": "tuple", "__value__": [32.8547592163, -97.0720291138]}, "address": "1200 Fuller Wiser Road"}, {"city": "Euless", "zip": "76039", "community": "Arbors Of Euless", "state": "TX", "geocode": {"__class__": "tuple", "__value__": [32.8485374451, -97.0719070435]}, "address": "1002 Fuller Wiser Road"}]}, {"__class__": "tuple", "__value__": [{"city": "Indianapolis", "zip": "46227", "community": "Capitol Station Apartments", "state": "IN", "geocode": {"__class__": "tuple", "__value__": [39.6522979736, -86.1243667603]}, "address": "7828 Madison Avenue"}, {"city": "Indianapolis", "zip": "46227", "community": "Winchester Village Apartments", "state": "IN", "geocode": {"__class__": "tuple", "__value__": [39.6494140625, -86.1227874756]}, "address": "8028 Madison Avenue"}]}, {"__class__": "tuple", "__value__": [{"city": "Washington", "zip": "20009", "community": "The Cortland Apartments", "state": "DC", "geocode": {"__class__": "tuple", "__value__": [38.9230410755, -77.0410184562]}, "address": "1760 Euclid Street North West"}, {"city": "Washington", "zip": "20009", "community": "Carmel Partners Apartments", "state": "DC", "geocode": {"__class__": "tuple", "__value__": [38.9281806946, -77.0361404419]}, "address": "3055 16th Street North West"}]}, {"__class__": "tuple", "__value__": [{"city": "Saint Paul", "zip": "55101", "community": "Cosmopolitan Apartments", "state": "MN", "geocode": {"__class__": "tuple", "__value__": [44.9501658976, -93.0874022841]}, "address": "250 East 6th Street"}, {"city": "Saint Paul", "zip": "55101", "community": "Lowertown Lofts", "state": "MN", "geocode": {"__class__": "tuple", "__value__": [44.9491473287, -93.0871280283]}, "address": "240 East 5th Street"}]}, {"__class__": "tuple", "__value__": [{"city": "Houston", "zip": "77036", "community": "Villa de Cancun Apartments", "state": "TX", "geocode": {"__class__": "tuple", "__value__": [29.6790008545, -95.5537567139]}, "address": "9450 Woodfair Drive"}, {"city": "Houston", "zip": "77036", "community": "Premier On Woodfair Apartments", "state": "TX", "geocode": {"__class__": "tuple", "__value__": [29.6768932343, -95.5546035767]}, "address": "9502 Woodfair Drive"}]}, {"__class__": "tuple", "__value__": [{"city": "Irving", "zip": "75038", "community": "Heather Ridge Apartments", "state": "TX", "geocode": {"__class__": "tuple", "__value__": [32.861751616, -97.0048221946]}, "address": "4030 Esters Road"}, {"city": "Irving", "zip": "75038", "community": "Huntington Ridge", "state": "TX", "geocode": {"__class__": "tuple", "__value__": [32.8627128601, -97.001159668]}, "address": "4220 Esters Road"}]}, {"__class__": "tuple", "__value__": [{"city": "Washington", "zip": "20001", "community": "The Severna on K", "state": "DC", "geocode": {"__class__": "tuple", "__value__": [38.9025650918, -77.0102481544]}, "address": "43 K Street North West"}, {"city": "Washington", "zip": "20001", "community": "Meridian at Mount Vernon Triangle", "state": "DC", "geocode": {"__class__": "tuple", "__value__": [38.9016647339, -77.0169067383]}, "address": "425 L Street North West"}]}, {"__class__": "tuple", "__value__": [{"city": "West Saint Paul", "zip": "55118", "community": "212 Thompson Ave W", "state": "MN", "geocode": {"__class__": "tuple", "__value__": [44.9011383057, -93.0939407349]}, "address": "212 Thompson Avenue West"}, {"city": "West Saint Paul", "zip": "55118", "community": "Oaks of Heatherwood Apartments", "state": "MN", "geocode": {"__class__": "tuple", "__value__": [44.9004516602, -93.0891876221]}, "address": "100 Thompson Avenue West"}]}, {"__class__": "tuple", "__value__": [{"city": "Aurora", "zip": "80014", "community": "Asbury Park Apartments", "state": "CO", "geocode": {"__class__": "tuple", "__value__": [39.6807022095, -104.864204407]}, "address": "10571 Asbury Avenue"}, {"city": "Denver", "zip": "80222", "community": "Asbury Plaza Apartments", "state": "CO", "geocode": {"__class__": "tuple", "__value__": [39.6803453565, -104.927747101]}, "address": "5170 Asbury Avenue"}]}, {"__class__": "tuple", "__value__": [{"city": "Houston", "zip": "77064", "community": "Stone Canyon", "state": "TX", "geocode": {"__class__": "tuple", "__value__": [29.9091148376, -95.5816726685]}, "address": "10919 West Road"}, {"city": "Houston", "zip": "77064", "community": "Ascot Court", "state": "TX", "geocode": {"__class__": "tuple", "__value__": [29.9108142853, -95.5807723999]}, "address": "10910 West Road"}]}, {"__class__": "tuple", "__value__": [{"city": "Bloomington", "zip": "47408", "community": "2301 E 5th St", "state": "IN", "geocode": {"__class__": "tuple", "__value__": [39.1669654846, -86.5058746338]}, "address": "2301 East 5th Street"}, {"city": "Bloomington", "zip": "47408", "community": "406 E 11th St Bloomington, IN 47408", "state": "IN", "geocode": {"__class__": "tuple", "__value__": [39.173425287, -86.5294964612]}, "address": "406 East 11th Street"}]}, {"__class__": "tuple", "__value__": [{"city": "Denver", "zip": "80218", "community": "The Coachman Apartments", "state": "CO", "geocode": {"__class__": "tuple", "__value__": [39.732696, -104.97264]}, "address": "1044 Downing Street"}, {"city": "Denver", "zip": "80218", "community": "970 Downing St", "state": "CO", "geocode": {"__class__": "tuple", "__value__": [39.7316894531, -104.972640991]}, "address": "970 Downing Street"}]}, {"__class__": "tuple", "__value__": [{"city": "Chevy Chase", "zip": "20815", "community": "Highland House West Apartments", "state": "MD", "geocode": {"__class__": "tuple", "__value__": [38.9627838135, -77.0884780884]}, "address": "4450 South Park Avenue"}, {"city": "Chevy Chase", "zip": "20815", "community": "North Park Apartments", "state": "MD", "geocode": {"__class__": "tuple", "__value__": [38.9636611938, -77.0924072266]}, "address": "4615 North Park Avenue"}]}, {"__class__": "tuple", "__value__": [{"city": "Plano", "zip": "75093", "community": "Bel Air Willow Bend", "state": "TX", "geocode": {"__class__": "tuple", "__value__": [33.0323219299, -96.7967453003]}, "address": "2525 Preston Road"}, {"city": "Plano", "zip": "75093", "community": "2601 Preston Rd", "state": "TX", "geocode": {"__class__": "tuple", "__value__": [33.0339789391, -96.7948682606]}, "address": "2601 Preston Road"}]}, {"__class__": "tuple", "__value__": [{"city": "Houston", "zip": "77019", "community": "AMLI Towne Square Apartments", "state": "TX", "geocode": {"__class__": "tuple", "__value__": [29.7584152222, -95.39012146]}, "address": "2210 West Dallas Street"}, {"city": "Houston", "zip": "77019", "community": "Allen House Apartments", "state": "TX", "geocode": {"__class__": "tuple", "__value__": [29.7570886463, -95.4011200368]}, "address": "3433 West Dallas"}]}, {"__class__": "tuple", "__value__": [{"city": "League City", "zip": "77573", "community": "Avana at South Shore Apartments", "state": "TX", "geocode": {"__class__": "tuple", "__value__": [29.5095119476, -95.0389862061]}, "address": "2800 East League City Parkway"}, {"city": "League City", "zip": "77573", "community": "Camden Cypress Creek", "state": "TX", "geocode": {"__class__": "tuple", "__value__": [29.5091342926, -95.0353851318]}, "address": "3001 East League City Parkway"}]}, {"__class__": "tuple", "__value__": [{"city": "Dallas", "zip": "75231", "community": "Princeton Court Apartments", "state": "TX", "geocode": {"__class__": "tuple", "__value__": [32.8665614873, -96.7586490512]}, "address": "6121 Melody Lane"}, {"city": "Dallas", "zip": "75231", "community": "East Town Apartments", "state": "TX", "geocode": {"__class__": "tuple", "__value__": [32.8654174805, -96.7531051636]}, "address": "6415 Melody Lane"}]}, {"__class__": "tuple", "__value__": [{"city": "Minneapolis", "zip": "55403", "community": "Park Terrace Apartments", "state": "MN", "geocode": {"__class__": "tuple", "__value__": [44.9675521851, -93.2839050293]}, "address": "330 Oak Grove Street"}, {"city": "Minneapolis", "zip": "55403", "community": "116 Oak Grove Street Apartments", "state": "MN", "geocode": {"__class__": "tuple", "__value__": [44.9666938782, -93.2801818848]}, "address": "116 Oak Grove Street"}]}, {"__class__": "tuple", "__value__": [{"city": "Stockbridge", "zip": "30281", "community": "Cameron Landing Apartments", "state": "GA", "geocode": {"__class__": "tuple", "__value__": [33.5547904968, -84.276725769]}, "address": "3470 Mt Zion Road"}, {"city": "Stockbridge", "zip": "30281", "community": "Cambridge Pointe", "state": "GA", "geocode": {"__class__": "tuple", "__value__": [33.5556526184, -84.2814331055]}, "address": "3384 Mt Zion Road"}]}, {"__class__": "tuple", "__value__": [{"city": "Kingwood", "zip": "77345", "community": "Harbor View", "state": "TX", "geocode": {"__class__": "tuple", "__value__": [30.034944, -95.173049]}, "address": "4855 Magnolia Cove Drive"}, {"city": "Kingwood", "zip": "77345", "community": "Kings Cove Luxury Apartments", "state": "TX", "geocode": {"__class__": "tuple", "__value__": [30.0367279053, -95.1725616455]}, "address": "4920 Magnolia Cove Drive"}]}, {"__class__": "tuple", "__value__": [{"city": "The Woodlands", "zip": "77380", "community": "Millennium Six Pines", "state": "TX", "geocode": {"__class__": "tuple", "__value__": [30.1568410546, -95.4618606716]}, "address": "10200 Six Pines Drive"}, {"city": "The Woodlands", "zip": "77380", "community": "Avana Six Pines", "state": "TX", "geocode": {"__class__": "tuple", "__value__": [30.1529178619, -95.4584732056]}, "address": "10600 Six Pines Drive"}]}, {"__class__": "tuple", "__value__": [{"city": "Houston", "zip": "77099", "community": "Woodstone Manor Apartments", "state": "TX", "geocode": {"__class__": "tuple", "__value__": [29.6663684845, -95.5768890381]}, "address": "10250 Lands End Drive"}, {"city": "Houston", "zip": "77099", "community": "Ashford Stancliff Park Apartments", "state": "TX", "geocode": {"__class__": "tuple", "__value__": [29.6638011932, -95.5771102905]}, "address": "10350 Lands End Drive"}]}, {"__class__": "tuple", "__value__": [{"city": "Suwanee", "zip": "30024", "community": "Noble Village at Sugarloaf Senior Apartments", "state": "GA", "geocode": {"__class__": "tuple", "__value__": [34.0095481873, -84.0714111328]}, "address": "1220 Satellite Boulevard"}, {"city": "Duluth", "zip": "30097", "community": "Highlands At Sugarloaf Apartments", "state": "GA", "geocode": {"__class__": "tuple", "__value__": [33.9975457639, -84.0871768445]}, "address": "1796 Satellite Boulevard"}]}, {"__class__": "tuple", "__value__": [{"city": "Minneapolis", "zip": "55415", "community": "610 11th Ave Apartments", "state": "MN", "geocode": {"__class__": "tuple", "__value__": [44.9713499844, -93.2566449791]}, "address": "610 11th Avenue"}, {"city": "Minneapolis", "zip": "55414", "community": "619 11th Ave SE Apartments", "state": "MN", "geocode": {"__class__": "tuple", "__value__": [44.9848098755, -93.2382583618]}, "address": "619 11th Avenue South East"}]}, {"__class__": "tuple", "__value__": [{"city": "Washington", "zip": "20009", "community": "Diplomat Apartments", "state": "DC", "geocode": {"__class__": "tuple", "__value__": [38.9216194153, -77.0370407104]}, "address": "2420 16th Street North West"}, {"city": "Washington", "zip": "20009", "community": "View 14", "state": "DC", "geocode": {"__class__": "tuple", "__value__": [38.9201959223, -77.0318439603]}, "address": "2303 14th Street North West"}]}, {"__class__": "tuple", "__value__": [{"city": "Minneapolis", "zip": "55414", "community": "520 12th Avenue SE Apartments", "state": "MN", "geocode": {"__class__": "tuple", "__value__": [44.9831695557, -93.2369232178]}, "address": "520 12th Avenue South East"}, {"city": "Minneapolis", "zip": "55414", "community": "The Marshall", "state": "MN", "geocode": {"__class__": "tuple", "__value__": [44.9817120284, -93.2349090278]}, "address": "515 14th Avenue South East"}]}, {"__class__": "tuple", "__value__": [{"city": "Houston", "zip": "77077", "community": "Seventeen 15 Enclave Apartments", "state": "TX", "geocode": {"__class__": "tuple", "__value__": [29.7503911704, -95.6187075377]}, "address": "1715 Enclave Parkway"}, {"city": "Houston", "zip": "77077", "community": "Tarrytowne Estates Senior Apartments", "state": "TX", "geocode": {"__class__": "tuple", "__value__": [29.7487869263, -95.6176757812]}, "address": "1815 Enclave Parkway"}]}, {"__class__": "tuple", "__value__": [{"city": "Denver", "zip": "80238", "community": "Botanica Town Center", "state": "CO", "geocode": {"__class__": "tuple", "__value__": [39.7585377842, -104.900451601]}, "address": "2900 Roslyn Street"}, {"city": "Denver", "zip": "80238", "community": "The Aster Town Center", "state": "CO", "geocode": {"__class__": "tuple", "__value__": [39.7610523552, -104.899700582]}, "address": "3131 Roslyn Street"}]}, {"__class__": "tuple", "__value__": [{"city": "Saint Paul", "zip": "55116", "community": "Davern Park Apartments", "state": "MN", "geocode": {"__class__": "tuple", "__value__": [44.9041532725, -93.1688609719]}, "address": "1517 Street Paul Avenue"}, {"city": "Saint Paul", "zip": "55116", "community": "Highland Park Apartments", "state": "MN", "geocode": {"__class__": "tuple", "__value__": [44.9041613191, -93.1667950004]}, "address": "1575 Saint Paul Avenue"}]}, {"__class__": "tuple", "__value__": [{"city": "Spring", "zip": "77380", "community": "Fawn Ridge Apartments", "state": "TX", "geocode": {"__class__": "tuple", "__value__": [30.1272411346, -95.464050293]}, "address": "12420 Sawmill Road"}, {"city": "The Woodlands", "zip": "77380", "community": "Avana Grogan's Mill", "state": "TX", "geocode": {"__class__": "tuple", "__value__": [30.132654, -95.462875]}, "address": "12000 Sawmill Road"}]}, {"__class__": "tuple", "__value__": [{"city": "Spring", "zip": "77380", "community": "Furnished Studio - Houston - the Woodlands", "state": "TX", "geocode": {"__class__": "tuple", "__value__": [30.1355857849, -95.4467773438]}, "address": "150 Valley Wood Road"}, {"city": "Woodlands", "zip": "77380", "community": "Green Tree Place", "state": "TX", "geocode": {"__class__": "tuple", "__value__": [30.1342353821, -95.4485931396]}, "address": "315 Valleywood Road"}]}, {"__class__": "tuple", "__value__": [{"city": "Fort Worth", "zip": "76132", "community": "Enclave At Cityview", "state": "TX", "geocode": {"__class__": "tuple", "__value__": [32.6738700867, -97.4107055664]}, "address": "5401 Overton Ridge Boulevard"}, {"city": "Fort Worth", "zip": "76132", "community": "Remington Hill", "state": "TX", "geocode": {"__class__": "tuple", "__value__": [32.674255, -97.414459]}, "address": "5701 Overton Ridge Boulevard"}]}, {"__class__": "tuple", "__value__": [{"city": "Duluth", "zip": "30096", "community": "Merritt at Sugarloaf", "state": "GA", "geocode": {"__class__": "tuple", "__value__": [46.7879600525, -92.0998535156]}, "address": "2951 Satellite Boulevard"}, {"city": "Duluth", "zip": "30096", "community": "Gwinnett Square", "state": "GA", "geocode": {"__class__": "tuple", "__value__": [46.7879600525, -92.0998535156]}, "address": "4175 Satellite Boulevard"}]}, {"__class__": "tuple", "__value__": [{"city": "Wheaton", "zip": "20902", "community": "The George", "state": "MD", "geocode": {"__class__": "tuple", "__value__": [39.037815094, -77.0499038696]}, "address": "11141 Georgia Avenue"}, {"city": "Wheaton", "zip": "20902", "community": "MetroPointe", "state": "MD", "geocode": {"__class__": "tuple", "__value__": [39.0383682251, -77.0499649048]}, "address": "11175 Georgia Avenue"}]}, {"__class__": "tuple", "__value__": [{"city": "Plano", "zip": "75074", "community": "Sheridan Park at Spring Creek", "state": "TX", "geocode": {"__class__": "tuple", "__value__": [33.0573272705, -96.6831054688]}, "address": "2001 East Spring Creek Parkway"}, {"city": "Plano", "zip": "75074", "community": "The Giovanna", "state": "TX", "geocode": {"__class__": "tuple", "__value__": [33.0543441772, -96.6885452271]}, "address": "1800 East Springcreek Parkway"}]}, {"__class__": "tuple", "__value__": [{"city": "Silver Spring", "zip": "20904", "community": "Windsor Court and Tower", "state": "MD", "geocode": {"__class__": "tuple", "__value__": [39.0820994228, -76.9444971532]}, "address": "13802 Castle Boulevard"}, {"city": "Silver Spring", "zip": "20904", "community": "Waterford Tower", "state": "MD", "geocode": {"__class__": "tuple", "__value__": [39.085811615, -76.9415435791]}, "address": "14000 Castle Boulevard"}]}, {"__class__": "tuple", "__value__": [{"city": "Glendale", "zip": "80246", "community": "Cedar Pointe", "state": "CO", "geocode": {"__class__": "tuple", "__value__": [39.7001548111, -104.931314439]}, "address": "4822 East Kentucky Avenue"}, {"city": "Glendale", "zip": "80246", "community": "The Edge Apartments", "state": "CO", "geocode": {"__class__": "tuple", "__value__": [39.6997299194, -104.93347168]}, "address": "4600 East Kentucky Avenue"}]}, {"__class__": "tuple", "__value__": [{"city": "Houston", "zip": "77056", "community": "Metropolitan Uptown Apartments", "state": "TX", "geocode": {"__class__": "tuple", "__value__": [29.734008, -95.467529]}, "address": "3300 Sage Road Apt 8303"}, {"city": "Houston", "zip": "77056", "community": "3505 Sage Rd", "state": "TX", "geocode": {"__class__": "tuple", "__value__": [29.7299060822, -95.4659576416]}, "address": "3505 Sage Road"}]}, {"__class__": "tuple", "__value__": [{"city": "Athens", "zip": "30605", "community": "Lane Properties Apartments", "state": "GA", "geocode": {"__class__": "tuple", "__value__": [33.933116, -83.329864]}, "address": "575 Gaines School Road"}, {"city": "Athens", "zip": "30605", "community": "Carriage House", "state": "GA", "geocode": {"__class__": "tuple", "__value__": [33.930477, -83.333641]}, "address": "855 Gaines School Road"}]}, {"__class__": "tuple", "__value__": [{"city": "Euless", "zip": "76040", "community": "Hillcrest Apartments", "state": "TX", "geocode": {"__class__": "tuple", "__value__": [32.8167457581, -97.0700912476]}, "address": "3750 Post Oak Boulevard"}, {"city": "Euless", "zip": "76040", "community": "Palo Alto", "state": "TX", "geocode": {"__class__": "tuple", "__value__": [32.8173446655, -97.0679016113]}, "address": "3808 Post Oak Boulevard"}]}, {"__class__": "tuple", "__value__": [{"city": "Duluth", "zip": "30096", "community": "The Promenade at Berkeley", "state": "GA", "geocode": {"__class__": "tuple", "__value__": [46.7879600525, -92.0998535156]}, "address": "3750 Peachtree Industrial Boulevard"}, {"city": "Duluth", "zip": "30096", "community": "The Atlantic Howell Station", "state": "GA", "geocode": {"__class__": "tuple", "__value__": [46.7879600525, -92.0998535156]}, "address": "3655 Peachtree Industrial Boulevard"}]}, {"__class__": "tuple", "__value__": [{"city": "Minneapolis", "zip": "55414", "community": "1319 7th St SE Apartments", "state": "MN", "geocode": {"__class__": "tuple", "__value__": [44.9839134216, -93.2336807251]}, "address": "1319 7th Street South East"}, {"city": "Minneapolis", "zip": "55414", "community": "916 6th Street SE Apartments", "state": "MN", "geocode": {"__class__": "tuple", "__value__": [44.9847488403, -93.2405929565]}, "address": "916 6th Street South East"}]}, {"__class__": "tuple", "__value__": [{"city": "Dallas", "zip": "75238", "community": "Springhouse Apartments", "state": "TX", "geocode": {"__class__": "tuple", "__value__": [32.868064, -96.68103]}, "address": "12660 Jupiter Road"}, {"city": "Dallas", "zip": "75238", "community": "McMillan Place", "state": "TX", "geocode": {"__class__": "tuple", "__value__": [32.8667602539, -96.6811904907]}, "address": "12610 Jupiter Road"}]}, {"__class__": "tuple", "__value__": [{"city": "Minneapolis", "zip": "55414", "community": "1319 7th St SE Apartments", "state": "MN", "geocode": {"__class__": "tuple", "__value__": [44.9839134216, -93.2336807251]}, "address": "1319 7th Street South East"}, {"city": "Minneapolis", "zip": "55414", "community": "The Gopher Lodge Apartments", "state": "MN", "geocode": {"__class__": "tuple", "__value__": [44.9847412109, -93.2326507568]}, "address": "1335 8th Street South East"}]}, {"__class__": "tuple", "__value__": [{"city": "Eagan", "zip": "55122", "community": "Royal Oaks Apartments", "state": "MN", "geocode": {"__class__": "tuple", "__value__": [44.8293952942, -93.1758956909]}, "address": "3515 Federal Drive"}, {"city": "Eagan", "zip": "55122", "community": "Surrey Gardens", "state": "MN", "geocode": {"__class__": "tuple", "__value__": [44.8328933716, -93.1746063232]}, "address": "3415 Federal Drive"}]}, {"__class__": "tuple", "__value__": [{"city": "Duluth", "zip": "30096", "community": "Berkeley Landing", "state": "GA", "geocode": {"__class__": "tuple", "__value__": [46.7879600525, -92.0998535156]}, "address": "3700 Peachtree Industrial Boulevard"}, {"city": "Duluth", "zip": "30096", "community": "Howell Bridge", "state": "GA", "geocode": {"__class__": "tuple", "__value__": [46.7879600525, -92.0998535156]}, "address": "3350 Peachtree Industrial Boulevard"}]}, {"__class__": "tuple", "__value__": [{"city": "Lone Tree", "zip": "80124", "community": "Crest Lonetree", "state": "CO", "geocode": {"__class__": "tuple", "__value__": [39.5513496399, -104.871826172]}, "address": "10047 Park Meadows Drive"}, {"city": "Lone Tree", "zip": "80124", "community": "Metropolitan at Lincoln Station", "state": "CO", "geocode": {"__class__": "tuple", "__value__": [39.5502967834, -104.870948792]}, "address": "10185 Park Meadows Drive"}]}, {"__class__": "tuple", "__value__": [{"city": "Spring", "zip": "77380", "community": "Green Tree Place", "state": "TX", "geocode": {"__class__": "tuple", "__value__": [30.1365070343, -95.4686584473]}, "address": "315 Valleywood Road"}, {"city": "Woodlands", "zip": "77380", "community": "Green Tree Place", "state": "TX", "geocode": {"__class__": "tuple", "__value__": [30.1342353821, -95.4485931396]}, "address": "315 Valleywood Road"}]}, {"__class__": "tuple", "__value__": [{"city": "Houston", "zip": "77084", "community": "Trails of Timber Creek Apartments", "state": "TX", "geocode": {"__class__": "tuple", "__value__": [29.8547172546, -95.6424484253]}, "address": "5315 Timber Creek Place Drive"}, {"city": "Houston", "zip": "77084", "community": "Bear Creek Crossing", "state": "TX", "geocode": {"__class__": "tuple", "__value__": [29.857381, -95.641899]}, "address": "5535 Timber Creek Place Drive"}]}, {"__class__": "tuple", "__value__": [{"city": "Minneapolis", "zip": "55403", "community": "Park Terrace Apartments", "state": "MN", "geocode": {"__class__": "tuple", "__value__": [44.9675521851, -93.2839050293]}, "address": "330 Oak Grove Street"}, {"city": "Minneapolis", "zip": "55403", "community": "430 Oak Grove", "state": "MN", "geocode": {"__class__": "tuple", "__value__": [44.9679374695, -93.2854385376]}, "address": "430 Oak Grove Street"}]}, {"__class__": "tuple", "__value__": [{"city": "Washington", "zip": "20001", "community": "Immaculate Conception Apartments", "state": "DC", "geocode": {"__class__": "tuple", "__value__": [38.9080352783, -77.0223846436]}, "address": "1330 7th Street North West"}, {"city": "Washington", "zip": "20001", "community": "Gibson Plaza Apartments", "state": "DC", "geocode": {"__class__": "tuple", "__value__": [38.907913208, -77.0214080811]}, "address": "1301 7th Street North West"}]}, {"__class__": "tuple", "__value__": [{"city": "Denver", "zip": "80205", "community": "Point 21", "state": "CO", "geocode": {"__class__": "tuple", "__value__": [39.7535736859, -104.990176186]}, "address": "2131 Lawrence Street"}, {"city": "Denver", "zip": "80205", "community": "2020 Lawrence", "state": "CO", "geocode": {"__class__": "tuple", "__value__": [39.7525978088, -104.990791321]}, "address": "2020 Lawrence Street"}]}, {"__class__": "tuple", "__value__": [{"city": "Grand Prairie", "zip": "75050", "community": "Fairway", "state": "TX", "geocode": {"__class__": "tuple", "__value__": [32.7909698486, -97.0598983765]}, "address": "2355 North State Highway 360"}, {"city": "Grand Prairie", "zip": "75050", "community": "The Seasons at Green Oaks", "state": "TX", "geocode": {"__class__": "tuple", "__value__": [32.788318634, -97.0604934692]}, "address": "2175 North Highway 360"}]}, {"__class__": "tuple", "__value__": [{"city": "Westminster", "zip": "80030", "community": "2962 Eliot Cir", "state": "CO", "geocode": {"__class__": "tuple", "__value__": [39.8279190063, -105.023345947]}, "address": "2962 Eliot Circle"}, {"city": "Westminster", "zip": "80030", "community": "Westminster Park Plaza Apartments", "state": "CO", "geocode": {"__class__": "tuple", "__value__": [39.8281135559, -105.020088196]}, "address": "2740 Eliot Circle"}]}, {"__class__": "tuple", "__value__": [{"city": "Houston", "zip": "77084", "community": "Park Place Houston Apartments", "state": "TX", "geocode": {"__class__": "tuple", "__value__": [29.7898216248, -95.6517562866]}, "address": "15200 Park Row"}, {"city": "Houston", "zip": "77084", "community": "Marquis on Park Row", "state": "TX", "geocode": {"__class__": "tuple", "__value__": [29.7875366211, -95.6525726318]}, "address": "15211 Park Row Drive"}]}, {"__class__": "tuple", "__value__": [{"city": "Washington", "zip": "20009", "community": "The Envoy", "state": "DC", "geocode": {"__class__": "tuple", "__value__": [38.92137146, -77.0375518799]}, "address": "2400 16th Street North West"}, {"city": "Washington", "zip": "20009", "community": "Dorchester House", "state": "DC", "geocode": {"__class__": "tuple", "__value__": [38.9227561951, -77.0374526978]}, "address": "2480 16th Street North West"}]}, {"__class__": "tuple", "__value__": [{"city": "Houston", "zip": "77088", "community": "Streamside Place Apartments", "state": "TX", "geocode": {"__class__": "tuple", "__value__": [29.8821334839, -95.4661941528]}, "address": "5335 West Gulf Bank Road"}, {"city": "Houston", "zip": "77088", "community": "Villa Nueva", "state": "TX", "geocode": {"__class__": "tuple", "__value__": [29.8839626312, -95.4648513794]}, "address": "5300 West Gulf Bank"}]}, {"__class__": "tuple", "__value__": [{"city": "Houston", "zip": "77036", "community": "Santa Barbara Apartments", "state": "TX", "geocode": {"__class__": "tuple", "__value__": [29.6830997467, -95.5523910522]}, "address": "9955 Club Creek Drive"}, {"city": "Houston", "zip": "77036", "community": "Emerald Isle Apartments", "state": "TX", "geocode": {"__class__": "tuple", "__value__": [29.6820087433, -95.5517196655]}, "address": "9901 Club Creek Drive"}]}, {"__class__": "tuple", "__value__": [{"city": "Westminster", "zip": "80021", "community": "Walnut Creek Apartments", "state": "CO", "geocode": {"__class__": "tuple", "__value__": [39.883438, -105.092964]}, "address": "10350 Dover Street"}, {"city": "Westminster", "zip": "80021", "community": "The Sanctuary Apartment Homes", "state": "CO", "geocode": {"__class__": "tuple", "__value__": [39.8839645386, -105.094528198]}, "address": "10305 Dover Street"}]}, {"__class__": "tuple", "__value__": [{"city": "Houston", "zip": "77079", "community": "Argyle at Memorial Apartments", "state": "TX", "geocode": {"__class__": "tuple", "__value__": [29.7733327746, -95.6150195003]}, "address": "14900 Memorial Drive"}, {"city": "Houston", "zip": "77079", "community": "Memorial P Apartments", "state": "TX", "geocode": {"__class__": "tuple", "__value__": [29.7789649963, -95.6218414307]}, "address": "15135 Memorial Drive"}]}, {"__class__": "tuple", "__value__": [{"city": "Denver", "zip": "80218", "community": "The Amberton", "state": "CO", "geocode": {"__class__": "tuple", "__value__": [39.7287406921, -104.974395752]}, "address": "777 Corona Street"}, {"city": "Denver", "zip": "80218", "community": "The Logan", "state": "CO", "geocode": {"__class__": "tuple", "__value__": [39.7217788696, -104.974372864]}, "address": "383 Corona Street"}]}, {"__class__": "tuple", "__value__": [{"city": "Denver", "zip": "80209", "community": "La Roma", "state": "CO", "geocode": {"__class__": "tuple", "__value__": [39.7163734436, -104.977218628]}, "address": "1 South Emerson Street"}, {"city": "Denver", "zip": "80209", "community": "The Emme Apartments", "state": "CO", "geocode": {"__class__": "tuple", "__value__": [39.7159614563, -104.977218628]}, "address": "25 South Emerson Street"}]}, {"__class__": "tuple", "__value__": [{"city": "Lakewood", "zip": "80235", "community": "Marston Pointe", "state": "CO", "geocode": {"__class__": "tuple", "__value__": [39.6452587098, -105.085416734]}, "address": "7875 West Mansfield Parkway"}, {"city": "Lakewood", "zip": "80235", "community": "Skye Crest", "state": "CO", "geocode": {"__class__": "tuple", "__value__": [39.6483915299, -105.085325539]}, "address": "7846 West Mansfield Parkway"}]}, {"__class__": "tuple", "__value__": [{"city": "Norcross", "zip": "30093", "community": "Highland Valley", "state": "GA", "geocode": {"__class__": "tuple", "__value__": [33.8739013672, -84.1912384033]}, "address": "4250 Jimmy Carter Boulevard"}, {"city": "Norcross", "zip": "30093", "community": "Grove Point Apartments", "state": "GA", "geocode": {"__class__": "tuple", "__value__": [33.8791427612, -84.1923675537]}, "address": "4350 Jimmy Carter Boulevard"}]}, {"__class__": "tuple", "__value__": [{"city": "Kennesaw", "zip": "30144", "community": "Heights of Kennesaw Apartments", "state": "GA", "geocode": {"__class__": "tuple", "__value__": [46.3493614197, -94.1983718872]}, "address": "1950 Barrett Lakes Boulevard North West"}, {"city": "Kennesaw", "zip": "30144", "community": "Barrett Walk", "state": "GA", "geocode": {"__class__": "tuple", "__value__": [46.3493614197, -94.1983718872]}, "address": "2055 Barrett Lakes Boulevard North West"}]}, {"__class__": "tuple", "__value__": [{"city": "Denver", "zip": "80206", "community": "Metropolitan at Cheesman Park", "state": "CO", "geocode": {"__class__": "tuple", "__value__": [39.7371673584, -104.964393616]}, "address": "1901 East 13th Avenue"}, {"city": "Denver", "zip": "80218", "community": "Le Cirque", "state": "CO", "geocode": {"__class__": "tuple", "__value__": [39.7366065979, -104.974952698]}, "address": "1010 East 13th Avenue"}]}, {"__class__": "tuple", "__value__": [{"city": "Washington", "zip": "20816", "community": "Linwood Apartments", "state": "DC", "geocode": {"__class__": "tuple", "__value__": [38.861503, -76.978584]}, "address": "1829 P Street South East"}, {"city": "Washington", "zip": "20020", "community": "Linwood Apartments", "state": "DC", "geocode": {"__class__": "tuple", "__value__": [38.8719858974, -76.9785451144]}, "address": "1829 P Street South East"}]}, {"__class__": "tuple", "__value__": [{"city": "Sandy Springs", "zip": "30342", "community": "Perimeter Circle", "state": "GA", "geocode": {"__class__": "tuple", "__value__": [33.9065628052, -84.3718795776]}, "address": "5470 Glenridge Drive North East"}, {"city": "Sandy Springs", "zip": "30342", "community": "Charleston Court", "state": "GA", "geocode": {"__class__": "tuple", "__value__": [33.9037590027, -84.3739929199]}, "address": "5450 Glenridge Drive"}]}, {"__class__": "tuple", "__value__": [{"city": "Denver", "zip": "80202", "community": "Bank and Boston Lofts Apartments", "state": "CO", "geocode": {"__class__": "tuple", "__value__": [39.7469881922, -104.992004111]}, "address": "817 17th Street"}, {"city": "Denver", "zip": "80202", "community": "$1349- The Midland Lofts", "state": "CO", "geocode": {"__class__": "tuple", "__value__": [39.7443809509, -104.989257812]}, "address": "444 17th Street"}]}, {"__class__": "tuple", "__value__": [{"city": "Suitland", "zip": "20746", "community": "Capital Crossing", "state": "MD", "geocode": {"__class__": "tuple", "__value__": [38.8599354029, -76.9474676996]}, "address": "3930 Suitland Road"}, {"city": "Suitland", "zip": "20746", "community": "Ashton Heights", "state": "MD", "geocode": {"__class__": "tuple", "__value__": [38.8601341248, -76.9493865967]}, "address": "3901 Suitland Road"}]}, {"__class__": "tuple", "__value__": [{"city": "Denver", "zip": "80237", "community": "Sunbridge Assisted Living", "state": "CO", "geocode": {"__class__": "tuple", "__value__": [39.62550354, -104.912719727]}, "address": "4901 South Monaco Street"}, {"city": "Denver", "zip": "80237", "community": "Presidio", "state": "CO", "geocode": {"__class__": "tuple", "__value__": [39.6347503662, -104.910102844]}, "address": "4380 South Monaco Street"}]}, {"__class__": "tuple", "__value__": [{"city": "Lakewood", "zip": "80226", "community": "Belmar Villas Apartments", "state": "CO", "geocode": {"__class__": "tuple", "__value__": [39.7032165527, -105.073459446]}, "address": "700 South Reed Court"}, {"city": "Lakewood", "zip": "80226", "community": "Lakeview Towers at Belmar", "state": "CO", "geocode": {"__class__": "tuple", "__value__": [39.7043113708, -105.075454712]}, "address": "679 South Reed Court"}]}, {"__class__": "tuple", "__value__": [{"city": "Lakewood", "zip": "80226", "community": "Lakeview Towers at Belmar", "state": "CO", "geocode": {"__class__": "tuple", "__value__": [39.7043113708, -105.075454712]}, "address": "679 South Reed Court"}, {"city": "Lakewood", "zip": "80226", "community": "Belmar Villas Apartments", "state": "CO", "geocode": {"__class__": "tuple", "__value__": [39.7032165527, -105.073459446]}, "address": "700 South Reed Court"}]}, {"__class__": "tuple", "__value__": [{"city": "Minneapolis", "zip": "55404", "community": "Pillsbury Estates", "state": "MN", "geocode": {"__class__": "tuple", "__value__": [44.9569091797, -93.2817764282]}, "address": "2508 Pillsbury Avenue South"}, {"city": "Minneapolis", "zip": "55404", "community": "Pillsbury Manor", "state": "MN", "geocode": {"__class__": "tuple", "__value__": [44.9580192566, -93.2808227539]}, "address": "2435 Pillsbury Avenue South"}]}, {"__class__": "tuple", "__value__": [{"city": "Euless", "zip": "76039", "community": "Hunters Point", "state": "TX", "geocode": {"__class__": "tuple", "__value__": [32.8582000732, -97.0722198486]}, "address": "700 East Ash Lane"}, {"city": "Euless", "zip": "76039", "community": "Woodchase Apartments", "state": "TX", "geocode": {"__class__": "tuple", "__value__": [32.8580131531, -97.0670700073]}, "address": "1000 East Ash Lane"}]}, {"__class__": "tuple", "__value__": [{"city": "Denver", "zip": "80247", "community": "Twin Lake Tower", "state": "CO", "geocode": {"__class__": "tuple", "__value__": [39.706993, -104.887298]}, "address": "8680 East Alameda Avenue Apt 1231"}, {"city": "Denver", "zip": "80247", "community": "Lowry Park", "state": "CO", "geocode": {"__class__": "tuple", "__value__": [39.712303, -104.89009]}, "address": "8501 East Alameda Avenue"}]}, {"__class__": "tuple", "__value__": [{"city": "Suitland", "zip": "20746", "community": "The Residences at Silver Hill", "state": "MD", "geocode": {"__class__": "tuple", "__value__": [38.8422039896, -76.9355432689]}, "address": "4227 Silver Hill Road"}, {"city": "Suitland", "zip": "20746", "community": "The Verona at Silver Hill", "state": "MD", "geocode": {"__class__": "tuple", "__value__": [38.840061, -76.935134]}, "address": "3506 Silver Park Drive #4"}]}, {"__class__": "tuple", "__value__": [{"city": "Washington", "zip": "20008", "community": "Thirty-Nine Fourty-Five Conn Ave NW Apartments", "state": "DC", "geocode": {"__class__": "tuple", "__value__": [38.9405670166, -77.060874939]}, "address": "3945 Connecticut Avenue North West"}, {"city": "Washington", "zip": "20008", "community": "Cathedral Mansions", "state": "DC", "geocode": {"__class__": "tuple", "__value__": [38.9297904968, -77.0558929443]}, "address": "3000 Connecticut Avenue North West"}]}, {"__class__": "tuple", "__value__": [{"city": "Arlington", "zip": "22202", "community": "Meridian at Pentagon City", "state": "VA", "geocode": {"__class__": "tuple", "__value__": [38.8621749878, -77.0534439087]}, "address": "1221 South Eads Street"}, {"city": "Arlington", "zip": "22202", "community": "The Millennium at Metropolitan Park", "state": "VA", "geocode": {"__class__": "tuple", "__value__": [38.8613967896, -77.055847168]}, "address": "1330 South Fair Street"}]}, {"__class__": "tuple", "__value__": [{"city": "Frisco", "zip": "75034", "community": "Sunrise of Frisco Senior Apartments", "state": "TX", "geocode": {"__class__": "tuple", "__value__": [33.1013412476, -96.8404922485]}, "address": "2680 Legacy Drive"}, {"city": "Frisco", "zip": "75034", "community": "Legends at Legacy", "state": "TX", "geocode": {"__class__": "tuple", "__value__": [33.1098937988, -96.8389892578]}, "address": "3700 Legacy Drive"}]}, {"__class__": "tuple", "__value__": [{"city": "Washington", "zip": "20009", "community": "2800 Ontario Rd NW Apartments", "state": "DC", "geocode": {"__class__": "tuple", "__value__": [38.925201416, -77.0415420532]}, "address": "2800 Ontario Road North West"}, {"city": "Washington", "zip": "20008", "community": "2800 Woodley Rd NW Apartments", "state": "DC", "geocode": {"__class__": "tuple", "__value__": [38.9256248474, -77.0570297241]}, "address": "2800 Woodley Road North West"}]}, {"__class__": "tuple", "__value__": [{"city": "Washington", "zip": "20009", "community": "Corcoran House at Dupont Circle Apartments", "state": "DC", "geocode": {"__class__": "tuple", "__value__": [38.9120826721, -77.0420455933]}, "address": "1616 18th Street North West"}, {"city": "Washington", "zip": "20009", "community": "Campbell Heights Apartments", "state": "DC", "geocode": {"__class__": "tuple", "__value__": [38.9174804688, -77.0341949463]}, "address": "2001 15th Street North West"}]}, {"__class__": "tuple", "__value__": [{"city": "Arlington", "zip": "22203", "community": "Richmond Square", "state": "VA", "geocode": {"__class__": "tuple", "__value__": [38.8813323975, -77.1098632812]}, "address": "900 North Randolph Street"}, {"city": "Arlington", "zip": "22203", "community": "The Meridian at Ballston Commons", "state": "VA", "geocode": {"__class__": "tuple", "__value__": [38.8805770874, -77.1120681763]}, "address": "900 North Stuart Street"}]}, {"__class__": "tuple", "__value__": [{"city": "Denver", "zip": "80220", "community": "4340 E 12th Ave", "state": "CO", "geocode": {"__class__": "tuple", "__value__": [39.734539032, -104.936477661]}, "address": "4332 East 12th Avenue"}, {"city": "Denver", "zip": "80206", "community": "3417 E 14th Ave", "state": "CO", "geocode": {"__class__": "tuple", "__value__": [39.7385368347, -104.946884155]}, "address": "3417 East 14th Avenue"}]}, {"__class__": "tuple", "__value__": [{"city": "St Paul", "zip": "55101", "community": "500 Robert St N Saint Paul, MN 55101", "state": "MN", "geocode": {"__class__": "tuple", "__value__": [44.9512863159, -93.0940246582]}, "address": "500 Robert Street North"}, {"city": "St Paul", "zip": "55101", "community": "66 9th St E Saint Paul, MN 55101", "state": "MN", "geocode": {"__class__": "tuple", "__value__": [44.9495818466, -93.0949989706]}, "address": "66 East 9th Street"}]}, {"__class__": "tuple", "__value__": [{"city": "Denver", "zip": "80206", "community": "Garfeild Apartments", "state": "CO", "geocode": {"__class__": "tuple", "__value__": [39.738529, -104.944282]}, "address": "1401 Garfield Street"}, {"city": "Denver", "zip": "80206", "community": "La Rue Apartments", "state": "CO", "geocode": {"__class__": "tuple", "__value__": [39.7363130003, -104.949515909]}, "address": "1275 Steele Street"}]}, {"__class__": "tuple", "__value__": [{"city": "Washington", "zip": "20016", "community": "Adams View (Located in Cathedral Heights) Apartments", "state": "DC", "geocode": {"__class__": "tuple", "__value__": [38.9327507019, -77.0720062256]}, "address": "3201 Wisconsin Avenue North West"}, {"city": "Washington", "zip": "20016", "community": "Vaughan Place", "state": "DC", "geocode": {"__class__": "tuple", "__value__": [38.9355482161, -77.0744930953]}, "address": "3401 38th Street North West"}]}, {"__class__": "tuple", "__value__": [{"city": "Alvin", "zip": "77511", "community": "Golden Glen Apartments", "state": "TX", "geocode": {"__class__": "tuple", "__value__": [29.4203243256, -95.2559738159]}, "address": "410 South 2nd Street"}, {"city": "Alvin", "zip": "77511", "community": "Foley Hill Apartments", "state": "TX", "geocode": {"__class__": "tuple", "__value__": [29.415866, -95.247489]}, "address": "1004 South Hill Street"}]}, {"__class__": "tuple", "__value__": [{"city": "Brooklyn Center", "zip": "55429", "community": "The Avenue Apartments", "state": "MN", "geocode": {"__class__": "tuple", "__value__": [45.0719909668, -93.3252105713]}, "address": "6401 Beard Avenue North"}, {"city": "Brooklyn Center", "zip": "55429", "community": "Granite City", "state": "MN", "geocode": {"__class__": "tuple", "__value__": [45.0719985962, -93.3265075684]}, "address": "3415 65th Avenue North"}]}, {"__class__": "tuple", "__value__": [{"city": "Indianapolis", "zip": "46235", "community": "Carriage House East Apartments of Indianapolis", "state": "IN", "geocode": {"__class__": "tuple", "__value__": [39.8327026367, -85.9876098633]}, "address": "10041 Ellis Drive"}, {"city": "Indianapolis", "zip": "46235", "community": "Pangea Vineyards", "state": "IN", "geocode": {"__class__": "tuple", "__value__": [39.831485, -85.987091]}, "address": "10101 East Montery Road"}]}, {"__class__": "tuple", "__value__": [{"city": "Washington", "zip": "20024", "community": "Waterside Towers", "state": "DC", "geocode": {"__class__": "tuple", "__value__": [38.8790977746, -77.019963786]}, "address": "907 6th Street South West"}, {"city": "Washington", "zip": "20024", "community": "Channel Square Apartments & Townhomes", "state": "DC", "geocode": {"__class__": "tuple", "__value__": [38.8725395203, -77.0162887573]}, "address": "325 P Street South West"}]}, {"__class__": "tuple", "__value__": [{"city": "Houston", "zip": "77056", "community": "Plantation Apartments", "state": "TX", "geocode": {"__class__": "tuple", "__value__": [29.7430973053, -95.4663543701]}, "address": "2425 Sage Road"}, {"city": "Houston", "zip": "77056", "community": "Metropolitan Uptown Apartments", "state": "TX", "geocode": {"__class__": "tuple", "__value__": [29.734008, -95.467529]}, "address": "3300 Sage Road Apt 8303"}]}, {"__class__": "tuple", "__value__": [{"city": "Arlington", "zip": "22202", "community": "The Ashley at Riverhouse Apartments", "state": "VA", "geocode": {"__class__": "tuple", "__value__": [38.8596725464, -77.0648727417]}, "address": "1600 South Joyce Street"}, {"city": "Arlington", "zip": "22202", "community": "Crystal Towers", "state": "VA", "geocode": {"__class__": "tuple", "__value__": [38.8588638306, -77.0540771484]}, "address": "1600 South Eads Street"}]}, {"__class__": "tuple", "__value__": [{"city": "Dallas", "zip": "75287", "community": "Heatherstone Apartments", "state": "TX", "geocode": {"__class__": "tuple", "__value__": [33.0094146729, -96.8555831909]}, "address": "18950 Marsh Lane"}, {"city": "Dallas", "zip": "75287", "community": "The Crossings on Marsh", "state": "TX", "geocode": {"__class__": "tuple", "__value__": [33.0070648193, -96.8558120728]}, "address": "18788 Marsh Lane"}]}, {"__class__": "tuple", "__value__": [{"city": "Lawrenceville", "zip": "30044", "community": "Reflections on Sweetwater", "state": "GA", "geocode": {"__class__": "tuple", "__value__": [46.3493614197, -94.1983718872]}, "address": "3405 Sweetwater Road North West"}, {"city": "Lawrenceville", "zip": "30044", "community": "Wesley Herrington", "state": "GA", "geocode": {"__class__": "tuple", "__value__": [46.3493614197, -94.1983718872]}, "address": "1400 Herrington Road"}]}, {"__class__": "tuple", "__value__": [{"city": "Hopkins", "zip": "55343", "community": "Cambridge Towers", "state": "MN", "geocode": {"__class__": "tuple", "__value__": [44.9346694946, -93.3844604492]}, "address": "1301 Cambridge Street"}, {"city": "Hopkins", "zip": "55343", "community": "Ramsgate Apartments", "state": "MN", "geocode": {"__class__": "tuple", "__value__": [44.9328804016, -93.3920593262]}, "address": "700 Cambridge Street"}]}, {"__class__": "tuple", "__value__": [{"city": "Dallas", "zip": "75204", "community": "State Thomas Ravello Apartments", "state": "TX", "geocode": {"__class__": "tuple", "__value__": [32.7990150452, -96.7994384766]}, "address": "2610 Allen Street"}, {"city": "Dallas", "zip": "75204", "community": "Manchester State Thomas", "state": "TX", "geocode": {"__class__": "tuple", "__value__": [32.79813, -96.796142]}, "address": "3010 State Street"}]}, {"__class__": "tuple", "__value__": [{"city": "West Saint Paul", "zip": "55118", "community": "Sandlewood Place Apartments", "state": "MN", "geocode": {"__class__": "tuple", "__value__": [44.9049263, -93.0889892578]}, "address": "1520 Charlton Street"}, {"city": "West Saint Paul", "zip": "55118", "community": "The Ridge Apartments", "state": "MN", "geocode": {"__class__": "tuple", "__value__": [44.9050216675, -93.0901641846]}, "address": "1380 Bidwell Street"}]}, {"__class__": "tuple", "__value__": [{"city": "Minneapolis", "zip": "55408", "community": "Doran Apartments", "state": "MN", "geocode": {"__class__": "tuple", "__value__": [44.9434013367, -93.2961502075]}, "address": "3240 Fremont Avenue South"}, {"city": "Minneapolis", "zip": "55408", "community": "Track 29 City Apartments", "state": "MN", "geocode": {"__class__": "tuple", "__value__": [44.9512904137, -93.2905608416]}, "address": "2841 Bryant Avenue South"}]}, {"__class__": "tuple", "__value__": [{"city": "Fort Worth", "zip": "76116", "community": "The Lodge at River Park", "state": "TX", "geocode": {"__class__": "tuple", "__value__": [32.7011528015, -97.4182739258]}, "address": "3101 Riverpark Drive"}, {"city": "Fort Worth", "zip": "76116", "community": "River Park", "state": "TX", "geocode": {"__class__": "tuple", "__value__": [32.7003302425, -97.4218339473]}, "address": "3309 Riveroad Court"}]}, {"__class__": "tuple", "__value__": [{"city": "Saint Louis Park", "zip": "55426", "community": "Westmarke", "state": "MN", "geocode": {"__class__": "tuple", "__value__": [44.9744338989, -93.4058380127]}, "address": "1155 Ford Road"}, {"city": "Saint Louis Park", "zip": "55426", "community": "Shelard Village", "state": "MN", "geocode": {"__class__": "tuple", "__value__": [44.976360321, -93.4041213989]}, "address": "400 Ford Road"}]}, {"__class__": "tuple", "__value__": [{"city": "Union City", "zip": "30291", "community": "The Landings At Oak Hill", "state": "GA", "geocode": {"__class__": "tuple", "__value__": [33.584602356, -84.5291366577]}, "address": "4300 Flat Shoals Road"}, {"city": "Union City", "zip": "30291", "community": "4701 Flat Shoals Rd Union City, GA 30291", "state": "GA", "geocode": {"__class__": "tuple", "__value__": [33.5862884521, -84.5427093506]}, "address": "4701 Flat Shoals Road"}]}, {"__class__": "tuple", "__value__": [{"city": "Avondale Estates", "zip": "30002", "community": "73 Devon Ln", "state": "GA", "geocode": {"__class__": "tuple", "__value__": [46.3493614197, -94.1983718872]}, "address": "73 Devon Lane"}, {"city": "Lawrenceville", "zip": "30044", "community": "74 Davis Mill Ct", "state": "GA", "geocode": {"__class__": "tuple", "__value__": [46.3493614197, -94.1983718872]}, "address": "74 Davis Mill Court"}]}, {"__class__": "tuple", "__value__": [{"city": "Woodbury", "zip": "55129", "community": "11345 Ivywood Trl", "state": "MN", "geocode": {"__class__": "tuple", "__value__": [44.899887085, -92.8758621216]}, "address": "11345 Ivywood Trail"}, {"city": "Woodbury", "zip": "55129", "community": "11665 Ivywood Trl", "state": "MN", "geocode": {"__class__": "tuple", "__value__": [44.9000892639, -92.8691635132]}, "address": "11665 Ivywood Trail"}]}, {"__class__": "tuple", "__value__": [{"city": "Arlington", "zip": "22203", "community": "Birchwood", "state": "VA", "geocode": {"__class__": "tuple", "__value__": [38.8782857358, -77.1065957844]}, "address": "545 North Pollard Street"}, {"city": "Arlington", "zip": "22203", "community": "Richmond Square", "state": "VA", "geocode": {"__class__": "tuple", "__value__": [38.8813323975, -77.1098632812]}, "address": "900 North Randolph Street"}]}, {"__class__": "tuple", "__value__": [{"city": "Houston", "zip": "77071", "community": "Beacon Hill Apartments", "state": "TX", "geocode": {"__class__": "tuple", "__value__": [29.666021, -95.52346]}, "address": "8110 Creekbend"}, {"city": "Houston", "zip": "77071", "community": "Reserve at Creekbend Apartments", "state": "TX", "geocode": {"__class__": "tuple", "__value__": [29.6662063599, -95.5110702515]}, "address": "7600 Creekbend Drive"}]}, {"__class__": "tuple", "__value__": [{"city": "Denver", "zip": "80203", "community": "Residence At Governors Park", "state": "CO", "geocode": {"__class__": "tuple", "__value__": [39.727809906, -104.980285645]}, "address": "727 Pearl Street"}, {"city": "Denver", "zip": "80203", "community": "Colburn South", "state": "CO", "geocode": {"__class__": "tuple", "__value__": [39.7312355042, -104.983169556]}, "address": "960 Grant Street"}]}, {"__class__": "tuple", "__value__": [{"city": "Temple Hills", "zip": "20748", "community": "Henson Creek", "state": "MD", "geocode": {"__class__": "tuple", "__value__": [38.8030316681, -76.9485955685]}, "address": "3466 Brinkley Road"}, {"city": "Temple Hills", "zip": "20748", "community": "Brinkley House", "state": "MD", "geocode": {"__class__": "tuple", "__value__": [38.8040455431, -76.9529883564]}, "address": "3051 Brinkley Road"}]}, {"__class__": "tuple", "__value__": [{"city": "Minneapolis", "zip": "55414", "community": "516 12th Avenue SE Apartments", "state": "MN", "geocode": {"__class__": "tuple", "__value__": [44.983001709, -93.2370605469]}, "address": "516 12th Avenue South East"}, {"city": "Minneapolis", "zip": "55414", "community": "The Wolf Lodge Apartments", "state": "MN", "geocode": {"__class__": "tuple", "__value__": [44.9848556519, -93.2329330444]}, "address": "1323 8th Street South East"}]}, {"__class__": "tuple", "__value__": [{"city": "Minneapolis", "zip": "55414", "community": "Fourth Street Housing Cooperative", "state": "MN", "geocode": {"__class__": "tuple", "__value__": [44.9814109802, -93.2371368408]}, "address": "1227 4th Street South East"}, {"city": "Minneapolis", "zip": "55414", "community": "St. Anthony Village", "state": "MN", "geocode": {"__class__": "tuple", "__value__": [44.988845, -93.248428]}, "address": "320 7th Street South East"}]}, {"__class__": "tuple", "__value__": [{"city": "Washington", "zip": "20037", "community": "2400 M Apartments", "state": "DC", "geocode": {"__class__": "tuple", "__value__": [38.9047966003, -77.0519638062]}, "address": "2400 M Street North West"}, {"city": "Washington", "zip": "20036", "community": "Avondale Cooperative Apartments", "state": "DC", "geocode": {"__class__": "tuple", "__value__": [38.9093284607, -77.0400238037]}, "address": "1734 P Street North West"}]}, {"__class__": "tuple", "__value__": [{"city": "Alvin", "zip": "77511", "community": "Highland Square Apartments", "state": "TX", "geocode": {"__class__": "tuple", "__value__": [29.398639679, -95.2509002686]}, "address": "2401 South Johnson Street"}, {"city": "Alvin", "zip": "77511", "community": "Cedar Wood Apartment Homes", "state": "TX", "geocode": {"__class__": "tuple", "__value__": [29.4131202698, -95.2499923706]}, "address": "1201 South Johnson Street"}]}, {"__class__": "tuple", "__value__": [{"city": "Denver", "zip": "80203", "community": "1120 N Logan", "state": "CO", "geocode": {"__class__": "tuple", "__value__": [39.7341651917, -104.981918335]}, "address": "1120 Logan Street"}, {"city": "Denver", "zip": "80203", "community": "The Sherman Arms Apartments", "state": "CO", "geocode": {"__class__": "tuple", "__value__": [39.7336196899, -104.985229492]}, "address": "1085 Sherman Street"}]}, {"__class__": "tuple", "__value__": [{"city": "Fairfax", "zip": "22030", "community": "The Courts at Fair Oaks", "state": "VA", "geocode": {"__class__": "tuple", "__value__": [38.8555406034, -77.3655791581]}, "address": "12101 Pine Forest Circle"}, {"city": "Fairfax", "zip": "22030", "community": "The Lincoln at Fair Oaks", "state": "VA", "geocode": {"__class__": "tuple", "__value__": [38.856664449, -77.368068248]}, "address": "12167 Lincoln Lake Way"}]}, {"__class__": "tuple", "__value__": [{"city": "McKinney", "zip": "75071", "community": "Greenhaven Apartments", "state": "TX", "geocode": {"__class__": "tuple", "__value__": [33.204864502, -96.7284088135]}, "address": "8690 Virginia Parkway"}, {"city": "McKinney", "zip": "75071", "community": "Camden Riverwalk Apartments", "state": "TX", "geocode": {"__class__": "tuple", "__value__": [33.1986656189, -96.7120285034]}, "address": "7101 Virginia Parkway"}]}, {"__class__": "tuple", "__value__": [{"city": "Washington", "zip": "20036", "community": "The Baystate Apartments", "state": "DC", "geocode": {"__class__": "tuple", "__value__": [38.9084510803, -77.0387954712]}, "address": "1701 Massachusetts Avenue North West"}, {"city": "Washington", "zip": "20001", "community": "425 Mass", "state": "DC", "geocode": {"__class__": "tuple", "__value__": [38.9009742737, -77.0168228149]}, "address": "425 Massachusetts Avenue North West"}]}, {"__class__": "tuple", "__value__": [{"city": "Dallas", "zip": "75243", "community": "The Place at Harvestree Apartments", "state": "TX", "geocode": {"__class__": "tuple", "__value__": [32.9074287415, -96.7340087891]}, "address": "9450 Forest Springs Drive"}, {"city": "Dallas", "zip": "75243", "community": "The Indigo On Forest", "state": "TX", "geocode": {"__class__": "tuple", "__value__": [32.911148, -96.722106]}, "address": "9669 Forest Lane"}]}, {"__class__": "tuple", "__value__": [{"city": "Edina", "zip": "55436", "community": "The Willows at Vernon Terrace Senior Apartments", "state": "MN", "geocode": {"__class__": "tuple", "__value__": [44.908882, -93.357315]}, "address": "5250 Vernon Avenue"}, {"city": "Edina", "zip": "55436", "community": "Edina Highland Villa", "state": "MN", "geocode": {"__class__": "tuple", "__value__": [44.9066088349, -93.3590939641]}, "address": "5250 Villa Way"}]}, {"__class__": "tuple", "__value__": [{"city": "Washington", "zip": "20005", "community": "Gatsby The Apartments", "state": "DC", "geocode": {"__class__": "tuple", "__value__": [38.9089279175, -77.0350646973]}, "address": "1515 O Street North West"}, {"city": "Washington", "zip": "20001", "community": "7th Flats", "state": "DC", "geocode": {"__class__": "tuple", "__value__": [38.9149627686, -77.0215988159]}, "address": "1825 7th Street North West"}]}, {"__class__": "tuple", "__value__": [{"city": "Rockville", "zip": "20852", "community": "The Residences at Rollins Ridge", "state": "MD", "geocode": {"__class__": "tuple", "__value__": [39.0583877563, -77.123046875]}, "address": "130 Rollins Avenue"}, {"city": "Rockville", "zip": "20852", "community": "Residences at Congressional Village", "state": "MD", "geocode": {"__class__": "tuple", "__value__": [39.0600547791, -77.1252441406]}, "address": "198 Halpine Road"}]}, {"__class__": "tuple", "__value__": [{"city": "Indianapolis", "zip": "46260", "community": "Retreat Northwest", "state": "IN", "geocode": {"__class__": "tuple", "__value__": [39.8968772888, -86.1800003052]}, "address": "1130 Racquet North Drive"}, {"city": "Indianapolis", "zip": "46260", "community": "The Retreat Northwest", "state": "IN", "geocode": {"__class__": "tuple", "__value__": [39.9245879799, -86.1794876307]}, "address": "1130 Racquet Club North Drive"}]}, {"__class__": "tuple", "__value__": [{"city": "Saint Louis Park", "zip": "55416", "community": "Cityscape Apartments", "state": "MN", "geocode": {"__class__": "tuple", "__value__": [44.940731, -93.350593]}, "address": "5707 Highway 7"}, {"city": "Saint Louis Park", "zip": "55416", "community": "Park Towers", "state": "MN", "geocode": {"__class__": "tuple", "__value__": [44.9456678331, -93.3408334851]}, "address": "4820 Highway 7"}]}, {"__class__": "tuple", "__value__": [{"city": "Denver", "zip": "80219", "community": "Orchard Glen Apartments", "state": "CO", "geocode": {"__class__": "tuple", "__value__": [39.6864776611, -105.026420593]}, "address": "3131 West Mexico Avenue"}, {"city": "Denver", "zip": "80219", "community": "Continental Court Apartments", "state": "CO", "geocode": {"__class__": "tuple", "__value__": [39.6920585632, -105.027061462]}, "address": "3129 West Arkansas Avenue"}]}, {"__class__": "tuple", "__value__": [{"city": "Arlington", "zip": "22201", "community": "Courtland Towers", "state": "VA", "geocode": {"__class__": "tuple", "__value__": [38.8878303766, -77.0851112902]}, "address": "1200 North Veitch Street"}, {"city": "Arlington", "zip": "22201", "community": "Colonial Village Apartments", "state": "VA", "geocode": {"__class__": "tuple", "__value__": [38.8931907713, -77.0823989064]}, "address": "1734 North Troy Street Suite 726"}]}, {"__class__": "tuple", "__value__": [{"city": "Denver", "zip": "80203", "community": "Eugene Field", "state": "CO", "geocode": {"__class__": "tuple", "__value__": [39.7332115173, -104.985237122]}, "address": "1055 Sherman Street"}, {"city": "Denver", "zip": "80203", "community": "1000 Grant The Burnsley", "state": "CO", "geocode": {"__class__": "tuple", "__value__": [39.732383728, -104.983192444]}, "address": "1000 Grant Street"}]}, {"__class__": "tuple", "__value__": [{"city": "Saint Paul", "zip": "55101", "community": "Kellogg Square", "state": "MN", "geocode": {"__class__": "tuple", "__value__": [44.9459037781, -93.0902786255]}, "address": "111 East Kellogg Boulevard"}, {"city": "Saint Paul", "zip": "55101", "community": "Lowertown Commons & Parkside Apartments & Condos", "state": "MN", "geocode": {"__class__": "tuple", "__value__": [44.94896698, -93.0845336914]}, "address": "300 East 4th Street"}]}, {"__class__": "tuple", "__value__": [{"city": "Denver", "zip": "80211", "community": "Eden Manor Apartments", "state": "CO", "geocode": {"__class__": "tuple", "__value__": [39.7623596191, -105.03276825]}, "address": "3405 West 32nd Avenue"}, {"city": "Denver", "zip": "80211", "community": "3425 W 23rd Ave", "state": "CO", "geocode": {"__class__": "tuple", "__value__": [39.7514572144, -105.032180786]}, "address": "3425 West 23rd Avenue"}]}, {"__class__": "tuple", "__value__": [{"city": "Minneapolis", "zip": "55414", "community": "708 13th Ave Apartments", "state": "MN", "geocode": {"__class__": "tuple", "__value__": [44.9842338562, -93.2342834473]}, "address": "708 13th Avenue"}, {"city": "Minneapolis", "zip": "55414", "community": "The Bridges Apartments", "state": "MN", "geocode": {"__class__": "tuple", "__value__": [44.981765002, -93.2423360646]}, "address": "930 University Avenue South East"}]}, {"__class__": "tuple", "__value__": [{"city": "Indianapolis", "zip": "46204", "community": "Continental Towers Apartments", "state": "IN", "geocode": {"__class__": "tuple", "__value__": [39.773216, -86.158386]}, "address": "410 North Meridian Street Apt 703"}, {"city": "Indianapolis", "zip": "46204", "community": "Senate Manor Apartments", "state": "IN", "geocode": {"__class__": "tuple", "__value__": [39.775390625, -86.1635894775]}, "address": "548 North Senate Avenue"}]}, {"__class__": "tuple", "__value__": [{"city": "Minneapolis", "zip": "55414", "community": "728 13th Ave Apartments", "state": "MN", "geocode": {"__class__": "tuple", "__value__": [44.9847106934, -93.2338790894]}, "address": "728 13th Avenue"}, {"city": "Minneapolis", "zip": "55414", "community": "East Bank Communities", "state": "MN", "geocode": {"__class__": "tuple", "__value__": [44.9791169912, -93.2349774241]}, "address": "310 15th Avenue South East"}]}, {"__class__": "tuple", "__value__": [{"city": "Houston", "zip": "77042", "community": "Madison Park of Westchase Apartments", "state": "TX", "geocode": {"__class__": "tuple", "__value__": [29.7313594818, -95.5445556641]}, "address": "9801 Meadowglen Lane"}, {"city": "Houston", "zip": "77042", "community": "Meadowchase Apartments", "state": "TX", "geocode": {"__class__": "tuple", "__value__": [29.7303886414, -95.5645675659]}, "address": "10751 Meadowglen Lane"}]}, {"__class__": "tuple", "__value__": [{"city": "Minneapolis", "zip": "55414", "community": "1209 7th St SE Apartments", "state": "MN", "geocode": {"__class__": "tuple", "__value__": [44.9846153259, -93.2354736328]}, "address": "1209 7th Street South East"}, {"city": "Minneapolis", "zip": "55414", "community": "Stone Arch Apartments", "state": "MN", "geocode": {"__class__": "tuple", "__value__": [44.981426, -93.247093]}, "address": "601-701 Main Street South East"}]}, {"__class__": "tuple", "__value__": [{"city": "Minneapolis", "zip": "55414", "community": "1313 Como Ave SE Apartments", "state": "MN", "geocode": {"__class__": "tuple", "__value__": [44.9880981445, -93.2324066162]}, "address": "1313 Como Avenue South East"}, {"city": "Minneapolis", "zip": "55414", "community": "Cole Townhomes", "state": "MN", "geocode": {"__class__": "tuple", "__value__": [44.985469, -93.21746]}, "address": "2425-2647 Cole Avenue South East"}]}, {"__class__": "tuple", "__value__": [{"city": "Denver", "zip": "80202", "community": "Bank and Boston Lofts Apartments", "state": "CO", "geocode": {"__class__": "tuple", "__value__": [39.7469881922, -104.992004111]}, "address": "817 17th Street"}, {"city": "Denver", "zip": "80205", "community": "Ballpark Lofts", "state": "CO", "geocode": {"__class__": "tuple", "__value__": [39.7582893372, -104.988319397]}, "address": "1451 24th Street"}]}, {"__class__": "tuple", "__value__": [{"city": "Washington", "zip": "20009", "community": "The Louis", "state": "DC", "geocode": {"__class__": "tuple", "__value__": [38.9164274186, -77.032007575]}, "address": "1920 14Th Street North West"}, {"city": "Washington", "zip": "20005", "community": "Andover House", "state": "DC", "geocode": {"__class__": "tuple", "__value__": [38.9065742493, -77.0325088501]}, "address": "1200 14th Street North West"}]}, {"__class__": "tuple", "__value__": [{"city": "Centennial", "zip": "80016", "community": "Griffis Centennial Park", "state": "CO", "geocode": {"__class__": "tuple", "__value__": [39.6057356894, -104.808307663]}, "address": "6107 South Parker Road"}, {"city": "Centennial", "zip": "80016", "community": "The Orchards At Cherry Creek Park", "state": "CO", "geocode": {"__class__": "tuple", "__value__": [39.6081886292, -104.811187744]}, "address": "6000 South Fraser Court"}]}, {"__class__": "tuple", "__value__": [{"city": "Denver", "zip": "80237", "community": "Carriage Place", "state": "CO", "geocode": {"__class__": "tuple", "__value__": [39.6266899109, -104.891319275]}, "address": "4900 South Ulster Street"}, {"city": "Denver", "zip": "80237", "community": "Enclave at Belleview Station Apartments", "state": "CO", "geocode": {"__class__": "tuple", "__value__": [39.6334342957, -104.909492493]}, "address": "4400 South Monaco Street"}]}, {"__class__": "tuple", "__value__": [{"city": "Washington", "zip": "20010", "community": "Park Center Plaza Apartments", "state": "DC", "geocode": {"__class__": "tuple", "__value__": [38.933319971, -77.0398557186]}, "address": "3339 Mount Pleasant Street North West"}, {"city": "Washington", "zip": "20010", "community": "Cromwell Apartments", "state": "DC", "geocode": {"__class__": "tuple", "__value__": [38.9361534119, -77.0348968506]}, "address": "1515 Ogden Street North West"}]}, {"__class__": "tuple", "__value__": [{"city": "Denver", "zip": "80203", "community": "Penwood Place Apartments", "state": "CO", "geocode": {"__class__": "tuple", "__value__": [39.7297325134, -104.980766296]}, "address": "800 Pennsylvania Street"}, {"city": "Denver", "zip": "80203", "community": "Uptown Square", "state": "CO", "geocode": {"__class__": "tuple", "__value__": [39.7468869388, -104.9810265]}, "address": "1950 Pennsylvania Street"}]}, {"__class__": "tuple", "__value__": [{"city": "Washington", "zip": "20009", "community": "Park Square", "state": "DC", "geocode": {"__class__": "tuple", "__value__": [38.9221343994, -77.03490448]}, "address": "2407 15th Street North West"}, {"city": "Washington", "zip": "20009", "community": "The Louis", "state": "DC", "geocode": {"__class__": "tuple", "__value__": [38.9164274186, -77.032007575]}, "address": "1920 14Th Street North West"}]}, {"__class__": "tuple", "__value__": [{"city": "Minneapolis", "zip": "55404", "community": "Taylor Apartments", "state": "MN", "geocode": {"__class__": "tuple", "__value__": [44.9613342285, -93.2791213989]}, "address": "2115 Blaisdel Avenue"}, {"city": "Minneapolis", "zip": "55404", "community": "Fair Oaks Apartments", "state": "MN", "geocode": {"__class__": "tuple", "__value__": [44.9588213861, -93.2726725191]}, "address": "2415 3rd Avenue South"}]}, {"__class__": "tuple", "__value__": [{"city": "Arlington", "zip": "76006", "community": "Oak Forest Apartment Homes", "state": "TX", "geocode": {"__class__": "tuple", "__value__": [32.7653268725, -97.0667222142]}, "address": "1108 Wynncrest Lane"}, {"city": "Arlington", "zip": "76006", "community": "Forest Oaks Apartments", "state": "TX", "geocode": {"__class__": "tuple", "__value__": [32.7727559209, -97.0664788038]}, "address": "2408 Forest Oaks Lane"}]}, {"__class__": "tuple", "__value__": [{"city": "Dallas", "zip": "75201", "community": "1900 Elm", "state": "TX", "geocode": {"__class__": "tuple", "__value__": [32.781841, -96.795547]}, "address": "1900 Elm Street"}, {"city": "Dallas", "zip": "75201", "community": "1900 McKinney", "state": "TX", "geocode": {"__class__": "tuple", "__value__": [32.7895584106, -96.8035202026]}, "address": "1900 McKinney"}]}, {"__class__": "tuple", "__value__": [{"city": "Washington", "zip": "20009", "community": "Wakefield Hall Apartments", "state": "DC", "geocode": {"__class__": "tuple", "__value__": [38.9183578491, -77.0348510742]}, "address": "2101 New Hampshire Avenue North West"}, {"city": "Washington", "zip": "20009", "community": "District", "state": "DC", "geocode": {"__class__": "tuple", "__value__": [38.914249, -77.032493]}, "address": "1401 South Street North West"}]}, {"__class__": "tuple", "__value__": [{"city": "Aurora", "zip": "80010", "community": "Greenleaf Apartments", "state": "CO", "geocode": {"__class__": "tuple", "__value__": [39.7414474487, -104.88142395]}, "address": "1571 Beeler Street"}, {"city": "Aurora", "zip": "80010", "community": "Falcon Apartments", "state": "CO", "geocode": {"__class__": "tuple", "__value__": [39.7324943542, -104.874954224]}, "address": "1084 Dayton Street"}]}, {"__class__": "tuple", "__value__": [{"city": "Houston", "zip": "77018", "community": "Candlelight Estates Apartments", "state": "TX", "geocode": {"__class__": "tuple", "__value__": [29.84168, -95.415397]}, "address": "818 Pinemont Drive Ofc"}, {"city": "Houston", "zip": "77018", "community": "The Candlelight Garden Apartments", "state": "TX", "geocode": {"__class__": "tuple", "__value__": [29.840227, -95.419586]}, "address": "5116 Alba Road"}]}, {"__class__": "tuple", "__value__": [{"city": "Houston", "zip": "77056", "community": "Brookdale Galleria Senior Apartments", "state": "TX", "geocode": {"__class__": "tuple", "__value__": [29.7369060516, -95.4599456787]}, "address": "2929 Post Oak Boulevard"}, {"city": "Houston", "zip": "77056", "community": "Lofts on Post Oak - Fully Furnished Condo", "state": "TX", "geocode": {"__class__": "tuple", "__value__": [29.74694, -95.459739]}, "address": "1901 Post Oak Boulevard #1401"}]}, {"__class__": "tuple", "__value__": [{"city": "Centennial", "zip": "80111", "community": "Greenwood Plaza", "state": "CO", "geocode": {"__class__": "tuple", "__value__": [39.6009140015, -104.900535583]}, "address": "7610 East Caley Avenue"}, {"city": "Centennial", "zip": "80111", "community": "Greenwood Park", "state": "CO", "geocode": {"__class__": "tuple", "__value__": [39.5977554321, -104.901535034]}, "address": "6565 South Syracuse Way"}]}, {"__class__": "tuple", "__value__": [{"city": "Denver", "zip": "80222", "community": "Asbury Plaza", "state": "CO", "geocode": {"__class__": "tuple", "__value__": [39.6803453565, -104.927747101]}, "address": "5170 East Asbury Avenue Apt 202"}, {"city": "Denver", "zip": "80210", "community": "Asbury Green", "state": "CO", "geocode": {"__class__": "tuple", "__value__": [39.6798171997, -104.957237244]}, "address": "2400 East Asbury Avenue"}]}, {"__class__": "tuple", "__value__": [{"city": "Norcross", "zip": "30092", "community": "Centre at Peachtree Corners Apartments", "state": "GA", "geocode": {"__class__": "tuple", "__value__": [33.949924469, -84.2386474609]}, "address": "3325 Holcomb Bridge Road"}, {"city": "Norcross", "zip": "30092", "community": "Park at Peachtree Corners", "state": "GA", "geocode": {"__class__": "tuple", "__value__": [33.9471321106, -84.2476119995]}, "address": "3341 Peachtree Corners Circle"}]}, {"__class__": "tuple", "__value__": [{"city": "Atlanta", "zip": "30309", "community": "Allure At Brookwood", "state": "GA", "geocode": {"__class__": "tuple", "__value__": [33.811088562, -84.3897323608]}, "address": "40 Peachtree Valley Road North East"}, {"city": "Atlanta", "zip": "30309", "community": "Peachtree Park Apartments", "state": "GA", "geocode": {"__class__": "tuple", "__value__": [33.8123258203, -84.3889669329]}, "address": "1000 Peachtree Park Drive North East"}]}, {"__class__": "tuple", "__value__": [{"city": "Houston", "zip": "77090", "community": "The Hampton at Cypress Station Senior Apartments", "state": "TX", "geocode": {"__class__": "tuple", "__value__": [30.0228652954, -95.4359512329]}, "address": "303 Lantern Bend Drive"}, {"city": "Houston", "zip": "77090", "community": "Seasons at Cypress Station Apartments", "state": "TX", "geocode": {"__class__": "tuple", "__value__": [30.0306434631, -95.4369888306]}, "address": "505 Cypress Station Drive"}]}, {"__class__": "tuple", "__value__": [{"city": "Bloomington", "zip": "47403", "community": "3736 S Cramer Cir", "state": "IN", "geocode": {"__class__": "tuple", "__value__": [39.1233024597, -86.5467758179]}, "address": "3736 South Cramer Circle"}, {"city": "Bloomington", "zip": "47403", "community": "3932 S Cramer Cir", "state": "IN", "geocode": {"__class__": "tuple", "__value__": [39.1229286194, -86.5456161499]}, "address": "3932 South Cramer Circle"}]}, {"__class__": "tuple", "__value__": [{"city": "Atlanta", "zip": "30315", "community": "Hidden Oaks", "state": "GA", "geocode": {"__class__": "tuple", "__value__": [46.3493614197, -94.1983718872]}, "address": "2950 Springdale Road South West"}, {"city": "Lithonia", "zip": "30038", "community": "The Hills at Farrington", "state": "GA", "geocode": {"__class__": "tuple", "__value__": [46.3493614197, -94.1983718872]}, "address": "5959 Fairington Road"}]}, {"__class__": "tuple", "__value__": [{"city": "Atlanta", "zip": "30309", "community": "Camden Brookwood", "state": "GA", "geocode": {"__class__": "tuple", "__value__": [33.8025163114, -84.3978443742]}, "address": "147 26th Street North West"}, {"city": "Atlanta", "zip": "30363", "community": "17 West", "state": "GA", "geocode": {"__class__": "tuple", "__value__": [33.7905883789, -84.4023742676]}, "address": "401 17th Street"}]}, {"__class__": "tuple", "__value__": [{"city": "Burnsville", "zip": "55306", "community": "The Woods of Burnsville Apartments", "state": "MN", "geocode": {"__class__": "tuple", "__value__": [44.736957103, -93.2686492056]}, "address": "14701 Portland Avenue"}, {"city": "Burnsville", "zip": "55306", "community": "Coventry Court Apartments", "state": "MN", "geocode": {"__class__": "tuple", "__value__": [44.737426, -93.261817]}, "address": "14661 Chicago Avenue"}]}, {"__class__": "tuple", "__value__": [{"city": "Marietta", "zip": "30067", "community": "Lincoln Hills Apartments", "state": "GA", "geocode": {"__class__": "tuple", "__value__": [45.008518219, -96.4154129028]}, "address": "3500 Windcliff Drive South East"}, {"city": "Marietta", "zip": "30067", "community": "Dwell at 750", "state": "GA", "geocode": {"__class__": "tuple", "__value__": [45.008518219, -96.4154129028]}, "address": "750 Franklin Road South East"}]}, {"__class__": "tuple", "__value__": [{"city": "Minneapolis", "zip": "55414", "community": "1410 Rollins Ave SE Apartments", "state": "MN", "geocode": {"__class__": "tuple", "__value__": [44.9853249639, -93.2314496487]}, "address": "1410 Rollins Avenue South East"}, {"city": "Minneapolis", "zip": "55414", "community": "1720 Rollins Ave SE Apartments", "state": "MN", "geocode": {"__class__": "tuple", "__value__": [44.9850311279, -93.2275924683]}, "address": "1720 Rollins Avenue South East"}]}, {"__class__": "tuple", "__value__": [{"city": "Conroe", "zip": "77304", "community": "River Pointe Apartments", "state": "TX", "geocode": {"__class__": "tuple", "__value__": [30.28058815, -95.4639892578]}, "address": "1600 River Pointe Drive Apt 1142"}, {"city": "Conroe", "zip": "77301", "community": "Park Village Apartments", "state": "TX", "geocode": {"__class__": "tuple", "__value__": [30.2863254547, -95.4584732056]}, "address": "1400 South Frazier"}]}, {"__class__": "tuple", "__value__": [{"city": "Houston", "zip": "77096", "community": "Meritage", "state": "TX", "geocode": {"__class__": "tuple", "__value__": [29.683975, -95.455139]}, "address": "4550 North Braeswood Boulevard"}, {"city": "Houston", "zip": "77096", "community": "Meyer Park Lakeside", "state": "TX", "geocode": {"__class__": "tuple", "__value__": [29.677904129, -95.4562454224]}, "address": "9550 Meyer Forest Drive"}]}, {"__class__": "tuple", "__value__": [{"city": "Westminster", "zip": "80234", "community": "SkyView", "state": "CO", "geocode": {"__class__": "tuple", "__value__": [39.9069377035, -105.002873763]}, "address": "1420 West 116th Avenue"}, {"city": "Westminster", "zip": "80234", "community": "Canyon Reserve at the Ranch", "state": "CO", "geocode": {"__class__": "tuple", "__value__": [39.9074478149, -105.022521973]}, "address": "2890 West 116th Place"}]}, {"__class__": "tuple", "__value__": [{"city": "Saint Louis Park", "zip": "55426", "community": "Virginia", "state": "MN", "geocode": {"__class__": "tuple", "__value__": [44.9469108582, -93.3830871582]}, "address": "3101 Virginia Avenue South"}, {"city": "Saint Louis Park", "zip": "55426", "community": "Westwood Gardens Apartments", "state": "MN", "geocode": {"__class__": "tuple", "__value__": [44.9592237175, -93.3734826744]}, "address": "2501 Nevada Avenue South"}]}, {"__class__": "tuple", "__value__": [{"city": "Dallas", "zip": "75206", "community": "The Hill in the Village Apartments", "state": "TX", "geocode": {"__class__": "tuple", "__value__": [32.8605171293, -96.7652707547]}, "address": "5787 Caruth Haven Lane"}, {"city": "Dallas", "zip": "75206", "community": "The Park in the Village Apartments", "state": "TX", "geocode": {"__class__": "tuple", "__value__": [32.852684021, -96.7654876709]}, "address": "5349 Amesbury Drive"}]}, {"__class__": "tuple", "__value__": [{"city": "Denver", "zip": "80206", "community": "Greentree Apartments", "state": "CO", "geocode": {"__class__": "tuple", "__value__": [39.7359580994, -104.955436707]}, "address": "1235 Clayton Street"}, {"city": "Denver", "zip": "80206", "community": "Cruise", "state": "CO", "geocode": {"__class__": "tuple", "__value__": [39.7465209961, -104.961349487]}, "address": "1899 Gaylord Street"}]}, {"__class__": "tuple", "__value__": [{"city": "Atlanta", "zip": "30350", "community": "Wesley St. James Apartments", "state": "GA", "geocode": {"__class__": "tuple", "__value__": [33.9660301208, -84.3590393066]}, "address": "7785 Roswell Road"}, {"city": "Atlanta", "zip": "30350", "community": "Sunrise at Huntcliff Summit II Senior Apartments", "state": "GA", "geocode": {"__class__": "tuple", "__value__": [33.9864807129, -84.3525009155]}, "address": "8480 Roswell Road"}]}, {"__class__": "tuple", "__value__": [{"city": "Allen", "zip": "75002", "community": "Mission Eagle Pointe", "state": "TX", "geocode": {"__class__": "tuple", "__value__": [33.0964622498, -96.658493042]}, "address": "325 South Jupiter Road"}, {"city": "Allen", "zip": "75002", "community": "Presidio", "state": "TX", "geocode": {"__class__": "tuple", "__value__": [33.0740356445, -96.669670105]}, "address": "1500 South Jupiter Road"}]}, {"__class__": "tuple", "__value__": [{"city": "Denver", "zip": "80231", "community": "Whisper Sky Luxury Apartments", "state": "CO", "geocode": {"__class__": "tuple", "__value__": [39.6846476197, -104.883264005]}, "address": "1752 South Parker Road"}, {"city": "Denver", "zip": "80231", "community": "The Villas at Parker", "state": "CO", "geocode": {"__class__": "tuple", "__value__": [39.6966893971, -104.89838697]}, "address": "1090 South Parker Road"}]}, {"__class__": "tuple", "__value__": [{"city": "Denver", "zip": "80206", "community": "Athenia Apartments", "state": "CO", "geocode": {"__class__": "tuple", "__value__": [39.7385978699, -104.949165344]}, "address": "1412 Steele Street"}, {"city": "Denver", "zip": "80206", "community": "Corsican Apartments", "state": "CO", "geocode": {"__class__": "tuple", "__value__": [39.7372360229, -104.960662842]}, "address": "1330 Gaylord Street"}]}, {"__class__": "tuple", "__value__": [{"city": "Conroe", "zip": "77301", "community": "Park Village Apartments", "state": "TX", "geocode": {"__class__": "tuple", "__value__": [30.2863254547, -95.4584732056]}, "address": "1400 South Frazier"}, {"city": "Conroe", "zip": "77304", "community": "Village Green Apartments", "state": "TX", "geocode": {"__class__": "tuple", "__value__": [30.2805538177, -95.4672927856]}, "address": "404 South Loop 336 West"}]}, {"__class__": "tuple", "__value__": [{"city": "Minneapolis", "zip": "55414", "community": "800 Thornton St SE Apartments", "state": "MN", "geocode": {"__class__": "tuple", "__value__": [44.966091156, -93.2196273804]}, "address": "800 Thornton Street South East"}, {"city": "Minneapolis", "zip": "55414", "community": "800-812 4th Street SE Apartments", "state": "MN", "geocode": {"__class__": "tuple", "__value__": [44.983482, -93.244018]}, "address": "800-812 4th Street South East"}]}, {"__class__": "tuple", "__value__": [{"city": "Centennial", "zip": "80111", "community": "360 DTC", "state": "CO", "geocode": {"__class__": "tuple", "__value__": [39.5977287292, -104.899040222]}, "address": "7700 East Peakview Avenue"}, {"city": "Greenwood Village", "zip": "80112", "community": "Furnished Studio - Greenwood Village", "state": "CO", "geocode": {"__class__": "tuple", "__value__": [39.5915794373, -104.881820679]}, "address": "9253 East Costilla Avenue"}]}, {"__class__": "tuple", "__value__": [{"city": "White Bear Lake", "zip": "55110", "community": "Birch Park", "state": "MN", "geocode": {"__class__": "tuple", "__value__": [45.060634613, -93.0219955444]}, "address": "1880 Birch Street"}, {"city": "White Bear Lake", "zip": "55110", "community": "Birch Lake Townhomes", "state": "MN", "geocode": {"__class__": "tuple", "__value__": [45.0889132172, -93.0408907682]}, "address": "4890 Birch Lake Circle"}]}, {"__class__": "tuple", "__value__": [{"city": "Washington", "zip": "20005", "community": "M Street Towers Apartments", "state": "DC", "geocode": {"__class__": "tuple", "__value__": [38.907047, -77.027763]}, "address": "1112 M Street North West"}, {"city": "Washington", "zip": "20009", "community": "Carmel Partners Apartments", "state": "DC", "geocode": {"__class__": "tuple", "__value__": [38.9281806946, -77.0361404419]}, "address": "3055 16th Street North West"}]}, {"__class__": "tuple", "__value__": [{"city": "Fort Worth", "zip": "76109", "community": "The Reserve on Willow Lake", "state": "TX", "geocode": {"__class__": "tuple", "__value__": [32.6862792969, -97.3912811279]}, "address": "4101 South Hulen Street"}, {"city": "Fort Worth", "zip": "76132", "community": "Hulen Oaks", "state": "TX", "geocode": {"__class__": "tuple", "__value__": [32.6663398743, -97.40184021]}, "address": "5700 South Hulen"}]}, {"__class__": "tuple", "__value__": [{"city": "Pasadena", "zip": "77502", "community": "Queens Lane Apartments", "state": "TX", "geocode": {"__class__": "tuple", "__value__": [29.6743755341, -95.2222595215]}, "address": "2525 Allen Genoa Road"}, {"city": "South Houston", "zip": "77587", "community": "Allen Arms Apartments", "state": "TX", "geocode": {"__class__": "tuple", "__value__": [29.6560382843, -95.209564209]}, "address": "1000 South Allen Genoa Road"}]}, {"__class__": "tuple", "__value__": [{"city": "Minneapolis", "zip": "55406", "community": "4445 E Lake St", "state": "MN", "geocode": {"__class__": "tuple", "__value__": [44.9480781555, -93.2091751099]}, "address": "4445 East Lake Street"}, {"city": "Minneapolis", "zip": "55407", "community": "Lake Street Station", "state": "MN", "geocode": {"__class__": "tuple", "__value__": [44.9484486133, -93.2401601225]}, "address": "2200 East Lake Street"}]}, {"__class__": "tuple", "__value__": [{"city": "Denver", "zip": "80214", "community": "Wadsworth Station Apartments", "state": "CO", "geocode": {"__class__": "tuple", "__value__": [39.7357368469, -105.083137512]}, "address": "1225 Yukon Street"}, {"city": "Lakewood", "zip": "80214", "community": "1220 Pierce St", "state": "CO", "geocode": {"__class__": "tuple", "__value__": [39.7356310487, -105.071899071]}, "address": "1220 Pierce Street"}]}, {"__class__": "tuple", "__value__": [{"city": "Denver", "zip": "80209", "community": "South Washington Apartments", "state": "CO", "geocode": {"__class__": "tuple", "__value__": [39.7153837234, -104.979233444]}, "address": "65 South Washington Street"}, {"city": "Denver", "zip": "80209", "community": "664 S Lincoln St", "state": "CO", "geocode": {"__class__": "tuple", "__value__": [39.7044868469, -104.985954285]}, "address": "664 South Lincoln Street"}]}, {"__class__": "tuple", "__value__": [{"city": "Denver", "zip": "80218", "community": "Park Sedona Apartments", "state": "CO", "geocode": {"__class__": "tuple", "__value__": [39.7362632751, -104.969841003]}, "address": "1245 Humboldt Street"}, {"city": "Denver", "zip": "80218", "community": "William Tell Apartments", "state": "CO", "geocode": {"__class__": "tuple", "__value__": [39.7412452698, -104.966323853]}, "address": "1599 Williams Street"}]}, {"__class__": "tuple", "__value__": [{"city": "Washington", "zip": "20010", "community": "Park Triangle", "state": "DC", "geocode": {"__class__": "tuple", "__value__": [38.9301528931, -77.0319137573]}, "address": "1375 Kenyon Street North West"}, {"city": "Washington", "zip": "20009", "community": "Park Crest", "state": "DC", "geocode": {"__class__": "tuple", "__value__": [38.9197761565, -77.0485930145]}, "address": "2070 Belmont Road North West"}]}, {"__class__": "tuple", "__value__": [{"city": "Minneapolis", "zip": "55414", "community": "2327 Cole Ave SE Apartments", "state": "MN", "geocode": {"__class__": "tuple", "__value__": [44.9864349365, -93.2191085815]}, "address": "2327 Cole Avenue South East"}, {"city": "Minneapolis", "zip": "55414", "community": "The Eagle Lodge Apartments", "state": "MN", "geocode": {"__class__": "tuple", "__value__": [44.9847984314, -93.2327957153]}, "address": "1331 8th Street South East"}]}, {"__class__": "tuple", "__value__": [{"city": "Washington", "zip": "20020", "community": "Linwood Apartments", "state": "DC", "geocode": {"__class__": "tuple", "__value__": [38.8719858974, -76.9785451144]}, "address": "1829 P Street South East"}, {"city": "Washington", "zip": "20024", "community": "Channel Square Apartments & Townhomes", "state": "DC", "geocode": {"__class__": "tuple", "__value__": [38.8725395203, -77.0162887573]}, "address": "325 P Street South West"}]}, {"__class__": "tuple", "__value__": [{"city": "Katy", "zip": "77450", "community": "The Retreat At Cinco Ranch", "state": "TX", "geocode": {"__class__": "tuple", "__value__": [29.7355746478, -95.7345823199]}, "address": "3306 South Fry Road"}, {"city": "Katy", "zip": "77450", "community": "Camden Downs At Cinco Ranch", "state": "TX", "geocode": {"__class__": "tuple", "__value__": [29.745098114, -95.749961853]}, "address": "2495 South Mason Road"}]}, {"__class__": "tuple", "__value__": [{"city": "Denver", "zip": "80202", "community": "The Diamond At Prospect", "state": "CO", "geocode": {"__class__": "tuple", "__value__": [39.7601547241, -104.99596405]}, "address": "3001 Fox Street"}, {"city": "Denver", "zip": "80202", "community": "Verve", "state": "CO", "geocode": {"__class__": "tuple", "__value__": [39.7516136169, -105.003936768]}, "address": "1490 Delgany Street"}]}, {"__class__": "tuple", "__value__": [{"city": "Denver", "zip": "80202", "community": "Solera", "state": "CO", "geocode": {"__class__": "tuple", "__value__": [39.7518342733, -104.992285743]}, "address": "1956 Lawrence Street"}, {"city": "Denver", "zip": "80202", "community": "The Manhattan", "state": "CO", "geocode": {"__class__": "tuple", "__value__": [39.7572784871, -105.002794638]}, "address": "1801 Bassett Street"}]}, {"__class__": "tuple", "__value__": [{"city": "Indianapolis", "zip": "46204", "community": "The Continental Towers at Vermont Place", "state": "IN", "geocode": {"__class__": "tuple", "__value__": [39.7732162476, -86.1583862305]}, "address": "410 North Meridian Street"}, {"city": "Indianapolis", "zip": "46204", "community": "The Residences at CityWay", "state": "IN", "geocode": {"__class__": "tuple", "__value__": [39.7638210654, -86.1545283347]}, "address": "229 South Delaware Street"}]}, {"__class__": "tuple", "__value__": [{"city": "Garland", "zip": "75043", "community": "Ray Hubbard Ranch 1", "state": "TX", "geocode": {"__class__": "tuple", "__value__": [32.8607025146, -96.5499038696]}, "address": "1325 East Interstate 30"}, {"city": "Garland", "zip": "75043", "community": "Landmark At Lake Village North", "state": "TX", "geocode": {"__class__": "tuple", "__value__": [32.8506584167, -96.5758590698]}, "address": "241 East Interstate 30"}]}, {"__class__": "tuple", "__value__": [{"city": "North Richland Hills", "zip": "76180", "community": "Shadow Creek Apartments", "state": "TX", "geocode": {"__class__": "tuple", "__value__": [32.8490638733, -97.2367477417]}, "address": "6715 Buenos Aires Drive"}, {"city": "North Richland Hills", "zip": "76180", "community": "2601 Monroe Dr", "state": "TX", "geocode": {"__class__": "tuple", "__value__": [32.8465385437, -97.2351837158]}, "address": "6897 Meadow Crest Drive"}]}, {"__class__": "tuple", "__value__": [{"city": "Broomfield", "zip": "80020", "community": "Highlander Apartments", "state": "CO", "geocode": {"__class__": "tuple", "__value__": [39.9287682027, -105.054491535]}, "address": "1049 East 9th Avenue"}, {"city": "Broomfield", "zip": "80020", "community": "The Marquis at Town Centre", "state": "CO", "geocode": {"__class__": "tuple", "__value__": [39.9165840149, -105.060020447]}, "address": "1001 East 1st Avenue"}]}, {"__class__": "tuple", "__value__": [{"city": "Herndon", "zip": "20171", "community": "Camden Dulles Station Apartments", "state": "VA", "geocode": {"__class__": "tuple", "__value__": [38.958316803, -77.4174499512]}, "address": "2320 Dulles Station Boulevard"}, {"city": "Herndon", "zip": "20170", "community": "Dulles Glen", "state": "VA", "geocode": {"__class__": "tuple", "__value__": [38.960826695, -77.4001917243]}, "address": "1265 Elden Street"}]}, {"__class__": "tuple", "__value__": [{"city": "Atlanta", "zip": "30339", "community": "Westhaven at Vinings Apartments", "state": "GA", "geocode": {"__class__": "tuple", "__value__": [33.8538625091, -84.4769091904]}, "address": "5900 Suffex Green Lane"}, {"city": "Atlanta", "zip": "30339", "community": "Stonewood at Vinings Apartments", "state": "GA", "geocode": {"__class__": "tuple", "__value__": [33.8535919189, -84.4805526733]}, "address": "2158 Cumberland Parkway"}]}, {"__class__": "tuple", "__value__": [{"city": "Washington", "zip": "20010", "community": "Samuel Kelsey Apartments", "state": "DC", "geocode": {"__class__": "tuple", "__value__": [38.9305130392, -77.0327981561]}, "address": "3322 14th Street North West"}, {"city": "Washington", "zip": "20009", "community": "2523 13th Street, NW", "state": "DC", "geocode": {"__class__": "tuple", "__value__": [38.9229156822, -77.02964589]}, "address": "2533 13th Street North West"}]}, {"__class__": "tuple", "__value__": [{"city": "Washington", "zip": "20009", "community": "Chatham Courts Apartments", "state": "DC", "geocode": {"__class__": "tuple", "__value__": [38.9251098633, -77.0396347046]}, "address": "1707 Columbia Road North West"}, {"city": "Washington", "zip": "20009", "community": "Richman Towers", "state": "DC", "geocode": {"__class__": "tuple", "__value__": [38.9281806946, -77.0361404419]}, "address": "3055 16th Street North West"}]}, {"__class__": "tuple", "__value__": [{"city": "Washington", "zip": "20002", "community": "Life Stride Six Five One Apartments", "state": "DC", "geocode": {"__class__": "tuple", "__value__": [38.8981233537, -76.9914767146]}, "address": "651 11th Street North East"}, {"city": "Washington", "zip": "20009", "community": "View 14", "state": "DC", "geocode": {"__class__": "tuple", "__value__": [38.9201959223, -77.0318439603]}, "address": "2303 14th Street North West"}]}, {"__class__": "tuple", "__value__": [{"city": "Washington", "zip": "20005", "community": "Post Massachusetts Avenue", "state": "DC", "geocode": {"__class__": "tuple", "__value__": [38.906867981, -77.034072876]}, "address": "1499 Massachusetts Avenue North West"}, {"city": "Washington", "zip": "20005", "community": "The Gatsby", "state": "DC", "geocode": {"__class__": "tuple", "__value__": [38.9013748616, -77.034510076]}, "address": "1515 O Street North West"}]}, {"__class__": "tuple", "__value__": [{"city": "Dallas", "zip": "75230", "community": "Seville @ Bellmar Apartments", "state": "TX", "geocode": {"__class__": "tuple", "__value__": [32.8925004601, -96.771549806]}, "address": "10651 Steppington Drive"}, {"city": "Dallas", "zip": "75231", "community": "Aberdeen @ Bellmar Apartments", "state": "TX", "geocode": {"__class__": "tuple", "__value__": [32.895153, -96.770652]}, "address": "10843 North Central Expy"}]}, {"__class__": "tuple", "__value__": [{"city": "Bloomington", "zip": "55420", "community": "Southview Estates", "state": "MN", "geocode": {"__class__": "tuple", "__value__": [44.8420944214, -93.2892532349]}, "address": "8901 Aldrich Avenue South"}, {"city": "Bloomington", "zip": "55420", "community": "Fremont Court Apartments", "state": "MN", "geocode": {"__class__": "tuple", "__value__": [44.8535079956, -93.2968521118]}, "address": "8300 Fremont Avenue South"}]}, {"__class__": "tuple", "__value__": [{"city": "Atlanta", "zip": "30318", "community": "Apex West Midtown Apartments", "state": "GA", "geocode": {"__class__": "tuple", "__value__": [33.7897148132, -84.4254760742]}, "address": "1133 Huff Road North West"}, {"city": "Atlanta", "zip": "30318", "community": "935M", "state": "GA", "geocode": {"__class__": "tuple", "__value__": [33.7775664032, -84.4084753096]}, "address": "935 Marietta Street North West"}]}, {"__class__": "tuple", "__value__": [{"city": "Lewisville", "zip": "75067", "community": "The Madison At Round Grove", "state": "TX", "geocode": {"__class__": "tuple", "__value__": [33.0058708191, -96.9884872437]}, "address": "201 East Round Grove Road"}, {"city": "Lewisville", "zip": "75067", "community": "Crest Manor Apartments", "state": "TX", "geocode": {"__class__": "tuple", "__value__": [33.0033798218, -97.0142822266]}, "address": "940 West Round Grove Road"}]}, {"__class__": "tuple", "__value__": [{"city": "St Louis Park", "zip": "55416", "community": "Park Trails", "state": "MN", "geocode": {"__class__": "tuple", "__value__": [44.9369405955, -93.3376416564]}, "address": "4531 West 36 1/2 Street"}, {"city": "Saint Louis Park", "zip": "55416", "community": "Hoigaard Village", "state": "MN", "geocode": {"__class__": "tuple", "__value__": [44.9377828091, -93.3513068408]}, "address": "5690 West 36th Street"}]}, {"__class__": "tuple", "__value__": [{"city": "Smyrna", "zip": "30080", "community": "Ashford 75", "state": "GA", "geocode": {"__class__": "tuple", "__value__": [33.8914718628, -84.4726715088]}, "address": "5000 South Lincoln Trace Avenue"}, {"city": "Smyrna", "zip": "30080", "community": "Furnished Studio - Atlanta", "state": "GA", "geocode": {"__class__": "tuple", "__value__": [33.8823127747, -84.4786376953]}, "address": "3103 Sports Avenue"}]}, {"__class__": "tuple", "__value__": [{"city": "Irving", "zip": "75038", "community": "Furnished Studio - Dallas - Las Colinas - Carnaby", "state": "TX", "geocode": {"__class__": "tuple", "__value__": [32.8816070557, -96.9617614746]}, "address": "5315 Carnaby Street"}, {"city": "Irving", "zip": "75039", "community": "Brookhaven", "state": "TX", "geocode": {"__class__": "tuple", "__value__": [32.8943860531, -96.9592923671]}, "address": "6306 North MacArthur Boulevard"}]}, {"__class__": "tuple", "__value__": [{"city": "Minneapolis", "zip": "55414", "community": "894 23rd Ave SE Apartments", "state": "MN", "geocode": {"__class__": "tuple", "__value__": [44.9864654541, -93.2200241089]}, "address": "894 23rd Avenue South East"}, {"city": "Minneapolis", "zip": "55414", "community": "The Knoll Apartments", "state": "MN", "geocode": {"__class__": "tuple", "__value__": [44.9813194275, -93.239944458]}, "address": "1101 University Avenue South East"}]}, {"__class__": "tuple", "__value__": [{"city": "The Woodlands", "zip": "77380", "community": "Millennium Waterway Apartments", "state": "TX", "geocode": {"__class__": "tuple", "__value__": [30.1575737, -95.4599227905]}, "address": "1 Waterway Avenue"}, {"city": "The Woodlands", "zip": "77380", "community": "Millennium Six Pines", "state": "TX", "geocode": {"__class__": "tuple", "__value__": [30.1568410546, -95.4618606716]}, "address": "10200 Six Pines Drive"}]}, {"__class__": "tuple", "__value__": [{"city": "Grand Prairie", "zip": "75050", "community": "St. Laurent Apartment Homes", "state": "TX", "geocode": {"__class__": "tuple", "__value__": [32.7992688864, -97.0557251573]}, "address": "2825 North Highway 360"}, {"city": "Grand Prairie", "zip": "75050", "community": "Fairways", "state": "TX", "geocode": {"__class__": "tuple", "__value__": [32.7709846497, -97.0589294434]}, "address": "1450 North State Highway 360"}]}, {"__class__": "tuple", "__value__": [{"city": "Denver", "zip": "80218", "community": "Bordeaux", "state": "CO", "geocode": {"__class__": "tuple", "__value__": [39.7312431335, -104.972114563]}, "address": "945 Marion Street"}, {"city": "Denver", "zip": "80218", "community": "1121 Ogden Street", "state": "CO", "geocode": {"__class__": "tuple", "__value__": [39.7341537476, -104.975585938]}, "address": "1121 Ogden Street"}]}, {"__class__": "tuple", "__value__": [{"city": "West Lafayette", "zip": "47906", "community": "River Market Apartments", "state": "IN", "geocode": {"__class__": "tuple", "__value__": [40.4217951, -86.9038148224]}, "address": "221 East State Street"}, {"city": "West Lafayette", "zip": "47906", "community": "Collegiate Communities Apartments", "state": "IN", "geocode": {"__class__": "tuple", "__value__": [40.421588, -86.913352]}, "address": "214 Marsteller Street"}]}, {"__class__": "tuple", "__value__": [{"city": "Denver", "zip": "80012", "community": "Meridian Garden Apartments", "state": "CO", "geocode": {"__class__": "tuple", "__value__": [39.6979103088, -104.866638184]}, "address": "1001 South Havana Street"}, {"city": "Aurora", "zip": "80012", "community": "Del Arte", "state": "CO", "geocode": {"__class__": "tuple", "__value__": [39.7138937563, -104.861734584]}, "address": "151 South Joliet Circle"}]}, {"__class__": "tuple", "__value__": [{"city": "Houston", "zip": "77077", "community": "Westchase Estates Apartments", "state": "TX", "geocode": {"__class__": "tuple", "__value__": [29.7392044067, -95.5748977661]}, "address": "2305 Hayes Road"}, {"city": "Houston", "zip": "77042", "community": "Walnut Terrace Apartments", "state": "TX", "geocode": {"__class__": "tuple", "__value__": [29.733268, -95.566078]}, "address": "2801 Walnut Bend Lane Apt 14"}]}, {"__class__": "tuple", "__value__": [{"city": "Frederick", "zip": "21701", "community": "Brooklawn Apartments", "state": "MD", "geocode": {"__class__": "tuple", "__value__": [39.421024695, -77.4281577766]}, "address": "1001 Carroll Parkway Ste 102"}, {"city": "Frederick", "zip": "21702", "community": "Crystal Park Apartments", "state": "MD", "geocode": {"__class__": "tuple", "__value__": [39.4213653356, -77.4344173819]}, "address": "100 Alessandra Court"}]}, {"__class__": "tuple", "__value__": [{"city": "Golden Valley", "zip": "55416", "community": "901 Xenia South Apartments", "state": "MN", "geocode": {"__class__": "tuple", "__value__": [44.9727749079, -93.3519767225]}, "address": "901 Xenia South"}, {"city": "Golden Valley", "zip": "55416", "community": "Laurel Terrace Apartments", "state": "MN", "geocode": {"__class__": "tuple", "__value__": [44.976108551, -93.3506546021]}, "address": "250 South Turners Crossroad"}]}, {"__class__": "tuple", "__value__": [{"city": "Atlanta", "zip": "30342", "community": "Perimeter Circle Apartments", "state": "GA", "geocode": {"__class__": "tuple", "__value__": [33.9065628052, -84.3718795776]}, "address": "5470 Glenridge Drive Northeast"}, {"city": "Sandy Springs", "zip": "30342", "community": "Perimeter Circle", "state": "GA", "geocode": {"__class__": "tuple", "__value__": [33.9065628052, -84.3718795776]}, "address": "5470 Glenridge Drive North East"}]}, {"__class__": "tuple", "__value__": [{"city": "Atlanta", "zip": "30329", "community": "Furnished Studio - Atlanta - Clairmont", "state": "GA", "geocode": {"__class__": "tuple", "__value__": [33.8494682312, -84.3145675659]}, "address": "3115 Clairmont Road"}, {"city": "Atlanta", "zip": "30329", "community": "Reserve at Brookhaven", "state": "GA", "geocode": {"__class__": "tuple", "__value__": [33.8435516357, -84.3213272095]}, "address": "1750 Briarwood Road North East"}]}, {"__class__": "tuple", "__value__": [{"city": "Irving", "zip": "75062", "community": "North Story Apartments", "state": "TX", "geocode": {"__class__": "tuple", "__value__": [32.853382, -96.975807]}, "address": "3515 North Story Road"}, {"city": "Irving", "zip": "75062", "community": "Savoye", "state": "TX", "geocode": {"__class__": "tuple", "__value__": [32.8568954468, -96.9519958496]}, "address": "3701 North O'Connor Boulevard"}]}, {"__class__": "tuple", "__value__": [{"city": "Washington", "zip": "20005", "community": "The Woodward Building", "state": "DC", "geocode": {"__class__": "tuple", "__value__": [38.8999099731, -77.0331192017]}, "address": "733 15th Street North West"}, {"city": "Washington", "zip": "20005", "community": "Zen Apollo", "state": "DC", "geocode": {"__class__": "tuple", "__value__": [38.9042053223, -77.0292053223]}, "address": "1234 Massachusetts Avenue North West"}]}, {"__class__": "tuple", "__value__": [{"city": "Stone Mountain", "zip": "30083", "community": "4762 Cedar Park Way", "state": "GA", "geocode": {"__class__": "tuple", "__value__": [46.3493614197, -94.1983718872]}, "address": "4762 Cedar Park Way"}, {"city": "Stone Mountain", "zip": "30087", "community": "2415 W Park Place Blvd", "state": "GA", "geocode": {"__class__": "tuple", "__value__": [46.3493614197, -94.1983718872]}, "address": "2415 West Park Place Boulevard"}]}, {"__class__": "tuple", "__value__": [{"city": "Inver Grove Heights", "zip": "55077", "community": "Pearlwood Estates", "state": "MN", "geocode": {"__class__": "tuple", "__value__": [44.8743002862, -93.068914488]}, "address": "1860 52nd Street East"}, {"city": "Inver Grove Heights", "zip": "55077", "community": "Salem Green Apartments", "state": "MN", "geocode": {"__class__": "tuple", "__value__": [44.8721733093, -93.0768661499]}, "address": "1455 Upper 55th Street East"}]}, {"__class__": "tuple", "__value__": [{"city": "Arvada", "zip": "80003", "community": "Lamar Village Apartments", "state": "CO", "geocode": {"__class__": "tuple", "__value__": [39.8065071106, -105.066383362]}, "address": "6066 Lamar Street"}, {"city": "Arvada", "zip": "80002", "community": "Woodridge Apartments", "state": "CO", "geocode": {"__class__": "tuple", "__value__": [39.7938652039, -105.08959198]}, "address": "5340 Carr Street"}]}, {"__class__": "tuple", "__value__": [{"city": "Washington", "zip": "20010", "community": "Highland Park", "state": "DC", "geocode": {"__class__": "tuple", "__value__": [38.9283790588, -77.0335998535]}, "address": "1400 Irving Street North West"}, {"city": "Washington", "zip": "20010", "community": "Park Triangle", "state": "DC", "geocode": {"__class__": "tuple", "__value__": [38.9301528931, -77.0319137573]}, "address": "1375 Kenyon Street North West"}]}, {"__class__": "tuple", "__value__": [{"city": "Washington", "zip": "20008", "community": "2501 Porter Apartments", "state": "DC", "geocode": {"__class__": "tuple", "__value__": [38.9357795715, -77.0536651611]}, "address": "2501 Porter Street North West"}, {"city": "Washington", "zip": "20005", "community": "Thurman The Apartments", "state": "DC", "geocode": {"__class__": "tuple", "__value__": [38.9074783325, -77.0334396362]}, "address": "1435 North Street North West"}]}, {"__class__": "tuple", "__value__": [{"city": "Roswell", "zip": "30076", "community": "Park 83", "state": "GA", "geocode": {"__class__": "tuple", "__value__": [46.3493614197, -94.1983718872]}, "address": "100 Calibre Creek Parkway"}, {"city": "Roswell", "zip": "30076", "community": "Oaks at Holcomb Bridge", "state": "GA", "geocode": {"__class__": "tuple", "__value__": [46.3493614197, -94.1983718872]}, "address": "700 Old Holcomb Bridge Road"}]}, {"__class__": "tuple", "__value__": [{"city": "Sandy Springs", "zip": "30328", "community": "Parc at Perimeter", "state": "GA", "geocode": {"__class__": "tuple", "__value__": [33.9243736267, -84.3532485962]}, "address": "6210 Peachtree Dunwoody Road Northeast"}, {"city": "Sandy Springs", "zip": "30328", "community": "Dunwoody Courtyards", "state": "GA", "geocode": {"__class__": "tuple", "__value__": [33.9437866211, -84.3518218994]}, "address": "6873 Peachtree Dunwoody Road North East"}]}, {"__class__": "tuple", "__value__": [{"city": "Aurora", "zip": "80011", "community": "Carriage Green Apartments", "state": "CO", "geocode": {"__class__": "tuple", "__value__": [39.7374415398, -104.803110212]}, "address": "15899 East 13th Place"}, {"city": "Aurora", "zip": "80011", "community": "13410 E 13th Pl", "state": "CO", "geocode": {"__class__": "tuple", "__value__": [39.7366867065, -104.83380127]}, "address": "13410 East 13th Place"}]}, {"__class__": "tuple", "__value__": [{"city": "Denver", "zip": "80224", "community": "Spyglass Hill", "state": "CO", "geocode": {"__class__": "tuple", "__value__": [39.6942367554, -104.904808044]}, "address": "7100 East Mississippi Avenue"}, {"city": "Denver", "zip": "80246", "community": "Peregrine Place", "state": "CO", "geocode": {"__class__": "tuple", "__value__": [39.6961631775, -104.935577393]}, "address": "4400 East Mississippi Avenue"}]}, {"__class__": "tuple", "__value__": [{"city": "Silver Spring", "zip": "20910", "community": "Fenwick", "state": "MD", "geocode": {"__class__": "tuple", "__value__": [38.997062, -77.034301]}, "address": "8616 2nd Avenue"}, {"city": "Silver Spring", "zip": "20910", "community": "Cornoa & Sligo House Apartments", "state": "MD", "geocode": {"__class__": "tuple", "__value__": [38.991265744, -77.0136780292]}, "address": "603 Sligo Avenue"}]}, {"__class__": "tuple", "__value__": [{"city": "Minneapolis", "zip": "55403", "community": "1117 Marquette Ave N Apartments", "state": "MN", "geocode": {"__class__": "tuple", "__value__": [44.971546, -93.274284]}, "address": "1117 Marquette Avenue North"}, {"city": "Minneapolis", "zip": "55403", "community": "Loring Park Apartments", "state": "MN", "geocode": {"__class__": "tuple", "__value__": [44.972319603, -93.2803691179]}, "address": "1300 Yale Place"}]}, {"__class__": "tuple", "__value__": [{"city": "Arlington", "zip": "22201", "community": "2201 Pershing", "state": "VA", "geocode": {"__class__": "tuple", "__value__": [38.8807620853, -77.0856336504]}, "address": "2209 Pershing Drive"}, {"city": "Arlington", "zip": "22201", "community": "2201 Wilson", "state": "VA", "geocode": {"__class__": "tuple", "__value__": [38.891578, -77.086364]}, "address": "2201 Wilson Boulevard"}]}, {"__class__": "tuple", "__value__": [{"city": "St Louis Park", "zip": "55416", "community": "3820 Grand Way Apartments", "state": "MN", "geocode": {"__class__": "tuple", "__value__": [44.9340042472, -93.340478763]}, "address": "3820 Grand Way"}, {"city": "St Louis Park", "zip": "55416", "community": "Park Trails", "state": "MN", "geocode": {"__class__": "tuple", "__value__": [44.9369405955, -93.3376416564]}, "address": "4531 West 36 1/2 Street"}]}, {"__class__": "tuple", "__value__": [{"city": "Indianapolis", "zip": "46208", "community": "Federation Place Apartments", "state": "IN", "geocode": {"__class__": "tuple", "__value__": [39.7993888855, -86.160987854]}, "address": "2309 North Capitol Avenue"}, {"city": "Indianapolis", "zip": "46208", "community": "The Marott Apartments", "state": "IN", "geocode": {"__class__": "tuple", "__value__": [39.8054580688, -86.1559295654]}, "address": "2625 North Meridian Street"}]}, {"__class__": "tuple", "__value__": [{"city": "Washington", "zip": "20737", "community": "Twin Oaks Apartments", "state": "DC", "geocode": {"__class__": "tuple", "__value__": [38.9382972717, -77.0336837769]}, "address": "3800 14th Street North West"}, {"city": "Washington", "zip": "20009", "community": "Dorchester House", "state": "DC", "geocode": {"__class__": "tuple", "__value__": [38.9227561951, -77.0374526978]}, "address": "2480 16th Street North West"}]}, {"__class__": "tuple", "__value__": [{"city": "Silver Spring", "zip": "20910", "community": "The Blairs", "state": "MD", "geocode": {"__class__": "tuple", "__value__": [38.9905166626, -77.0313110352]}, "address": "1401 Blair Mill Road"}, {"city": "Silver Spring", "zip": "20910", "community": "The Galaxy Apartments", "state": "MD", "geocode": {"__class__": "tuple", "__value__": [38.9871492237, -77.0287446678]}, "address": "8025 13th Street"}]}, {"__class__": "tuple", "__value__": [{"city": "Washington", "zip": "20010", "community": "Highland Park", "state": "DC", "geocode": {"__class__": "tuple", "__value__": [38.9283790588, -77.0335998535]}, "address": "1400 Irving Street North West"}, {"city": "Washington", "zip": "20009", "community": "Dorchester House", "state": "DC", "geocode": {"__class__": "tuple", "__value__": [38.9227561951, -77.0374526978]}, "address": "2480 16th Street North West"}]}, {"__class__": "tuple", "__value__": [{"city": "Denver", "zip": "80222", "community": "Asbury Plaza", "state": "CO", "geocode": {"__class__": "tuple", "__value__": [39.6803453565, -104.927747101]}, "address": "5170 East Asbury Avenue Apt 202"}, {"city": "Denver", "zip": "80222", "community": "The Ventana", "state": "CO", "geocode": {"__class__": "tuple", "__value__": [39.6757721901, -104.927123487]}, "address": "5095 East Donald Avenue"}]}, {"__class__": "tuple", "__value__": [{"city": "Denver", "zip": "80227", "community": "Osito Ridge Apartments", "state": "CO", "geocode": {"__class__": "tuple", "__value__": [39.6542358398, -105.057128906]}, "address": "5855 West Hampden Avenue"}, {"city": "Denver", "zip": "80227", "community": "Waters Edge", "state": "CO", "geocode": {"__class__": "tuple", "__value__": [39.6543045044, -105.066070557]}, "address": "6301 West Hampden Avenue"}]}, {"__class__": "tuple", "__value__": [{"city": "Washington", "zip": "20002", "community": "Board of Directors For Sirsum Corda Apartments", "state": "DC", "geocode": {"__class__": "tuple", "__value__": [38.9048080891, -77.0059452206]}, "address": "1112 1st Street North East"}, {"city": "Washington", "zip": "20002", "community": "Trilogy NOMA", "state": "DC", "geocode": {"__class__": "tuple", "__value__": [38.9108657837, -77.0041275024]}, "address": "151 Q Street North East"}]}, {"__class__": "tuple", "__value__": [{"city": "Washington", "zip": "20009", "community": "Meridian Park Apartments", "state": "DC", "geocode": {"__class__": "tuple", "__value__": [38.922855, -77.034934]}, "address": "2445 15th Street North West"}, {"city": "Washington", "zip": "20009", "community": "The Alden", "state": "DC", "geocode": {"__class__": "tuple", "__value__": [38.9242668152, -77.0300674438]}, "address": "2620 13th Street North West"}]}, {"__class__": "tuple", "__value__": [{"city": "Minneapolis", "zip": "55401", "community": "Gaar Scott Historic Lofts Apartments", "state": "MN", "geocode": {"__class__": "tuple", "__value__": [44.9891891479, -93.2737808228]}, "address": "614 North 1st Street"}, {"city": "Minneapolis", "zip": "55401", "community": "Third North", "state": "MN", "geocode": {"__class__": "tuple", "__value__": [44.9886550903, -93.2800369263]}, "address": "800 North 3rd Street"}]}, {"__class__": "tuple", "__value__": [{"city": "Houston", "zip": "77049", "community": "Alta Crossing", "state": "TX", "geocode": {"__class__": "tuple", "__value__": [29.8188304901, -95.1628494263]}, "address": "6464 East Sam Houston Parkway North"}, {"city": "Houston", "zip": "77049", "community": "Broadstone Stone Park", "state": "TX", "geocode": {"__class__": "tuple", "__value__": [29.8137322068, -95.1635427028]}, "address": "6160 East Sam Houston Parkway North"}]}, {"__class__": "tuple", "__value__": [{"city": "Mesquite", "zip": "75150", "community": "Towne Centre Village", "state": "TX", "geocode": {"__class__": "tuple", "__value__": [32.804542, -96.617683]}, "address": "1208 Americana Lane"}, {"city": "Mesquite", "zip": "75150", "community": "The Summit", "state": "TX", "geocode": {"__class__": "tuple", "__value__": [32.805847, -96.61351]}, "address": "1057 Americana Lane"}]}], "match": [{"__class__": "tuple", "__value__": [{"city": "Bedford", "zip": "76022", "community": "Toscana", "state": "TX", "geocode": {"__class__": "tuple", "__value__": [32.8357048035, -97.1648254395]}, "address": "1325 Tennis Drive"}, {"city": "Bedford", "zip": "76022", "community": "Toscana", "state": "TX", "geocode": {"__class__": "tuple", "__value__": [32.8357048035, -97.1648254395]}, "address": "1325 Tennis Drive"}]}, {"__class__": "tuple", "__value__": [{"city": "Centennial", "zip": "80111", "community": "360 DTC", "state": "CO", "geocode": {"__class__": "tuple", "__value__": [39.5977287292, -104.899040222]}, "address": "7700 East Peakview Avenue"}, {"city": "Centennial", "zip": "80111", "community": "360 Degrees", "state": "CO", "geocode": {"__class__": "tuple", "__value__": [39.5977287292, -104.899040222]}, "address": "7700 East Peakview Avenue"}]}, {"__class__": "tuple", "__value__": [{"city": "Indianapolis", "zip": "46226", "community": "Park Forest Homes Ltd Apartments", "state": "IN", "geocode": {"__class__": "tuple", "__value__": [39.8402404785, -86.0617218018]}, "address": "4521 Park Forest Court"}, {"city": "Indianapolis", "zip": "46226", "community": "Park Forest Apartments", "state": "IN", "geocode": {"__class__": "tuple", "__value__": [39.84024, -86.061721]}, "address": "4521 Park Forest Court"}]}, {"__class__": "tuple", "__value__": [{"city": "Edina", "zip": "55436", "community": "Cottages Of Edina", "state": "MN", "geocode": {"__class__": "tuple", "__value__": [44.9104329944, -93.3992674202]}, "address": "5180 Lincoln Drive"}, {"city": "Minneapolis", "zip": "55436", "community": "Cottages of Edina", "state": "MN", "geocode": {"__class__": "tuple", "__value__": [44.9134216309, -93.398727417]}, "address": "5140-5178 Lincoln Drive"}]}, {"__class__": "tuple", "__value__": [{"city": "Indianapolis", "zip": "46222", "community": "Williamsburg On the Lake Apartments", "state": "IN", "geocode": {"__class__": "tuple", "__value__": [39.8219718933, -86.218536377]}, "address": "3451 Sherburne Lane"}, {"city": "Indianapolis", "zip": "46222", "community": "Abney Lake Apartments", "state": "IN", "geocode": {"__class__": "tuple", "__value__": [39.8219718933, -86.218536377]}, "address": "3451 Sherburne Lane"}]}, {"__class__": "tuple", "__value__": [{"city": "Falls Church", "zip": "22041", "community": "5501 Seminary Rd", "state": "VA", "geocode": {"__class__": "tuple", "__value__": [38.8417131454, -77.1216154844]}, "address": "5501 Seminary Road"}, {"city": "Falls Church", "zip": "22041", "community": "5501 SEMINARY RD #712S", "state": "VA", "geocode": {"__class__": "tuple", "__value__": [38.8417131454, -77.1216154844]}, "address": "5501 SEMINARY Road #712S"}]}, {"__class__": "tuple", "__value__": [{"city": "Ellicott City", "zip": "21043", "community": "Heartlands Senior Living Village at Ellicott City Apartments", "state": "MD", "geocode": {"__class__": "tuple", "__value__": [39.2900530994, -76.8199018389]}, "address": "3004 North Ridge Road"}, {"city": "Ellicott City", "zip": "22031", "community": "Heartlands Sl Village at Ellicott City Senior Apartments", "state": "MD", "geocode": {"__class__": "tuple", "__value__": [39.2900530994, -76.8199018389]}, "address": "3004 North Ridge Road"}]}, {"__class__": "tuple", "__value__": [{"city": "Denver", "zip": "80202", "community": "Verve Apartments", "state": "CO", "geocode": {"__class__": "tuple", "__value__": [39.7516136169, -105.003936768]}, "address": "1490 Delgany Street"}, {"city": "Denver", "zip": "80202", "community": "The Verve", "state": "CO", "geocode": {"__class__": "tuple", "__value__": [39.7516136169, -105.003936768]}, "address": "1490 Delgany Street"}]}, {"__class__": "tuple", "__value__": [{"city": "McLean", "zip": "22102", "community": "Dolley Madison Apartments", "state": "VA", "geocode": {"__class__": "tuple", "__value__": [38.9150239527, -77.213665545]}, "address": "1915 Kennedy Drive"}, {"city": "McLean", "zip": "22102", "community": "Dolly Madison Apartments", "state": "VA", "geocode": {"__class__": "tuple", "__value__": [38.9152870178, -77.2152862549]}, "address": "1805 Wilson Lane"}]}, {"__class__": "tuple", "__value__": [{"city": "Houston", "zip": "77090", "community": "Cypress Station Apartments", "state": "TX", "geocode": {"__class__": "tuple", "__value__": [30.030752182, -95.4350967407]}, "address": "18203 Westfield Place Drive"}, {"city": "Houston", "zip": "77090", "community": "Stoneleigh Cypress Station", "state": "TX", "geocode": {"__class__": "tuple", "__value__": [30.030752182, -95.4350967407]}, "address": "18203 Westfield Place Drive"}]}, {"__class__": "tuple", "__value__": [{"city": "Denver", "zip": "80231", "community": "Churchill Downs", "state": "CO", "geocode": {"__class__": "tuple", "__value__": [39.669090271, -104.889663696]}, "address": "8400 East Yale Avenue"}, {"city": "Denver", "zip": "80231", "community": "Ascent", "state": "CO", "geocode": {"__class__": "tuple", "__value__": [39.669090271, -104.889663696]}, "address": "8400 East Yale Avenue"}]}, {"__class__": "tuple", "__value__": [{"city": "Greenwood Village", "zip": "80111", "community": "Pinnacle Dtc", "state": "CO", "geocode": {"__class__": "tuple", "__value__": [39.6188812256, -104.894020081]}, "address": "5335 South Valentia Way"}, {"city": "Greenwood Village", "zip": "80111", "community": "Viridian", "state": "CO", "geocode": {"__class__": "tuple", "__value__": [39.6188812256, -104.894020081]}, "address": "5335 South Valentia Way"}]}, {"__class__": "tuple", "__value__": [{"city": "Irving", "zip": "75061", "community": "Pioneer Crossing Apartments", "state": "TX", "geocode": {"__class__": "tuple", "__value__": [32.832252, -97.004318]}, "address": "2053 Estrada Parkway"}, {"city": "Irving", "zip": "75061", "community": "Lakeshore at Preston", "state": "TX", "geocode": {"__class__": "tuple", "__value__": [32.8322525024, -97.0043182373]}, "address": "2053 Estrada Parkway"}]}, {"__class__": "tuple", "__value__": [{"city": "Houston", "zip": "77070", "community": "The Verandah at Centerfield Apartments", "state": "TX", "geocode": {"__class__": "tuple", "__value__": [29.9686412811, -95.5461578369]}, "address": "7700 Willow Chase Boulevard"}, {"city": "Houston", "zip": "77070", "community": "Veranda at Centerfield", "state": "TX", "geocode": {"__class__": "tuple", "__value__": [29.9784965515, -95.5733642578]}, "address": "7700 Willowchase Boulevard"}]}, {"__class__": "tuple", "__value__": [{"city": "Denver", "zip": "80237", "community": "Heritage Club Denver Tech Center", "state": "CO", "geocode": {"__class__": "tuple", "__value__": [39.62550354, -104.912719727]}, "address": "4901 South Monaco Street"}, {"city": "Denver", "zip": "80237", "community": "Sunbridge Assisted Living", "state": "CO", "geocode": {"__class__": "tuple", "__value__": [39.62550354, -104.912719727]}, "address": "4901 South Monaco Street"}]}, {"__class__": "tuple", "__value__": [{"city": "Washington", "zip": "20019", "community": "Greenway Apartments", "state": "DC", "geocode": {"__class__": "tuple", "__value__": [38.8887188584, -76.9551562518]}, "address": "3539 A Street South East"}, {"city": "Washington", "zip": "20019", "community": "Meadow Green Courts", "state": "DC", "geocode": {"__class__": "tuple", "__value__": [38.8887188584, -76.9551562518]}, "address": "3539 A Street South East"}]}, {"__class__": "tuple", "__value__": [{"city": "Aurora", "zip": "80016", "community": "Green Briar", "state": "CO", "geocode": {"__class__": "tuple", "__value__": [39.5933570862, -104.728378296]}, "address": "22159 East Ontario Drive"}, {"city": "Aurora", "zip": "80016", "community": "Sonoma Resort", "state": "CO", "geocode": {"__class__": "tuple", "__value__": [39.5933570862, -104.728378296]}, "address": "22159 East Ontario Drive"}]}, {"__class__": "tuple", "__value__": [{"city": "Irving", "zip": "75063", "community": "Post Oak Place", "state": "TX", "geocode": {"__class__": "tuple", "__value__": [32.9114194214, -96.9850851595]}, "address": "2940 West Royal Lane"}, {"city": "Irving", "zip": "75063", "community": "Santa Rosa at Las Colinas", "state": "TX", "geocode": {"__class__": "tuple", "__value__": [32.9114194214, -96.9850851595]}, "address": "2940 West Royal Lane"}]}, {"__class__": "tuple", "__value__": [{"city": "Littleton", "zip": "80122", "community": "Sterling Point Apartments", "state": "CO", "geocode": {"__class__": "tuple", "__value__": [39.5942687988, -104.924758911]}, "address": "6760 South Glencoe Street"}, {"city": "Centennial", "zip": "80122", "community": "Villas at Holly", "state": "CO", "geocode": {"__class__": "tuple", "__value__": [39.5942687988, -104.924758911]}, "address": "6760 South Glencoe Street"}]}, {"__class__": "tuple", "__value__": [{"city": "Denver", "zip": "80246", "community": "4747 E Mississippi", "state": "CO", "geocode": {"__class__": "tuple", "__value__": [39.6976585388, -104.932189941]}, "address": "4747 East Mississippi Avenue"}, {"city": "Denver", "zip": "80246", "community": "Great updated building in awesome location!", "state": "CO", "geocode": {"__class__": "tuple", "__value__": [39.6971931458, -104.932533264]}, "address": "4701 East Mississippi Avenue"}]}, {"__class__": "tuple", "__value__": [{"city": "Grand Prairie", "zip": "75050", "community": "Riverhill Luxury Residence", "state": "TX", "geocode": {"__class__": "tuple", "__value__": [32.7983462065, -97.0559960604]}, "address": "2775 North State Highway 360"}, {"city": "Grand Prairie", "zip": "75050", "community": "Spicewood Crossing", "state": "TX", "geocode": {"__class__": "tuple", "__value__": [32.7983462065, -97.0559960604]}, "address": "2775 North State Highway 360"}]}, {"__class__": "tuple", "__value__": [{"city": "Greenwood Village", "zip": "80111", "community": "Parc at Greenwood Village", "state": "CO", "geocode": {"__class__": "tuple", "__value__": [39.617248401, -104.895863682]}, "address": "5500 DTC Parkway"}, {"city": "Greenwood Village", "zip": "80111", "community": "The Parc At Greenwood Village", "state": "CO", "geocode": {"__class__": "tuple", "__value__": [39.617248401, -104.895863682]}, "address": "5500 DTC PARKWAY"}]}, {"__class__": "tuple", "__value__": [{"city": "Lakewood", "zip": "80226", "community": "One Belmar Place", "state": "CO", "geocode": {"__class__": "tuple", "__value__": [39.7040440142, -105.079661384]}, "address": "770 South Vance Street"}, {"city": "Lakewood", "zip": "80226", "community": "Riverton on the Platte", "state": "CO", "geocode": {"__class__": "tuple", "__value__": [39.7040440142, -105.079661384]}, "address": "770 South Vance Street"}]}, {"__class__": "tuple", "__value__": [{"city": "Aurora", "zip": "80017", "community": "Stonebrook Apartments", "state": "CO", "geocode": {"__class__": "tuple", "__value__": [39.7003936768, -104.808189392]}, "address": "932 South Helena Way"}, {"city": "Aurora", "zip": "80017", "community": "Hearthstone at City Center", "state": "CO", "geocode": {"__class__": "tuple", "__value__": [39.7003936768, -104.808189392]}, "address": "932 South Helena Way"}]}, {"__class__": "tuple", "__value__": [{"city": "Mansfield", "zip": "76063", "community": "Towne Crossing", "state": "TX", "geocode": {"__class__": "tuple", "__value__": [32.5870639086, -97.1434776485]}, "address": "1601 Towne Crossing Boulevard"}, {"city": "Mansfield", "zip": "76063", "community": "AMLI Las Colinas", "state": "TX", "geocode": {"__class__": "tuple", "__value__": [32.5870639086, -97.1434776485]}, "address": "1601 Towne Crossing Boulevard"}]}, {"__class__": "tuple", "__value__": [{"city": "Carrollton", "zip": "75006", "community": "Vistas on the Park", "state": "TX", "geocode": {"__class__": "tuple", "__value__": [32.9848261178, -96.8586163223]}, "address": "2730 Oak Tree Drive"}, {"city": "Carrollton", "zip": "75006", "community": "Oak Tree Condos", "state": "TX", "geocode": {"__class__": "tuple", "__value__": [32.9848261178, -96.8586163223]}, "address": "2730 Oak Tree Drive"}]}, {"__class__": "tuple", "__value__": [{"city": "Texas City", "zip": "77590", "community": "The Veranda", "state": "TX", "geocode": {"__class__": "tuple", "__value__": [29.3917489797, -94.9505712837]}, "address": "3700 9th Avenue North"}, {"city": "Texas City", "zip": "77590", "community": "The Veranda", "state": "TX", "geocode": {"__class__": "tuple", "__value__": [29.3917489797, -94.9505712837]}, "address": "3700 North 9th Avenue"}]}, {"__class__": "tuple", "__value__": [{"city": "Denver", "zip": "80206", "community": "Retreat at the Park", "state": "CO", "geocode": {"__class__": "tuple", "__value__": [39.7424378246, -104.953519106]}, "address": "1620 Fillmore Street Apt 401"}, {"city": "Denver", "zip": "80206", "community": "1620 Fillmore St", "state": "CO", "geocode": {"__class__": "tuple", "__value__": [39.7424378246, -104.953519106]}, "address": "1620 Fillmore Street"}]}, {"__class__": "tuple", "__value__": [{"city": "Rockwall", "zip": "75032", "community": "Orion Lake Ray Hubbard", "state": "TX", "geocode": {"__class__": "tuple", "__value__": [32.9086341858, -96.4343948364]}, "address": "1650 South John King Boulevard"}, {"city": "Rockwall", "zip": "75032", "community": "Steeplechase Apartment", "state": "TX", "geocode": {"__class__": "tuple", "__value__": [32.908634, -96.434394]}, "address": "1650 South John King Boulevard"}]}, {"__class__": "tuple", "__value__": [{"city": "Thornton", "zip": "80260", "community": "1300 Milky Way", "state": "CO", "geocode": {"__class__": "tuple", "__value__": [39.8551368713, -105.004112244]}, "address": "1300 Milky Way"}, {"city": "Thornton", "zip": "80260", "community": "Parkview Terrace", "state": "CO", "geocode": {"__class__": "tuple", "__value__": [39.8551368713, -105.004112244]}, "address": "1300 Milky Way"}]}, {"__class__": "tuple", "__value__": [{"city": "Fishers", "zip": "46038", "community": "The Flats at Fishers Marketplace Apartments", "state": "IN", "geocode": {"__class__": "tuple", "__value__": [39.9047012329, -85.9962692261]}, "address": "9588 Ambleside Drive"}, {"city": "Fishers", "zip": "46038", "community": "Beacon Pointe Apartments in Greenwood Indiana", "state": "IN", "geocode": {"__class__": "tuple", "__value__": [39.9047012329, -85.9962692261]}, "address": "9588 Ambleside Drive"}]}, {"__class__": "tuple", "__value__": [{"city": "Bedford", "zip": "76022", "community": "Westdale Hills - Pinehurst", "state": "TX", "geocode": {"__class__": "tuple", "__value__": [32.8358840942, -97.1597747803]}, "address": "531 Bedford Road"}, {"city": "Bedford", "zip": "76022", "community": "Linbrook Apartments", "state": "TX", "geocode": {"__class__": "tuple", "__value__": [32.8358840942, -97.1597747803]}, "address": "531 Bedford Road"}]}, {"__class__": "tuple", "__value__": [{"city": "Maplewood", "zip": "55109", "community": "Maple Ridge Apartment Homes", "state": "MN", "geocode": {"__class__": "tuple", "__value__": [45.0363426208, -93.0293731689]}, "address": "1695 East County Road D"}, {"city": "Maplewood", "zip": "55109", "community": "Maple Ridge Apartment Homes", "state": "MN", "geocode": {"__class__": "tuple", "__value__": [45.036342, -93.029373]}, "address": "1695 County Road D East"}]}, {"__class__": "tuple", "__value__": [{"city": "Saint Louis Park", "zip": "55426", "community": "Aquila Court", "state": "MN", "geocode": {"__class__": "tuple", "__value__": [44.9482682347, -93.3839546889]}, "address": "8225 West 30 1/2 Street"}, {"city": "Saint Louis Park", "zip": "55426", "community": "Royal Park", "state": "MN", "geocode": {"__class__": "tuple", "__value__": [44.9488830566, -93.3840560913]}, "address": "8224 West 30 1/2 Street"}]}, {"__class__": "tuple", "__value__": [{"city": "Washington", "zip": "20009", "community": "Meridian Towers Apartments", "state": "DC", "geocode": {"__class__": "tuple", "__value__": [38.9183143526, -77.0353683829]}, "address": "2112 New Hampshire Avenue North West"}, {"city": "Washington", "zip": "20009", "community": "2112 New Hampshire Avenue", "state": "DC", "geocode": {"__class__": "tuple", "__value__": [38.9183143526, -77.0353683829]}, "address": "2112 New Hampshire Avenue North West"}]}, {"__class__": "tuple", "__value__": [{"city": "Denver", "zip": "80235", "community": "Peachtree Apartments", "state": "CO", "geocode": {"__class__": "tuple", "__value__": [39.6519393921, -105.06577301]}, "address": "3550 South Kendall Street"}, {"city": "Denver", "zip": "80235", "community": "Rockledge Bear Valley", "state": "CO", "geocode": {"__class__": "tuple", "__value__": [39.6519393921, -105.06577301]}, "address": "3550 South Kendall Street"}]}, {"__class__": "tuple", "__value__": [{"city": "Apt #107, Saint Paul", "zip": "55118", "community": "Sandlewood Place", "state": "MN", "geocode": {"__class__": "tuple", "__value__": [44.8993721008, -93.0953140259]}, "address": "1550 Charlton Street"}, {"city": "Apt #107, West Saint Paul", "zip": "55118", "community": "Somerset Green", "state": "MN", "geocode": {"__class__": "tuple", "__value__": [44.899372, -93.095314]}, "address": "1550 Charlton Street"}]}, {"__class__": "tuple", "__value__": [{"city": "Washington", "zip": "20003", "community": "Capitol Yards", "state": "DC", "geocode": {"__class__": "tuple", "__value__": [38.8796386719, -77.0064697266]}, "address": "100 Eye Street South East"}, {"city": "Washington", "zip": "20003", "community": "Capitol Yards", "state": "DC", "geocode": {"__class__": "tuple", "__value__": [38.8883071393, -77.0058426261]}, "address": "100 I Street South East"}]}, {"__class__": "tuple", "__value__": [{"city": "Castle Rock", "zip": "80104", "community": "Castle Rock Apartments II", "state": "CO", "geocode": {"__class__": "tuple", "__value__": [39.3667297363, -104.850608826]}, "address": "472 South Gilbert Street"}, {"city": "Castle Rock", "zip": "80104", "community": "Castle Rock Apartments II", "state": "CO", "geocode": {"__class__": "tuple", "__value__": [39.374306649, -104.853814691]}, "address": "472 Gilbert Street"}]}, {"__class__": "tuple", "__value__": [{"city": "Houston", "zip": "77063", "community": "Woodway Garden Townhomes Apartments", "state": "TX", "geocode": {"__class__": "tuple", "__value__": [29.7452822328, -95.5074193329]}, "address": "8003 Woodway Drive"}, {"city": "Houston", "zip": "77063", "community": "Woodway Garden Townhomes", "state": "TX", "geocode": {"__class__": "tuple", "__value__": [29.7452822328, -95.5074193329]}, "address": "8003 WOODWAY DRIVE"}]}, {"__class__": "tuple", "__value__": [{"city": "Houston", "zip": "77079", "community": "Memorial P Apartments", "state": "TX", "geocode": {"__class__": "tuple", "__value__": [29.7789649963, -95.6218414307]}, "address": "15135 Memorial Drive"}, {"city": "Houston", "zip": "77079", "community": "The Grand on Memorial", "state": "TX", "geocode": {"__class__": "tuple", "__value__": [29.7789649963, -95.6218414307]}, "address": "15135 Memorial Drive"}]}, {"__class__": "tuple", "__value__": [{"city": "Euless", "zip": "76040", "community": "Eagle Crest", "state": "TX", "geocode": {"__class__": "tuple", "__value__": [32.8283233643, -97.0959777832]}, "address": "605 Del Paso Street"}, {"city": "Euless", "zip": "76040", "community": "Bear Creek", "state": "TX", "geocode": {"__class__": "tuple", "__value__": [32.8283233643, -97.0959777832]}, "address": "605 Del Paso Street"}]}, {"__class__": "tuple", "__value__": [{"city": "Glendale", "zip": "80246", "community": "4550 Cherry Creek", "state": "CO", "geocode": {"__class__": "tuple", "__value__": [39.7035446167, -104.93473053]}, "address": "4550 Cherry Creek Drive South"}, {"city": "Denver", "zip": "80246", "community": "4550 Cherry Creek", "state": "CO", "geocode": {"__class__": "tuple", "__value__": [39.703544, -104.93473]}, "address": "4550 East Cherry Creek South Drive"}]}, {"__class__": "tuple", "__value__": [{"city": "Greenwood", "zip": "46143", "community": "Courts Of Valle Vista", "state": "IN", "geocode": {"__class__": "tuple", "__value__": [39.6131104231, -86.0920831561]}, "address": "714 Connors Drive"}, {"city": "Greenwood", "zip": "46143", "community": "Greenwood Oaks", "state": "IN", "geocode": {"__class__": "tuple", "__value__": [39.6131104231, -86.0920831561]}, "address": "714 Connors Drive"}]}, {"__class__": "tuple", "__value__": [{"city": "North Richland Hills", "zip": "76180", "community": "The Arts", "state": "TX", "geocode": {"__class__": "tuple", "__value__": [32.843536, -97.210411]}, "address": "7913 Harwood Road"}, {"city": "North Richland Hills", "zip": "76180", "community": "5101 Blackwood Dr", "state": "TX", "geocode": {"__class__": "tuple", "__value__": [32.843536, -97.210411]}, "address": "7913 Harwood Road"}]}, {"__class__": "tuple", "__value__": [{"city": "Katy", "zip": "77450", "community": "Kingsland Ranch Apartments", "state": "TX", "geocode": {"__class__": "tuple", "__value__": [29.7741279602, -95.7402572632]}, "address": "21101 Kingsland Boulevard Ofc"}, {"city": "Katy", "zip": "77450", "community": "Elysian at Kingsland Ranch", "state": "TX", "geocode": {"__class__": "tuple", "__value__": [29.7741279602, -95.7402572632]}, "address": "21101 Kingsland Boulevard"}]}, {"__class__": "tuple", "__value__": [{"city": "Saint Paul", "zip": "55117", "community": "LaBlanche Apartments", "state": "MN", "geocode": {"__class__": "tuple", "__value__": [44.9825019836, -93.1167602539]}, "address": "390 Cottage Avenue West"}, {"city": "Saint Paul", "zip": "55117", "community": "LaBlanche Apartments", "state": "MN", "geocode": {"__class__": "tuple", "__value__": [44.9825019836, -93.1167602539]}, "address": "390 West Cottage Avenue"}]}, {"__class__": "tuple", "__value__": [{"city": "Fort Worth", "zip": "76102", "community": "Trinity District", "state": "TX", "geocode": {"__class__": "tuple", "__value__": [32.7626724243, -97.3283004761]}, "address": "432 Samuels Avenue"}, {"city": "Fort Worth", "zip": "76102", "community": "2301 Basil Dr Arlington, TX 76006", "state": "TX", "geocode": {"__class__": "tuple", "__value__": [32.7626724243, -97.3283004761]}, "address": "432 Samuels Avenue"}]}, {"__class__": "tuple", "__value__": [{"city": "Lone Tree", "zip": "80124", "community": "Crest Lonetree", "state": "CO", "geocode": {"__class__": "tuple", "__value__": [39.5513496399, -104.871826172]}, "address": "10047 Park Meadows Drive"}, {"city": "Lone Tree", "zip": "80124", "community": "IMT Lone Tree", "state": "CO", "geocode": {"__class__": "tuple", "__value__": [39.5513496399, -104.871826172]}, "address": "10047 Park Meadows Drive"}]}, {"__class__": "tuple", "__value__": [{"city": "Grapevine", "zip": "76051", "community": "Montelena", "state": "TX", "geocode": {"__class__": "tuple", "__value__": [32.9438748211, -97.0731662214]}, "address": "501 Turner Road"}, {"city": "Grapevine", "zip": "76051", "community": "The Park Place Townhomes", "state": "TX", "geocode": {"__class__": "tuple", "__value__": [32.9438748211, -97.0731662214]}, "address": "501 Turner Road"}]}, {"__class__": "tuple", "__value__": [{"city": "Denver", "zip": "80204", "community": "Overlook Apartments", "state": "CO", "geocode": {"__class__": "tuple", "__value__": [39.7391735762, -105.02864778]}, "address": "3190 West 14th Avenue"}, {"city": "Denver", "zip": "80204", "community": "The Overlook at Mile High", "state": "CO", "geocode": {"__class__": "tuple", "__value__": [39.7391735762, -105.02864778]}, "address": "3190 West 14th Avenue"}]}, {"__class__": "tuple", "__value__": [{"city": "Minnetonka", "zip": "55343", "community": "10745 Smetana Rd Apartments", "state": "MN", "geocode": {"__class__": "tuple", "__value__": [44.9056633562, -93.4166052192]}, "address": "10745 Smetana Road"}, {"city": "Minnetonka", "zip": "55343", "community": "Claremont Apartments", "state": "MN", "geocode": {"__class__": "tuple", "__value__": [44.9056633562, -93.4166052192]}, "address": "10745 Smetana Road"}]}, {"__class__": "tuple", "__value__": [{"city": "Breckenridge", "zip": "80424", "community": "Pinewood Village Apartments", "state": "CO", "geocode": {"__class__": "tuple", "__value__": [39.5016143471, -106.051419675]}, "address": "1360 Airport Road"}, {"city": "Breckenridge", "zip": "80424", "community": "Breckenridge Terrace Apartments", "state": "CO", "geocode": {"__class__": "tuple", "__value__": [39.5016143471, -106.051419675]}, "address": "1360 Airport Road"}]}, {"__class__": "tuple", "__value__": [{"city": "Denver", "zip": "80206", "community": "Marco Polo Apartments", "state": "CO", "geocode": {"__class__": "tuple", "__value__": [39.7380104065, -104.953109741]}, "address": "1373 Fillmore Street"}, {"city": "Denver", "zip": "80206", "community": "1373 Fillmore Apartments", "state": "CO", "geocode": {"__class__": "tuple", "__value__": [39.73801, -104.953109]}, "address": "1373 Fillmore Street"}]}, {"__class__": "tuple", "__value__": [{"city": "Saint Paul", "zip": "55117", "community": "McCarrons Village Apartments", "state": "MN", "geocode": {"__class__": "tuple", "__value__": [44.9909591675, -93.1039505005]}, "address": "99 California Avenue #103"}, {"city": "Saint Paul", "zip": "55117", "community": "McCarrons Village Apartments", "state": "MN", "geocode": {"__class__": "tuple", "__value__": [44.9909591675, -93.1039505005]}, "address": "99 West California Avenue"}]}, {"__class__": "tuple", "__value__": [{"city": "Vienna", "zip": "22180", "community": "Merrifield Village Apartments", "state": "VA", "geocode": {"__class__": "tuple", "__value__": [38.8787370175, -77.225336507]}, "address": "8130 Prescott Drive"}, {"city": "Vienna", "zip": "22180", "community": "Merrifield at Dunn Loring Station", "state": "VA", "geocode": {"__class__": "tuple", "__value__": [38.8787370175, -77.225336507]}, "address": "8130 Prescott Drive"}]}, {"__class__": "tuple", "__value__": [{"city": "Indianapolis", "zip": "46254", "community": "Sunrise Clubhouse Apartments", "state": "IN", "geocode": {"__class__": "tuple", "__value__": [39.8369522095, -86.2366638184]}, "address": "4514 Candletree Circle"}, {"city": "Indianapolis", "zip": "46254", "community": "LaJoya", "state": "IN", "geocode": {"__class__": "tuple", "__value__": [39.8378238827, -86.2367849797]}, "address": "4515 Candletree Circle"}]}, {"__class__": "tuple", "__value__": [{"city": "Irving", "zip": "75038", "community": "Estelle Creek North", "state": "TX", "geocode": {"__class__": "tuple", "__value__": [32.8667411804, -97.013458252]}, "address": "4023-4031 Block Drive"}, {"city": "Irving", "zip": "75038", "community": "Estelle Creek North", "state": "TX", "geocode": {"__class__": "tuple", "__value__": [32.8634595126, -97.0139075071]}, "address": "4023 Block Drive"}]}, {"__class__": "tuple", "__value__": [{"city": "Hopkins", "zip": "55305", "community": "Brentwood Park Townhomes and Apartments", "state": "MN", "geocode": {"__class__": "tuple", "__value__": [44.9340591431, -93.4172439575]}, "address": "1301 Highway 7"}, {"city": "Hopkins", "zip": "55305", "community": "Brentwood Park Apartments & Townhomes", "state": "MN", "geocode": {"__class__": "tuple", "__value__": [44.9340591431, -93.4172439575]}, "address": "1301 Highway 7"}]}, {"__class__": "tuple", "__value__": [{"city": "Lewisville", "zip": "75067", "community": "Chapel Hill", "state": "TX", "geocode": {"__class__": "tuple", "__value__": [33.001625061, -96.9848709106]}, "address": "300 East Round Grove Road"}, {"city": "Lewisville", "zip": "75067", "community": "Oaks 5th Street Crossing at City Center", "state": "TX", "geocode": {"__class__": "tuple", "__value__": [33.001625061, -96.9848709106]}, "address": "300 East Round Grove Road"}]}, {"__class__": "tuple", "__value__": [{"city": "Dallas", "zip": "75201", "community": "Alexan, The", "state": "TX", "geocode": {"__class__": "tuple", "__value__": [32.7972831726, -96.8143615723]}, "address": "3333 Harry Hines Boulevard"}, {"city": "Dallas", "zip": "75201", "community": "The Alexan Apartments", "state": "TX", "geocode": {"__class__": "tuple", "__value__": [32.7972831726, -96.8143615723]}, "address": "3333 Harry Hines Boulevard"}]}, {"__class__": "tuple", "__value__": [{"city": "Indianapolis", "zip": "46219", "community": "6251 Nimitz Dr", "state": "IN", "geocode": {"__class__": "tuple", "__value__": [39.7998657227, -86.0564193726]}, "address": "6251 Nimitz Drive"}, {"city": "Indianapolis", "zip": "46219", "community": "6251 E NIMITZ DR", "state": "IN", "geocode": {"__class__": "tuple", "__value__": [39.799865, -86.056419]}, "address": "6251 East NIMITZ Drive"}]}, {"__class__": "tuple", "__value__": [{"city": "Denver", "zip": "80220", "community": "Advenir at Stapleton", "state": "CO", "geocode": {"__class__": "tuple", "__value__": [39.747403264, -104.895269573]}, "address": "8008 Montview Boulevard"}, {"city": "Denver", "zip": "80220", "community": "Advenir", "state": "CO", "geocode": {"__class__": "tuple", "__value__": [39.7465456277, -104.896316305]}, "address": "1950 Trenton Street"}]}, {"__class__": "tuple", "__value__": [{"city": "Denver", "zip": "80239", "community": "The Villages at Gateway", "state": "CO", "geocode": {"__class__": "tuple", "__value__": [39.7825301439, -104.845293313]}, "address": "12175 Albrook Drive"}, {"city": "Denver", "zip": "80239", "community": "The Villages At Gateway", "state": "CO", "geocode": {"__class__": "tuple", "__value__": [39.783523, -104.845352]}, "address": "4754 Peoria Street"}]}, {"__class__": "tuple", "__value__": [{"city": "Indianapolis", "zip": "46202", "community": "Nine on Canal", "state": "IN", "geocode": {"__class__": "tuple", "__value__": [39.7791404724, -86.1643676758]}, "address": "335 West 9th Street"}, {"city": "Indianapolis", "zip": "46202", "community": "9 On Canal Apartments", "state": "IN", "geocode": {"__class__": "tuple", "__value__": [39.7791404724, -86.1643676758]}, "address": "335 West 9th Street"}]}, {"__class__": "tuple", "__value__": [{"city": "Missouri City", "zip": "77489", "community": "Springfield Apartments", "state": "TX", "geocode": {"__class__": "tuple", "__value__": [29.6181602478, -95.5336837769]}, "address": "1511 5th Street"}, {"city": "Missouri City", "zip": "77489", "community": "The Moorings Apartments", "state": "TX", "geocode": {"__class__": "tuple", "__value__": [29.61816, -95.533683]}, "address": "1511 5th Street"}]}, {"__class__": "tuple", "__value__": [{"city": "Westminster", "zip": "80021", "community": "Westcliff", "state": "CO", "geocode": {"__class__": "tuple", "__value__": [39.8741067946, -105.065394714]}, "address": "9820 Westcliff Parkway"}, {"city": "Westminster", "zip": "80021", "community": "AMLI at Westcliff", "state": "CO", "geocode": {"__class__": "tuple", "__value__": [39.8741067946, -105.065394714]}, "address": "9820 Westcliff Parkway"}]}, {"__class__": "tuple", "__value__": [{"city": "Richmond", "zip": "77469", "community": "River Park West", "state": "TX", "geocode": {"__class__": "tuple", "__value__": [29.5584754944, -95.7183532715]}, "address": "22155 Wildwood Park Road"}, {"city": "Richmond", "zip": "77469", "community": "The Reserve at River Park West", "state": "TX", "geocode": {"__class__": "tuple", "__value__": [29.5584754944, -95.7183532715]}, "address": "22155 Wildwood Park Road"}]}, {"__class__": "tuple", "__value__": [{"city": "McKinney", "zip": "75070", "community": "El Lago", "state": "TX", "geocode": {"__class__": "tuple", "__value__": [33.1658935547, -96.6463699341]}, "address": "3400 Craig Drive"}, {"city": "McKinney", "zip": "75070", "community": "Breckinridge Point Apartment", "state": "TX", "geocode": {"__class__": "tuple", "__value__": [33.1658935547, -96.6463699341]}, "address": "3400 Craig Drive"}]}, {"__class__": "tuple", "__value__": [{"city": "Woodbridge", "zip": "22192", "community": "Emeritus at Lake Ridge Senior Apartments", "state": "VA", "geocode": {"__class__": "tuple", "__value__": [38.6654815674, -77.3291931152]}, "address": "3940 Prince William Parkway"}, {"city": "Woodbridge", "zip": "22192", "community": "Summerville at Prince William Senior Apartments", "state": "VA", "geocode": {"__class__": "tuple", "__value__": [38.6654815674, -77.3291931152]}, "address": "3940 Prince William Parkway"}]}, {"__class__": "tuple", "__value__": [{"city": "Indianapolis", "zip": "46250", "community": "Core Riverbend Apartments", "state": "IN", "geocode": {"__class__": "tuple", "__value__": [39.9158412963, -86.0805476457]}, "address": "8850 River Bend Parkway"}, {"city": "Indianapolis", "zip": "46250", "community": "Riverbend", "state": "IN", "geocode": {"__class__": "tuple", "__value__": [39.9158412963, -86.0805476457]}, "address": "8850 Riverbend Parkway"}]}, {"__class__": "tuple", "__value__": [{"city": "Ashburn", "zip": "20147", "community": "Ashborough Apartments", "state": "VA", "geocode": {"__class__": "tuple", "__value__": [39.058149308, -77.4681280553]}, "address": "20155 San Joaquin Terrace"}, {"city": "Ashburn", "zip": "20147", "community": "The Ashborough", "state": "VA", "geocode": {"__class__": "tuple", "__value__": [39.058149308, -77.4681280553]}, "address": "20155 San Joaquin Terrace"}]}, {"__class__": "tuple", "__value__": [{"city": "Inver Grove Heights", "zip": "55077", "community": "Lake Cove Village", "state": "MN", "geocode": {"__class__": "tuple", "__value__": [44.8693695068, -93.0682525635]}, "address": "5335-5365 Audobon Avenue"}, {"city": "Inver Grove Heights", "zip": "55077", "community": "Lake Cove Village", "state": "MN", "geocode": {"__class__": "tuple", "__value__": [44.8705069721, -93.0688494444]}, "address": "5359 Audobon Avenue"}]}, {"__class__": "tuple", "__value__": [{"city": "Washington", "zip": "20011", "community": "Park Place Apartments", "state": "DC", "geocode": {"__class__": "tuple", "__value__": [38.9374885559, -77.0247573853]}, "address": "850 Quincy Street North West"}, {"city": "Washington", "zip": "20011", "community": "Park Place at Petworth Metro", "state": "DC", "geocode": {"__class__": "tuple", "__value__": [38.9374885559, -77.0247573853]}, "address": "850 Quincy Street North West"}]}, {"__class__": "tuple", "__value__": [{"city": "Golden Valley", "zip": "55422", "community": "West End Apartments", "state": "MN", "geocode": {"__class__": "tuple", "__value__": [44.9799759686, -93.3521832526]}, "address": "241 Yosemite Circle North"}, {"city": "Golden Valley", "zip": "55422", "community": "West End Apartments", "state": "MN", "geocode": {"__class__": "tuple", "__value__": [44.9800682068, -93.3514785767]}, "address": "241-243 Yosemite Circle"}]}, {"__class__": "tuple", "__value__": [{"city": "Houston", "zip": "77057", "community": "Tuscany Apartments", "state": "TX", "geocode": {"__class__": "tuple", "__value__": [29.7548828125, -95.4805450439]}, "address": "1100 Bering Drive"}, {"city": "Houston", "zip": "77057", "community": "Tuscany Villas", "state": "TX", "geocode": {"__class__": "tuple", "__value__": [29.7548828125, -95.4805450439]}, "address": "1100 Bering Drive"}]}, {"__class__": "tuple", "__value__": [{"city": "Fairfax", "zip": "22031", "community": "Amberleigh The Apartments", "state": "VA", "geocode": {"__class__": "tuple", "__value__": [38.8619155884, -77.229850769]}, "address": "8301 Anderson Drive"}, {"city": "Fairfax", "zip": "22031", "community": "The Amberleigh", "state": "VA", "geocode": {"__class__": "tuple", "__value__": [38.8619155884, -77.229850769]}, "address": "8301 Anderson Drive"}]}, {"__class__": "tuple", "__value__": [{"city": "Alexandria", "zip": "20874", "community": "Rose Hill of Alexandria Apartments", "state": "VA", "geocode": {"__class__": "tuple", "__value__": [38.7826118469, -77.1199493408]}, "address": "6201 Rose Hill Falls Way"}, {"city": "Alexandria", "zip": "22310", "community": "Rose Hill Of Alexandria", "state": "VA", "geocode": {"__class__": "tuple", "__value__": [38.7826118469, -77.1199493408]}, "address": "6201 Rose Hill Falls Way"}]}, {"__class__": "tuple", "__value__": [{"city": "Saint Louis Park", "zip": "55426", "community": "Aquila Park Apartments", "state": "MN", "geocode": {"__class__": "tuple", "__value__": [44.9488830566, -93.3840560913]}, "address": "8224 West 30 1/2 Street"}, {"city": "Saint Louis Park", "zip": "55426", "community": "Royal Park", "state": "MN", "geocode": {"__class__": "tuple", "__value__": [44.9488830566, -93.3840560913]}, "address": "8224 West 30 1/2 Street"}]}, {"__class__": "tuple", "__value__": [{"city": "Arlington", "zip": "22209", "community": "Park Georgetown", "state": "VA", "geocode": {"__class__": "tuple", "__value__": [38.899559021, -77.0779266357]}, "address": "2100 North Pierce Street"}, {"city": "Arlington", "zip": "22209", "community": "Van Metre Park Georgetown", "state": "VA", "geocode": {"__class__": "tuple", "__value__": [38.899559021, -77.0779266357]}, "address": "2100 North Pierce Street"}]}, {"__class__": "tuple", "__value__": [{"city": "Spring", "zip": "77379", "community": "Falcon Ridge - Spring", "state": "TX", "geocode": {"__class__": "tuple", "__value__": [30.0277633667, -95.4809494019]}, "address": "4603 Cypresswood Drive"}, {"city": "Spring", "zip": "77379", "community": "Falcon Ridge Apartments", "state": "TX", "geocode": {"__class__": "tuple", "__value__": [30.0277633667, -95.4809494019]}, "address": "4603 Cypresswood Drive"}]}, {"__class__": "tuple", "__value__": [{"city": "Houston", "zip": "77042", "community": "Monte Carlo Apartments", "state": "TX", "geocode": {"__class__": "tuple", "__value__": [29.748603, -95.568527]}, "address": "10950 Briar Forest Drive"}, {"city": "Houston", "zip": "77042", "community": "Monte Carlo At Briar Forest", "state": "TX", "geocode": {"__class__": "tuple", "__value__": [29.7486038208, -95.5685272217]}, "address": "10950 Briar Forest Drive"}]}, {"__class__": "tuple", "__value__": [{"city": "Alexandria", "zip": "22314", "community": "1111 Belle Pre Apartments", "state": "VA", "geocode": {"__class__": "tuple", "__value__": [38.8142272085, -77.0497852564]}, "address": "1111 Belle Pre Way"}, {"city": "Alexandria", "zip": "22314", "community": "1111 Belle Pre", "state": "VA", "geocode": {"__class__": "tuple", "__value__": [38.8142272085, -77.0497852564]}, "address": "1111 North Belle Pre Way"}]}, {"__class__": "tuple", "__value__": [{"city": "Woodbury", "zip": "55125", "community": "The Barrington", "state": "MN", "geocode": {"__class__": "tuple", "__value__": [44.9302597046, -92.9615783691]}, "address": "7255-7255 Guider Drive"}, {"city": "Woodbury", "zip": "55125", "community": "The Barrington", "state": "MN", "geocode": {"__class__": "tuple", "__value__": [44.9303262681, -92.959926948]}, "address": "7255 Guider Drive"}]}, {"__class__": "tuple", "__value__": [{"city": "Westminster", "zip": "80234", "community": "Ironwood at the Ranch", "state": "CO", "geocode": {"__class__": "tuple", "__value__": [39.91035752, -105.022433773]}, "address": "11705 Decatur Street"}, {"city": "Westminster", "zip": "80234", "community": "Ironwood Apartments at the Ranch", "state": "CO", "geocode": {"__class__": "tuple", "__value__": [39.91035752, -105.022433773]}, "address": "11705 Decatur Street"}]}, {"__class__": "tuple", "__value__": [{"city": "Dallas", "zip": "75238", "community": "Villas at La Risa Apartments", "state": "TX", "geocode": {"__class__": "tuple", "__value__": [32.8706588745, -96.6842803955]}, "address": "12825 Jupiter Road"}, {"city": "Dallas", "zip": "75238", "community": "The Villas at La Risa", "state": "TX", "geocode": {"__class__": "tuple", "__value__": [32.870658, -96.68428]}, "address": "12825 Jupiter Road"}]}, {"__class__": "tuple", "__value__": [{"city": "Oxon Hill", "zip": "20745", "community": "155 POTOMAC PASSAGE PH07", "state": "MD", "geocode": {"__class__": "tuple", "__value__": [38.7847137451, -77.0153427124]}, "address": "155 POTOMAC PASSAGE PH07"}, {"city": "Oxon Hill", "zip": "20745", "community": "155 POTOMAC PASSAGE 408", "state": "MD", "geocode": {"__class__": "tuple", "__value__": [38.7847137451, -77.0153427124]}, "address": "155 POTOMAC PASSAGE 408"}]}, {"__class__": "tuple", "__value__": [{"city": "Aurora", "zip": "80012", "community": "The Grove At City Center", "state": "CO", "geocode": {"__class__": "tuple", "__value__": [39.6973190308, -104.82144928]}, "address": "14304 East Tennessee Avenue"}, {"city": "Aurora", "zip": "80012", "community": "The Grove at City Center", "state": "CO", "geocode": {"__class__": "tuple", "__value__": [39.698341, -104.822883]}, "address": "14192-14304 East Tennessee Avenue"}]}, {"__class__": "tuple", "__value__": [{"city": "Minneapolis", "zip": "55414", "community": "The Moose Lodge Apartments", "state": "MN", "geocode": {"__class__": "tuple", "__value__": [44.9850234985, -93.2333450317]}, "address": "1309 8th Street South East"}, {"city": "Minneapolis", "zip": "55414", "community": "The Wolf Lodge Apartments", "state": "MN", "geocode": {"__class__": "tuple", "__value__": [44.9848556519, -93.2329330444]}, "address": "1323 8th Street South East"}]}, {"__class__": "tuple", "__value__": [{"city": "Denver", "zip": "80203", "community": "Olin Hotel Apartments The", "state": "CO", "geocode": {"__class__": "tuple", "__value__": [39.7390861511, -104.981956482]}, "address": "1420 Logan Street"}, {"city": "Denver", "zip": "80203", "community": "The Olin Hotel Apartments", "state": "CO", "geocode": {"__class__": "tuple", "__value__": [39.7390861511, -104.981956482]}, "address": "1420 Logan Street"}]}, {"__class__": "tuple", "__value__": [{"city": "Bethesda", "zip": "20814", "community": "Pooks Hill Apartments", "state": "MD", "geocode": {"__class__": "tuple", "__value__": [39.0144360065, -77.1051695198]}, "address": "3 Pooks Hill Road"}, {"city": "Bethesda", "zip": "20814", "community": "Pooks Hill Tower", "state": "MD", "geocode": {"__class__": "tuple", "__value__": [39.0144360065, -77.1051695198]}, "address": "3 Pooks Hill Road"}]}, {"__class__": "tuple", "__value__": [{"city": "Katy", "zip": "77449", "community": "The Remington Katy Apartments", "state": "TX", "geocode": {"__class__": "tuple", "__value__": [29.7936496735, -95.7680206299]}, "address": "22631 Colonial Parkway"}, {"city": "Katy", "zip": "77449", "community": "The Remington Apartments - Katy", "state": "TX", "geocode": {"__class__": "tuple", "__value__": [29.7936496735, -95.7680206299]}, "address": "22631 Colonial Parkway"}]}, {"__class__": "tuple", "__value__": [{"city": "North Bethesda", "zip": "21113", "community": "Aurora Apartments", "state": "MD", "geocode": {"__class__": "tuple", "__value__": [39.048840031, -77.1092404425]}, "address": "5401 McGrath Boulevard"}, {"city": "North Bethesda", "zip": "20852", "community": "Aurora Apartments At North Bethesda Center", "state": "MD", "geocode": {"__class__": "tuple", "__value__": [39.048840031, -77.1092404425]}, "address": "5401 McGrath Boulevard"}]}, {"__class__": "tuple", "__value__": [{"city": "Indianapolis", "zip": "46221", "community": "Canterbury House Apartments", "state": "IN", "geocode": {"__class__": "tuple", "__value__": [39.6691360474, -86.251373291]}, "address": "6505 Tanner Drive"}, {"city": "Indianapolis", "zip": "46221", "community": "Canterbury House Apt. - Mann Road", "state": "IN", "geocode": {"__class__": "tuple", "__value__": [39.6691360474, -86.251373291]}, "address": "6505 Tanner Drive"}]}, {"__class__": "tuple", "__value__": [{"city": "Atlanta", "zip": "30306", "community": "M Apartments", "state": "GA", "geocode": {"__class__": "tuple", "__value__": [33.7931480408, -84.3444519043]}, "address": "1295 East Rock Springs Road North East"}, {"city": "Atlanta", "zip": "30306", "community": "The M Apartments", "state": "GA", "geocode": {"__class__": "tuple", "__value__": [33.7931480408, -84.3444519043]}, "address": "1295 East Rock Springs Road"}]}, {"__class__": "tuple", "__value__": [{"city": "Manassas", "zip": "20109", "community": "Emeritus at Manassas Senior Apartments", "state": "VA", "geocode": {"__class__": "tuple", "__value__": [38.7786331177, -77.4951095581]}, "address": "8341 Barrett Drive"}, {"city": "Manassas", "zip": "20109", "community": "Emeritus Senior Apartments", "state": "VA", "geocode": {"__class__": "tuple", "__value__": [38.7786331177, -77.4951095581]}, "address": "8341 Barrett Drive"}]}, {"__class__": "tuple", "__value__": [{"city": "Denver", "zip": "80219", "community": "Berkshire Square Apartments", "state": "CO", "geocode": {"__class__": "tuple", "__value__": [39.6792221069, -105.018547058]}, "address": "2617 West Evans Avenue"}, {"city": "Denver", "zip": "80219", "community": "Berkshire Square Apartments", "state": "CO", "geocode": {"__class__": "tuple", "__value__": [39.6792221069, -105.018547058]}, "address": "2617 Evans Avenue"}]}, {"__class__": "tuple", "__value__": [{"city": "Denver", "zip": "80211", "community": "2785 Speer", "state": "CO", "geocode": {"__class__": "tuple", "__value__": [39.7565612793, -105.018028259]}, "address": "2785 North Speer Boulevard"}, {"city": "Denver", "zip": "80211", "community": "2785 Speer", "state": "CO", "geocode": {"__class__": "tuple", "__value__": [39.7565612793, -105.018028259]}, "address": "2785 Speer Boulevard"}]}, {"__class__": "tuple", "__value__": [{"city": "Arlington", "zip": "22203", "community": "224 ABINGDON STREET NORTH", "state": "VA", "geocode": {"__class__": "tuple", "__value__": [38.8710327148, -77.1140213013]}, "address": "224 ABINGDON STREET NORTH"}, {"city": "Arlington", "zip": "22203", "community": "205 TRENTON STREET 205-3", "state": "VA", "geocode": {"__class__": "tuple", "__value__": [38.871257782, -77.1058883667]}, "address": "205 TRENTON STREET 205-3"}]}, {"__class__": "tuple", "__value__": [{"city": "Hyattsville", "zip": "20784", "community": "Fountain Club", "state": "MD", "geocode": {"__class__": "tuple", "__value__": [38.9581686258, -76.8795749545]}, "address": "7604 Fontainebleau Drive"}, {"city": "New Carrollton", "zip": "20784", "community": "The Fountain Club", "state": "MD", "geocode": {"__class__": "tuple", "__value__": [38.9581686258, -76.8795749545]}, "address": "7604 Fontainebleau Drive"}]}, {"__class__": "tuple", "__value__": [{"city": "Arvada", "zip": "80002", "community": "52nd Marketplace", "state": "CO", "geocode": {"__class__": "tuple", "__value__": [39.792331, -105.084503]}, "address": "7791-7797 West 52nd Avenue"}, {"city": "Arvada", "zip": "80002", "community": "52nd Marketplace", "state": "CO", "geocode": {"__class__": "tuple", "__value__": [39.7912050784, -105.08376047]}, "address": "7797 West 52nd Avenue"}]}, {"__class__": "tuple", "__value__": [{"city": "Fishers", "zip": "46038", "community": "The Flats At Fishers Marketplace", "state": "IN", "geocode": {"__class__": "tuple", "__value__": [39.9047012329, -85.9962692261]}, "address": "9588 Ambleside Drive"}, {"city": "Fishers", "zip": "46038", "community": "Flats at Fishers Marketplace, The", "state": "IN", "geocode": {"__class__": "tuple", "__value__": [39.9047012329, -85.9962692261]}, "address": "9588 Ambleside Drive"}]}, {"__class__": "tuple", "__value__": [{"city": "Aurora", "zip": "80013", "community": "Aspenridge", "state": "CO", "geocode": {"__class__": "tuple", "__value__": [39.6802024841, -104.768814087]}, "address": "18851 East Baltic Place"}, {"city": "Aurora", "zip": "80013", "community": "Aspenridge", "state": "CO", "geocode": {"__class__": "tuple", "__value__": [39.6802024841, -104.768814087]}, "address": "18851 Baltic Place"}]}, {"__class__": "tuple", "__value__": [{"city": "Spring", "zip": "77373", "community": "The Park At Northgate", "state": "TX", "geocode": {"__class__": "tuple", "__value__": [30.1066112518, -95.4290542603]}, "address": "26325 Northgate Crossing Boulevard"}, {"city": "Spring", "zip": "77373", "community": "Park at Northgate", "state": "TX", "geocode": {"__class__": "tuple", "__value__": [30.106611, -95.429054]}, "address": "26325 Northgate Crossing Boulevard"}]}, {"__class__": "tuple", "__value__": [{"city": "Arlington", "zip": "20852", "community": "2201 Pershing Apartments", "state": "VA", "geocode": {"__class__": "tuple", "__value__": [38.8807620853, -77.0856336504]}, "address": "2209 Pershing Drive"}, {"city": "Arlington", "zip": "22201", "community": "2201 Pershing", "state": "VA", "geocode": {"__class__": "tuple", "__value__": [38.8807620853, -77.0856336504]}, "address": "2209 Pershing Drive"}]}, {"__class__": "tuple", "__value__": [{"city": "Minneapolis", "zip": "55411", "community": "1038 16th Ave Apartments", "state": "MN", "geocode": {"__class__": "tuple", "__value__": [44.9952692538, -93.2932222635]}, "address": "1038 16th Avenue"}, {"city": "Minneapolis", "zip": "55411", "community": "1046 16th Ave Apartments", "state": "MN", "geocode": {"__class__": "tuple", "__value__": [44.9952699244, -93.2933147997]}, "address": "1046 16th Avenue"}]}, {"__class__": "tuple", "__value__": [{"city": "Baytown", "zip": "77521", "community": "Stone Brook", "state": "TX", "geocode": {"__class__": "tuple", "__value__": [29.7594165802, -94.9705047607]}, "address": "619 Rollingbrook Street"}, {"city": "Baytown", "zip": "77521", "community": "Stone Brook", "state": "TX", "geocode": {"__class__": "tuple", "__value__": [29.7594165802, -94.9705047607]}, "address": "619 Rollingbrook Drive"}]}, {"__class__": "tuple", "__value__": [{"city": "Alexandria", "zip": "20747", "community": "1111 Belle Pre Apartments", "state": "VA", "geocode": {"__class__": "tuple", "__value__": [38.8142272085, -77.0497852564]}, "address": "1111 Belle Pre Way"}, {"city": "Alexandria", "zip": "22314", "community": "1111 Belle Pre", "state": "VA", "geocode": {"__class__": "tuple", "__value__": [38.8142272085, -77.0497852564]}, "address": "1111 Belle Pre Way"}]}, {"__class__": "tuple", "__value__": [{"city": "Washington", "zip": "20004", "community": "Lexington at Market Square Apartments", "state": "DC", "geocode": {"__class__": "tuple", "__value__": [38.8949368894, -77.0230087638]}, "address": "400 8th Street North West"}, {"city": "Washington", "zip": "20004", "community": "The Lexington at Market Square", "state": "DC", "geocode": {"__class__": "tuple", "__value__": [38.8949368894, -77.0230087638]}, "address": "400 8th Street North West"}]}, {"__class__": "tuple", "__value__": [{"city": "Aurora", "zip": "80016", "community": "Orchards at Cherry Creek The", "state": "CO", "geocode": {"__class__": "tuple", "__value__": [39.6081886292, -104.811187744]}, "address": "6000 South Fraser Street"}, {"city": "Aurora", "zip": "80016", "community": "The Orchards at Cherry Creek Park", "state": "CO", "geocode": {"__class__": "tuple", "__value__": [39.6081886292, -104.811187744]}, "address": "6000 South Fraser Street"}]}, {"__class__": "tuple", "__value__": [{"city": "Aurora", "zip": "80016", "community": "Watermark at Southlands", "state": "CO", "geocode": {"__class__": "tuple", "__value__": [39.6036093682, -104.70102936]}, "address": "24631 East Applewood Circle"}, {"city": "Aurora", "zip": "80016", "community": "Watermark at Southlands", "state": "CO", "geocode": {"__class__": "tuple", "__value__": [39.6036093682, -104.70102936]}, "address": "24631 East Applewood Drive"}]}, {"__class__": "tuple", "__value__": [{"city": "Fairfax", "zip": "22031", "community": "Furnished Studio - Washington, DC - Falls Church -", "state": "VA", "geocode": {"__class__": "tuple", "__value__": [38.8600654602, -77.2592773438]}, "address": "8281 Willow Oaks Corp Drive"}, {"city": "Fairfax", "zip": "21044", "community": "Furnished Studio - Washington, DC - Falls Church -", "state": "VA", "geocode": {"__class__": "tuple", "__value__": [38.8417892456, -77.3088684082]}, "address": "8281 Willow Oaks Corp Drive"}]}, {"__class__": "tuple", "__value__": [{"city": "Littleton", "zip": "80123", "community": "Pines At Marston Lake", "state": "CO", "geocode": {"__class__": "tuple", "__value__": [39.629919827, -105.087385476]}, "address": "4801 South Wadsworth Boulevard"}, {"city": "Denver", "zip": "80123", "community": "The Pines at Marston Lake", "state": "CO", "geocode": {"__class__": "tuple", "__value__": [39.629919827, -105.087385476]}, "address": "4801 South Wadsworth Boulevard"}]}, {"__class__": "tuple", "__value__": [{"city": "Eden Prairie", "zip": "55344", "community": "The Park at City West Apartments", "state": "MN", "geocode": {"__class__": "tuple", "__value__": [44.888119027, -93.4150777012]}, "address": "6426 City West Parkway"}, {"city": "Eden Prairie", "zip": "55344", "community": "Park At City West", "state": "MN", "geocode": {"__class__": "tuple", "__value__": [44.888119027, -93.4150777012]}, "address": "6426 City West Parkway"}]}, {"__class__": "tuple", "__value__": [{"city": "Spring Lake Park", "zip": "55432", "community": "Northtown Village Apartments", "state": "MN", "geocode": {"__class__": "tuple", "__value__": [45.1113827527, -93.2634980232]}, "address": "7899 University Avenue North East"}, {"city": "Spring Lake Park", "zip": "55432", "community": "Northtown Village Apartments in Spring Lake P", "state": "MN", "geocode": {"__class__": "tuple", "__value__": [45.110496, -93.262176]}, "address": "7779-7899 University Avenue North East"}]}, {"__class__": "tuple", "__value__": [{"city": "Denver", "zip": "80216", "community": "Park Hill 4000", "state": "CO", "geocode": {"__class__": "tuple", "__value__": [39.7867012024, -104.955421448]}, "address": "4000 North Albion Street"}, {"city": "Denver", "zip": "80207", "community": "Park Hill 4000", "state": "CO", "geocode": {"__class__": "tuple", "__value__": [39.7492294312, -104.939453125]}, "address": "4000 Albion Street"}]}, {"__class__": "tuple", "__value__": [{"city": "Highlands Ranch", "zip": "80129", "community": "Creekside at Highlands Ranch", "state": "CO", "geocode": {"__class__": "tuple", "__value__": [39.5437393188, -104.946342468]}, "address": "8857 Creekside Way"}, {"city": "Littleton", "zip": "80129", "community": "Creekside at Highlands Ranch", "state": "CO", "geocode": {"__class__": "tuple", "__value__": [39.5521183312, -105.015366152]}, "address": "8857 Creekside Way"}]}, {"__class__": "tuple", "__value__": [{"city": "Katy", "zip": "77494", "community": "Verona at the Reserve", "state": "TX", "geocode": {"__class__": "tuple", "__value__": [29.7450275421, -95.8225631714]}, "address": "700 Verona Drive"}, {"city": "Katy", "zip": "77494", "community": "Verona at the Reserve", "state": "TX", "geocode": {"__class__": "tuple", "__value__": [29.7695350647, -95.7833709717]}, "address": "700 Cobia Drive"}]}, {"__class__": "tuple", "__value__": [{"city": "Burnsville", "zip": "55337", "community": "The Summit Townhomes", "state": "MN", "geocode": {"__class__": "tuple", "__value__": [44.7495574951, -93.300163269]}, "address": "1500 McAndrews Road West"}, {"city": "Burnsville", "zip": "55337", "community": "Summit Townhomes", "state": "MN", "geocode": {"__class__": "tuple", "__value__": [44.749557, -93.300163]}, "address": "1500 McAndrews Road West"}]}, {"__class__": "tuple", "__value__": [{"city": "Falls Church", "zip": "22046", "community": "Broad Falls Apartments", "state": "VA", "geocode": {"__class__": "tuple", "__value__": [38.887966156, -77.1815338135]}, "address": "809 West Broad Street"}, {"city": "Falls Church", "zip": "22046", "community": "Broadfalls", "state": "VA", "geocode": {"__class__": "tuple", "__value__": [38.887966156, -77.1815338135]}, "address": "809 West Broad Street"}]}, {"__class__": "tuple", "__value__": [{"city": "Rockville", "zip": "20850", "community": "The Residences At King Farm", "state": "MD", "geocode": {"__class__": "tuple", "__value__": [39.1171357781, -77.16931656]}, "address": "105 King Farm Boulevard F101"}, {"city": "Rockville", "zip": "20850", "community": "Residences at King Farm", "state": "MD", "geocode": {"__class__": "tuple", "__value__": [39.1171357781, -77.16931656]}, "address": "105 King Farm Boulevard"}]}, {"__class__": "tuple", "__value__": [{"city": "Broomfield", "zip": "80020", "community": "The Marquis at Town Centre", "state": "CO", "geocode": {"__class__": "tuple", "__value__": [39.9165840149, -105.060020447]}, "address": "1001 East First Avenue"}, {"city": "Broomfield", "zip": "80020", "community": "The Marquis at Town Centre", "state": "CO", "geocode": {"__class__": "tuple", "__value__": [39.9165840149, -105.060020447]}, "address": "1001 East 1st Avenue"}]}, {"__class__": "tuple", "__value__": [{"city": "White Bear Lake", "zip": "55110", "community": "Boatworks Commons", "state": "MN", "geocode": {"__class__": "tuple", "__value__": [45.0766639709, -93.0169754028]}, "address": "4495 Lake Avenue South"}, {"city": "St Paul", "zip": "55110", "community": "The Boatworks Commons", "state": "MN", "geocode": {"__class__": "tuple", "__value__": [45.0766639709, -93.0169754028]}, "address": "4495 Lake Avenue South"}]}, {"__class__": "tuple", "__value__": [{"city": "Houston", "zip": "77008", "community": "The Heights at 2121 Apartments", "state": "TX", "geocode": {"__class__": "tuple", "__value__": [29.7983474731, -95.4365386963]}, "address": "2100 Tannehill Drive"}, {"city": "Houston", "zip": "77008", "community": "Heights at 2121", "state": "TX", "geocode": {"__class__": "tuple", "__value__": [29.7983474731, -95.4365386963]}, "address": "2100 Tannehill Drive"}]}, {"__class__": "tuple", "__value__": [{"city": "Houston", "zip": "77057", "community": "Tuscany Row", "state": "TX", "geocode": {"__class__": "tuple", "__value__": [29.7467079163, -95.481880188]}, "address": "1901 Augusta Drive"}, {"city": "Houston", "zip": "77057", "community": "Tuscany Court", "state": "TX", "geocode": {"__class__": "tuple", "__value__": [29.7467079163, -95.481880188]}, "address": "1901 Augusta Drive"}]}, {"__class__": "tuple", "__value__": [{"city": "Norcross", "zip": "30093", "community": "Las Palmas", "state": "GA", "geocode": {"__class__": "tuple", "__value__": [33.9015709609, -84.2300299555]}, "address": "1023 Seasons Parkway"}, {"city": "Norcross", "zip": "30093", "community": "Las Palmas", "state": "GA", "geocode": {"__class__": "tuple", "__value__": [33.9022710174, -84.2302170396]}, "address": "112 Seasons Parkway"}]}, {"__class__": "tuple", "__value__": [{"city": "Duluth", "zip": "30096", "community": "Marquis on Berkeley", "state": "GA", "geocode": {"__class__": "tuple", "__value__": [33.9680023193, -84.1512527466]}, "address": "2580 North Berkeley Lake Road"}, {"city": "Duluth", "zip": "30096", "community": "The Marquis on Berkeley", "state": "GA", "geocode": {"__class__": "tuple", "__value__": [33.9680023193, -84.1512527466]}, "address": "2580 North Berkeley Lake Road"}]}, {"__class__": "tuple", "__value__": [{"city": "Denver", "zip": "80239", "community": "The Villages at Gateway", "state": "CO", "geocode": {"__class__": "tuple", "__value__": [39.7825301439, -104.845293313]}, "address": "12175 Albrook Drive"}, {"city": "Denver", "zip": "80239", "community": "Villages at Gateway", "state": "CO", "geocode": {"__class__": "tuple", "__value__": [39.7825301439, -104.845293313]}, "address": "12175 Albrook Drive"}]}, {"__class__": "tuple", "__value__": [{"city": "Newnan", "zip": "30263", "community": "Preserve at Greison Trail", "state": "GA", "geocode": {"__class__": "tuple", "__value__": [33.3703575134, -84.7794418335]}, "address": "138 Greison Trail"}, {"city": "Newnan", "zip": "30263", "community": "The Preserve At Greison Trail", "state": "GA", "geocode": {"__class__": "tuple", "__value__": [33.370357, -84.779441]}, "address": "138 Greison Trail"}]}, {"__class__": "tuple", "__value__": [{"city": "Denver", "zip": "80014", "community": "The French Quarter at Nine Mile Station", "state": "CO", "geocode": {"__class__": "tuple", "__value__": [39.6929016113, -104.893852234]}, "address": "3227 South Parker Road"}, {"city": "Denver", "zip": "80014", "community": "French Quarter", "state": "CO", "geocode": {"__class__": "tuple", "__value__": [39.6929016113, -104.893852234]}, "address": "3227 South Parker Road"}]}, {"__class__": "tuple", "__value__": [{"city": "Aurora", "zip": "80247", "community": "Park at Canyon Ridge", "state": "CO", "geocode": {"__class__": "tuple", "__value__": [39.6847572327, -104.87348175]}, "address": "9757 East Colorado Avenue"}, {"city": "Aurora", "zip": "80247", "community": "The Park at Canyon Ridge", "state": "CO", "geocode": {"__class__": "tuple", "__value__": [39.6847572327, -104.87348175]}, "address": "9757 East Colorado Avenue"}]}, {"__class__": "tuple", "__value__": [{"city": "Rogers", "zip": "55374", "community": "Preserve at Commerce", "state": "MN", "geocode": {"__class__": "tuple", "__value__": [45.2023429871, -93.5437088013]}, "address": "13600 Commerce Boulevard"}, {"city": "Rogers", "zip": "55374", "community": "The Preserve at Commerce", "state": "MN", "geocode": {"__class__": "tuple", "__value__": [45.202342, -93.543708]}, "address": "13600 Commerce Boulevard"}]}, {"__class__": "tuple", "__value__": [{"city": "Washington", "zip": "20008", "community": "The Brandywine Apartments", "state": "DC", "geocode": {"__class__": "tuple", "__value__": [38.9492721558, -77.0652923584]}, "address": "4545 Connecticut Avenue North West"}, {"city": "Washington", "zip": "20008", "community": "Brandywine Apartments", "state": "DC", "geocode": {"__class__": "tuple", "__value__": [38.9492721558, -77.0652923584]}, "address": "4545 Connecticut Avenue North West"}]}, {"__class__": "tuple", "__value__": [{"city": "The Woodlands", "zip": "77380", "community": "The Millennium Six Pines Apartments", "state": "TX", "geocode": {"__class__": "tuple", "__value__": [30.1568410546, -95.4618606716]}, "address": "10200 Six Pines Drive"}, {"city": "The Woodlands", "zip": "77380", "community": "Millennium Six Pines", "state": "TX", "geocode": {"__class__": "tuple", "__value__": [30.1568410546, -95.4618606716]}, "address": "10200 Six Pines Drive"}]}, {"__class__": "tuple", "__value__": [{"city": "Saint Louis Park", "zip": "55416", "community": "The Millennium at West End", "state": "MN", "geocode": {"__class__": "tuple", "__value__": [44.9694709778, -93.3464126587]}, "address": "5245 Wayzata Boulevard"}, {"city": "Saint Louis Park", "zip": "55416", "community": "Millennium at West End", "state": "MN", "geocode": {"__class__": "tuple", "__value__": [44.9694709778, -93.3464126587]}, "address": "5245 Wayzata Boulevard"}]}, {"__class__": "tuple", "__value__": [{"city": "Duluth", "zip": "30096", "community": "The Promenade at Berkeley Apartments", "state": "GA", "geocode": {"__class__": "tuple", "__value__": [33.9927406311, -84.1664123535]}, "address": "3750 Peachtree Industrial Boulevard"}, {"city": "Duluth", "zip": "30096", "community": "Promenade at Berkeley", "state": "GA", "geocode": {"__class__": "tuple", "__value__": [33.9927406311, -84.1664123535]}, "address": "3750 Peachtree Industrial Boulevard"}]}, {"__class__": "tuple", "__value__": [{"city": "Alexandria", "zip": "22304", "community": "ParcView Apartments", "state": "VA", "geocode": {"__class__": "tuple", "__value__": [38.8165435791, -77.1250076294]}, "address": "5380 Holmes Run Parkway"}, {"city": "Alexandria", "zip": "20850", "community": "ParcView Apartments", "state": "VA", "geocode": {"__class__": "tuple", "__value__": [38.8165435791, -77.1250076294]}, "address": "5380 Holmes Run Parkway"}]}, {"__class__": "tuple", "__value__": [{"city": "Alpharetta", "zip": "30004", "community": "The Stoneleigh at Deerfield Apartments", "state": "GA", "geocode": {"__class__": "tuple", "__value__": [34.1019439697, -84.2495422363]}, "address": "1800 Deerfield Point"}, {"city": "Alpharetta", "zip": "30004", "community": "Stoneleigh at Deerfield", "state": "GA", "geocode": {"__class__": "tuple", "__value__": [34.1019439697, -84.2495422363]}, "address": "1800 Deerfield Point"}]}, {"__class__": "tuple", "__value__": [{"city": "Atlanta", "zip": "30350", "community": "The Carlyle of Sandy Springs Apartments", "state": "GA", "geocode": {"__class__": "tuple", "__value__": [33.9985616505, -84.3450450897]}, "address": "501 North River Parkway"}, {"city": "Atlanta", "zip": "30350", "community": "Carlyle of Sandy Springs", "state": "GA", "geocode": {"__class__": "tuple", "__value__": [33.9985616505, -84.3450450897]}, "address": "501 North River Parkway"}]}, {"__class__": "tuple", "__value__": [{"city": "Dallas", "zip": "75219", "community": "Arpeggio Victory Park", "state": "TX", "geocode": {"__class__": "tuple", "__value__": [32.7881240845, -96.8113174438]}, "address": "2425 Victory Avenue"}, {"city": "Dallas", "zip": "75219", "community": "Arpeggio at Victory Park", "state": "TX", "geocode": {"__class__": "tuple", "__value__": [32.7881240845, -96.8113174438]}, "address": "2425 Victory Avenue"}]}, {"__class__": "tuple", "__value__": [{"city": "Denver", "zip": "80236", "community": "Loretto Heights", "state": "CO", "geocode": {"__class__": "tuple", "__value__": [39.6567995846, -105.032664388]}, "address": "3400 South Lowell Boulevardy"}, {"city": "Denver", "zip": "80110", "community": "Loretto Heights Apartments", "state": "CO", "geocode": {"__class__": "tuple", "__value__": [39.6567995846, -105.032664388]}, "address": "3400 South Lowell Boulevard"}]}, {"__class__": "tuple", "__value__": [{"city": "Aurora", "zip": "80011", "community": "Shadow Tree Apartments", "state": "CO", "geocode": {"__class__": "tuple", "__value__": [39.74538, -104.823913]}, "address": "1800 Billings Street"}, {"city": "Aurora", "zip": "80011", "community": "Shadowtree Apartments", "state": "CO", "geocode": {"__class__": "tuple", "__value__": [39.7453804016, -104.823913574]}, "address": "1800 Billings Street"}]}, {"__class__": "tuple", "__value__": [{"city": "Aurora", "zip": "80012", "community": "Meadowlark Apartments", "state": "CO", "geocode": {"__class__": "tuple", "__value__": [39.7013626099, -104.844047546]}, "address": "953 South Troy Street"}, {"city": "Aurora", "zip": "80012", "community": "Meadow Lark Apartments", "state": "CO", "geocode": {"__class__": "tuple", "__value__": [39.7013626099, -104.844047546]}, "address": "953 South Troy Street"}]}, {"__class__": "tuple", "__value__": [{"city": "Washington", "zip": "20816", "community": "2501 Porter Apartments", "state": "DC", "geocode": {"__class__": "tuple", "__value__": [38.9357795715, -77.0536651611]}, "address": "2501 Porter Street North West"}, {"city": "Washington", "zip": "20008", "community": "2501 Porter", "state": "DC", "geocode": {"__class__": "tuple", "__value__": [38.9357795715, -77.0536651611]}, "address": "2501 Porter Street North West"}]}, {"__class__": "tuple", "__value__": [{"city": "Arlington", "zip": "20708", "community": "Penrose Square Apartments", "state": "VA", "geocode": {"__class__": "tuple", "__value__": [38.8636512756, -77.0849075317]}, "address": "2501 9th Road South"}, {"city": "Arlington", "zip": "22204", "community": "Penrose Square", "state": "VA", "geocode": {"__class__": "tuple", "__value__": [38.8636512756, -77.0849075317]}, "address": "2501 9th Road South"}]}, {"__class__": "tuple", "__value__": [{"city": "Lakewood", "zip": "80227", "community": "The Windsor Townhomes and Apartments", "state": "CO", "geocode": {"__class__": "tuple", "__value__": [39.6588172913, -105.089370728]}, "address": "8153 West Eastman Place"}, {"city": "Lakewood", "zip": "80227", "community": "Windsor Townhomes and Apartments", "state": "CO", "geocode": {"__class__": "tuple", "__value__": [39.6588172913, -105.089370728]}, "address": "8153 West Eastman Place"}]}, {"__class__": "tuple", "__value__": [{"city": "Baltimore", "zip": "21244", "community": "Crosswinds at Rolling Road Apartments", "state": "MD", "geocode": {"__class__": "tuple", "__value__": [39.3292509019, -76.7664775997]}, "address": "2531 Sarrington Circle"}, {"city": "Baltimore", "zip": "20121", "community": "Crosswinds at Rolling Road Apartments", "state": "MD", "geocode": {"__class__": "tuple", "__value__": [39.3292509019, -76.7664775997]}, "address": "2531 Sarrington Circle"}]}, {"__class__": "tuple", "__value__": [{"city": "Landover Hills", "zip": "20784", "community": "Coopers Crossing", "state": "MD", "geocode": {"__class__": "tuple", "__value__": [38.9406403899, -76.9001863897]}, "address": "4085 Warner Avenue"}, {"city": "Landover Hills", "zip": "20784", "community": "Cooper's Crossing", "state": "MD", "geocode": {"__class__": "tuple", "__value__": [38.9406403899, -76.9001863897]}, "address": "4085 Warner Avenue"}]}, {"__class__": "tuple", "__value__": [{"city": "Saint Paul", "zip": "55116", "community": "Highland On The Park", "state": "MN", "geocode": {"__class__": "tuple", "__value__": [44.9092239887, -93.1543508917]}, "address": "2000 West 7th Street"}, {"city": "Saint Paul", "zip": "55116", "community": "Highland on the Park", "state": "MN", "geocode": {"__class__": "tuple", "__value__": [44.9092239887, -93.1543508917]}, "address": "2000 West 7th Street"}]}, {"__class__": "tuple", "__value__": [{"city": "Lewisville", "zip": "75067", "community": "Colonial Village at Oak Bend", "state": "TX", "geocode": {"__class__": "tuple", "__value__": [33.0055236816, -96.9912414551]}, "address": "195 East Round Grove Road"}, {"city": "Lewisville", "zip": "75067", "community": "Colonial Village at Oakbend", "state": "TX", "geocode": {"__class__": "tuple", "__value__": [33.0055236816, -96.9912414551]}, "address": "195 East Round Grove Road"}]}, {"__class__": "tuple", "__value__": [{"city": "Washington", "zip": "20814", "community": "Hillside Terrace Apartments", "state": "DC", "geocode": {"__class__": "tuple", "__value__": [38.8680215925, -76.9734723866]}, "address": "1812 23rd Street South East"}, {"city": "Washington", "zip": "20020", "community": "Hillside Terrace", "state": "DC", "geocode": {"__class__": "tuple", "__value__": [38.8680215925, -76.9734723866]}, "address": "1812 23rd Street South East"}]}, {"__class__": "tuple", "__value__": [{"city": "Saint Paul", "zip": "55114", "community": "The Lyric at Carleton Place", "state": "MN", "geocode": {"__class__": "tuple", "__value__": [44.9661064148, -93.1959762573]}, "address": "765 North Hampden Avenue"}, {"city": "St Paul", "zip": "55114", "community": "The Lyric at Carleton Place", "state": "MN", "geocode": {"__class__": "tuple", "__value__": [44.9625080824, -93.1926005334]}, "address": "765 North Hampden Avenue"}]}, {"__class__": "tuple", "__value__": [{"city": "Englewood", "zip": "80110", "community": "Alexan City Center", "state": "CO", "geocode": {"__class__": "tuple", "__value__": [39.6558074951, -104.996795654]}, "address": "801 Englewood Parkway"}, {"city": "Englewood", "zip": "80110", "community": "Alexan CityCenter", "state": "CO", "geocode": {"__class__": "tuple", "__value__": [39.6558074951, -104.996795654]}, "address": "801 Englewood Parkway"}]}, {"__class__": "tuple", "__value__": [{"city": "Indianapolis", "zip": "46217", "community": "Aspen Lake Apartments", "state": "IN", "geocode": {"__class__": "tuple", "__value__": [39.6600846201, -86.1951993406]}, "address": "7202 Winslet Boulevard"}, {"city": "Indianapolis", "zip": "46217", "community": "Aspen Lakes", "state": "IN", "geocode": {"__class__": "tuple", "__value__": [39.6600846201, -86.1951993406]}, "address": "7202 Winslet Boulevard"}]}, {"__class__": "tuple", "__value__": [{"city": "Brooklyn Park", "zip": "55429", "community": "The Willow Apartments", "state": "MN", "geocode": {"__class__": "tuple", "__value__": [45.0729366392, -93.3596498519]}, "address": "6232 65th Avenue North"}, {"city": "Brooklyn Park", "zip": "55429", "community": "The Willows", "state": "MN", "geocode": {"__class__": "tuple", "__value__": [45.0729366392, -93.3596498519]}, "address": "6232 65th Avenue North"}]}, {"__class__": "tuple", "__value__": [{"city": "Alexandria", "zip": "22314", "community": "1111 Belle Pre Apartments", "state": "VA", "geocode": {"__class__": "tuple", "__value__": [38.8142272085, -77.0497852564]}, "address": "1111 Belle Pre Way"}, {"city": "Alexandria", "zip": "20747", "community": "1111 Belle Pre Apartments", "state": "VA", "geocode": {"__class__": "tuple", "__value__": [38.8142272085, -77.0497852564]}, "address": "1111 Belle Pre Way"}]}, {"__class__": "tuple", "__value__": [{"city": "Dallas", "zip": "75220", "community": "La Valencia", "state": "TX", "geocode": {"__class__": "tuple", "__value__": [32.8574004024, -96.8946316838]}, "address": "10106 Technology Boulevard East"}, {"city": "Dallas", "zip": "75220", "community": "La Valencia", "state": "TX", "geocode": {"__class__": "tuple", "__value__": [32.858383, -96.899894]}, "address": "10106 Technology Boulevard"}]}, {"__class__": "tuple", "__value__": [{"city": "Denver", "zip": "80223", "community": "Baker Tower Apartments", "state": "CO", "geocode": {"__class__": "tuple", "__value__": [39.721458, -104.988685]}, "address": "330 Acoma Street"}, {"city": "Denver", "zip": "80223", "community": "Turnberry at Heather Ridge", "state": "CO", "geocode": {"__class__": "tuple", "__value__": [39.7214584351, -104.988685608]}, "address": "330 Acoma Street"}]}]}